{
  "features": [
    {
      "geometry": {
        "coordinates": [
          [
            103.890393,
            1.376554
          ],
          [
            103.890549,
            1.376345
          ]
        ],
        "type": "LineString"
      },
      "properties": {
        "alternate_snap_reachable_count": 9,
        "alternate_snap_search_m": 50.0,
        "best_alternate_snap": {
          "component": 0,
          "graph_node": [
            34337.99,
            39791.71
          ],
          "route_m": 301.7,
          "route_plus_snap_m": 340.4,
          "snap_m": 38.7
        },
        "bus_candidate_count": 5,
        "current_graph_route_m": 347.9,
        "current_graph_route_state": "implausible_detour",
        "current_graph_route_uses_direct_fallback": true,
        "current_route_vs_validation_direct_sanity": "plausible",
        "current_score_best_name": "Blk 535",
        "current_score_best_routed_m": null,
        "current_score_best_type": "bus_stop",
        "current_score_bus_stop_access_connector_m": null,
        "current_score_direct_bus_fallback_reason": "implausible_graph_route_to_datamall_bus_stop_within_direct_radius",
        "current_score_routing_type": "direct_bus_fallback_unrouted",
        "current_score_state": "SCORED_PARTIAL",
        "current_score_total": 55.0,
        "diagnostic_class": "alternate_bus_snap_candidate",
        "direct_bus_fallback_reason": "implausible_graph_route_to_datamall_bus_stop_within_direct_radius",
        "endpoint_source": "postal_universe_to_transit_poi",
        "new_best_name": "Blk 535",
        "new_best_routing_type": "direct_bus_fallback_unrouted",
        "new_best_shortest_m": 28.9,
        "new_best_type": "bus_stop",
        "new_bus_routing_type": "direct_bus_fallback_unrouted",
        "new_bus_shortest_m": 28.9,
        "new_bus_state": "SCORED_PARTIAL",
        "new_state": "SCORED_PARTIAL",
        "new_total": 55.0,
        "old_abs_pct_delta": 709.07,
        "old_direction": "project_longer_than_onemap",
        "old_onemap_walk_m": 43.0,
        "old_project_shortest_m": 347.9,
        "old_validation_best_node": "Blk 535",
        "origin_component": 0,
        "origin_component_reaches_target": true,
        "origin_snap_m": 31.0,
        "postal": "530535",
        "priority_rank": 1,
        "queue": "missing_bus_connector_priority",
        "same_validation_and_current_stop_name": true,
        "source_artifact": "qa\\onemap_outlier_replay_bus_longer_profile_active_safe_mayflower_guarded_20_20260803.json",
        "source_flags": {
          "best_bridge_underpass_m": 0.0,
          "best_bus_stop_access_connector_m": 0.0,
          "best_direct_bus_fallback_m": 28.9,
          "best_inferred_hdb_m": 0.0,
          "best_official_lta_shelter_m": 0.0,
          "best_osm_shelter_m": 0.0,
          "best_top_source_layer_m": {
            "direct_bus_fallback": 28.9
          },
          "best_unknown_source_m": 0.0,
          "bus_bus_stop_access_connector_m": 0.0,
          "bus_direct_bus_fallback_m": 28.9,
          "bus_top_source_layer_m": {
            "direct_bus_fallback": 28.9
          },
          "bus_unknown_source_m": 0.0,
          "untrusted_bus_route_reason_counts": {}
        },
        "target_bus_stop_code": "64361",
        "target_bus_stop_name": "Blk 535",
        "target_component": 0,
        "target_direct_m": 28.9,
        "target_match_method": "matched_target_name",
        "target_snap_m": 13.6,
        "validation_abs_delta_m": 304.9,
        "validation_area": "HOUGANG",
        "validation_best_node_type": "bus_stop",
        "validation_direct_distance_m": 29.0,
        "validation_distance_sanity": "plausible",
        "validation_onemap_vs_direct_delta_m": 14.0,
        "validation_onemap_walk_m": 43.0
      },
      "type": "Feature"
    },
    {
      "geometry": {
        "coordinates": [
          [
            103.909024,
            1.320963
          ],
          [
            103.91,
            1.32027
          ]
        ],
        "type": "LineString"
      },
      "properties": {
        "alternate_snap_reachable_count": 10,
        "alternate_snap_search_m": 50.0,
        "best_alternate_snap": {
          "component": 0,
          "graph_node": [
            36504.82,
            33634.29
          ],
          "route_m": 792.2,
          "route_plus_snap_m": 827.5,
          "snap_m": 35.2
        },
        "bus_candidate_count": 3,
        "current_graph_route_m": 860.6,
        "current_graph_route_state": "implausible_detour",
        "current_graph_route_uses_direct_fallback": true,
        "current_route_vs_validation_direct_sanity": "plausible",
        "current_score_best_name": "Opp Hong San Si Tp",
        "current_score_best_routed_m": null,
        "current_score_best_type": "bus_stop",
        "current_score_bus_stop_access_connector_m": null,
        "current_score_direct_bus_fallback_reason": "implausible_graph_route_to_datamall_bus_stop_within_direct_radius",
        "current_score_routing_type": "direct_bus_fallback_unrouted",
        "current_score_state": "SCORED_PARTIAL",
        "current_score_total": 55.0,
        "diagnostic_class": "alternate_bus_snap_candidate",
        "direct_bus_fallback_reason": "implausible_graph_route_to_datamall_bus_stop_within_direct_radius",
        "endpoint_source": "postal_universe_to_transit_poi",
        "new_best_name": "Opp Hong San Si Tp",
        "new_best_routing_type": "direct_bus_fallback_unrouted",
        "new_best_shortest_m": 133.0,
        "new_best_type": "bus_stop",
        "new_bus_routing_type": "direct_bus_fallback_unrouted",
        "new_bus_shortest_m": 133.0,
        "new_bus_state": "SCORED_PARTIAL",
        "new_state": "SCORED_PARTIAL",
        "new_total": 55.0,
        "old_abs_pct_delta": 388.977,
        "old_direction": "project_longer_than_onemap",
        "old_onemap_walk_m": 176.0,
        "old_project_shortest_m": 860.6,
        "old_validation_best_node": "Opp Hong San Si Tp",
        "origin_component": 0,
        "origin_component_reaches_target": true,
        "origin_snap_m": 21.7,
        "postal": "417092",
        "priority_rank": 2,
        "queue": "missing_bus_connector_priority",
        "same_validation_and_current_stop_name": true,
        "source_artifact": "qa\\onemap_outlier_replay_bus_longer_profile_active_safe_mayflower_guarded_20_20260803.json",
        "source_flags": {
          "best_bridge_underpass_m": 0.0,
          "best_bus_stop_access_connector_m": 0.0,
          "best_direct_bus_fallback_m": 133.0,
          "best_inferred_hdb_m": 0.0,
          "best_official_lta_shelter_m": 0.0,
          "best_osm_shelter_m": 0.0,
          "best_top_source_layer_m": {
            "direct_bus_fallback": 133.0
          },
          "best_unknown_source_m": 0.0,
          "bus_bus_stop_access_connector_m": 0.0,
          "bus_direct_bus_fallback_m": 133.0,
          "bus_top_source_layer_m": {
            "direct_bus_fallback": 133.0
          },
          "bus_unknown_source_m": 0.0,
          "untrusted_bus_route_reason_counts": {}
        },
        "target_bus_stop_code": "83031",
        "target_bus_stop_name": "Opp Hong San Si Tp",
        "target_component": 0,
        "target_direct_m": 133.0,
        "target_match_method": "matched_target_name",
        "target_snap_m": 12.1,
        "validation_abs_delta_m": 684.6,
        "validation_area": "BEDOK",
        "validation_best_node_type": "bus_stop",
        "validation_direct_distance_m": 133.1,
        "validation_distance_sanity": "plausible",
        "validation_onemap_vs_direct_delta_m": 42.9,
        "validation_onemap_walk_m": 176.0
      },
      "type": "Feature"
    },
    {
      "geometry": {
        "coordinates": [
          [
            103.880887,
            1.347235
          ],
          [
            103.880912,
            1.346768
          ]
        ],
        "type": "LineString"
      },
      "properties": {
        "alternate_snap_reachable_count": 15,
        "alternate_snap_search_m": 50.0,
        "best_alternate_snap": {
          "component": 0,
          "graph_node": [
            33316.46,
            36548.72
          ],
          "route_m": 285.9,
          "route_plus_snap_m": 306.2,
          "snap_m": 20.3
        },
        "bus_candidate_count": 4,
        "current_graph_route_m": 457.4,
        "current_graph_route_state": "implausible_detour",
        "current_graph_route_uses_direct_fallback": true,
        "current_route_vs_validation_direct_sanity": "plausible",
        "current_score_best_name": "Raya Gdn",
        "current_score_best_routed_m": null,
        "current_score_best_type": "bus_stop",
        "current_score_bus_stop_access_connector_m": null,
        "current_score_direct_bus_fallback_reason": "implausible_graph_route_to_datamall_bus_stop_within_direct_radius",
        "current_score_routing_type": "direct_bus_fallback_unrouted",
        "current_score_state": "SCORED_PARTIAL",
        "current_score_total": 55.0,
        "diagnostic_class": "alternate_bus_snap_candidate",
        "direct_bus_fallback_reason": "implausible_graph_route_to_datamall_bus_stop_within_direct_radius",
        "endpoint_source": "postal_universe_to_transit_poi",
        "new_best_name": "Raya Gdn",
        "new_best_routing_type": "direct_bus_fallback_unrouted",
        "new_best_shortest_m": 51.7,
        "new_best_type": "bus_stop",
        "new_bus_routing_type": "direct_bus_fallback_unrouted",
        "new_bus_shortest_m": 51.7,
        "new_bus_state": "SCORED_PARTIAL",
        "new_state": "SCORED_PARTIAL",
        "new_total": 55.0,
        "old_abs_pct_delta": 371.546,
        "old_direction": "project_longer_than_onemap",
        "old_onemap_walk_m": 97.0,
        "old_project_shortest_m": 457.4,
        "old_validation_best_node": "Raya Gdn",
        "origin_component": 0,
        "origin_component_reaches_target": true,
        "origin_snap_m": 24.6,
        "postal": "534317",
        "priority_rank": 3,
        "queue": "missing_bus_connector_priority",
        "same_validation_and_current_stop_name": true,
        "source_artifact": "qa\\onemap_outlier_replay_bus_longer_profile_active_safe_mayflower_guarded_20_20260803.json",
        "source_flags": {
          "best_bridge_underpass_m": 0.0,
          "best_bus_stop_access_connector_m": 0.0,
          "best_direct_bus_fallback_m": 51.7,
          "best_inferred_hdb_m": 0.0,
          "best_official_lta_shelter_m": 0.0,
          "best_osm_shelter_m": 0.0,
          "best_top_source_layer_m": {
            "direct_bus_fallback": 51.7
          },
          "best_unknown_source_m": 0.0,
          "bus_bus_stop_access_connector_m": 0.0,
          "bus_direct_bus_fallback_m": 51.7,
          "bus_top_source_layer_m": {
            "direct_bus_fallback": 51.7
          },
          "bus_unknown_source_m": 0.0,
          "untrusted_bus_route_reason_counts": {}
        },
        "target_bus_stop_code": "62039",
        "target_bus_stop_name": "Raya Gdn",
        "target_component": 0,
        "target_direct_m": 51.7,
        "target_match_method": "matched_target_name",
        "target_snap_m": 11.1,
        "validation_abs_delta_m": 360.4,
        "validation_area": "HOUGANG",
        "validation_best_node_type": "bus_stop",
        "validation_direct_distance_m": 52.0,
        "validation_distance_sanity": "plausible",
        "validation_onemap_vs_direct_delta_m": 45.0,
        "validation_onemap_walk_m": 97.0
      },
      "type": "Feature"
    },
    {
      "geometry": {
        "coordinates": [
          [
            103.626506,
            1.309657
          ],
          [
            103.626821,
            1.308546
          ]
        ],
        "type": "LineString"
      },
      "properties": {
        "alternate_snap_reachable_count": 4,
        "alternate_snap_search_m": 50.0,
        "best_alternate_snap": {
          "component": 0,
          "graph_node": [
            4996.11,
            32336.79
          ],
          "route_m": 561.0,
          "route_plus_snap_m": 589.8,
          "snap_m": 28.8
        },
        "bus_candidate_count": 2,
        "current_graph_route_m": 613.4,
        "current_graph_route_state": "implausible_detour",
        "current_graph_route_uses_direct_fallback": true,
        "current_route_vs_validation_direct_sanity": "plausible",
        "current_score_best_name": "Aft Tuas Sth St 2",
        "current_score_best_routed_m": null,
        "current_score_best_type": "bus_stop",
        "current_score_bus_stop_access_connector_m": null,
        "current_score_direct_bus_fallback_reason": "implausible_graph_route_to_datamall_bus_stop_within_direct_radius",
        "current_score_routing_type": "direct_bus_fallback_unrouted",
        "current_score_state": "SCORED_PARTIAL",
        "current_score_total": 51.5,
        "diagnostic_class": "alternate_bus_snap_candidate",
        "direct_bus_fallback_reason": "implausible_graph_route_to_datamall_bus_stop_within_direct_radius",
        "endpoint_source": "postal_universe_to_transit_poi",
        "new_best_name": "Aft Tuas Sth St 2",
        "new_best_routing_type": "direct_bus_fallback_unrouted",
        "new_best_shortest_m": 127.8,
        "new_best_type": "bus_stop",
        "new_bus_routing_type": "direct_bus_fallback_unrouted",
        "new_bus_shortest_m": 127.8,
        "new_bus_state": "SCORED_PARTIAL",
        "new_state": "SCORED_PARTIAL",
        "new_total": 51.5,
        "old_abs_pct_delta": 308.933,
        "old_direction": "project_longer_than_onemap",
        "old_onemap_walk_m": 150.0,
        "old_project_shortest_m": 613.4,
        "old_validation_best_node": "Aft Tuas Sth St 2",
        "origin_component": 0,
        "origin_component_reaches_target": true,
        "origin_snap_m": 27.5,
        "postal": "637814",
        "priority_rank": 4,
        "queue": "missing_bus_connector_priority",
        "same_validation_and_current_stop_name": true,
        "source_artifact": "qa\\onemap_outlier_replay_bus_longer_profile_active_safe_mayflower_guarded_20_20260803.json",
        "source_flags": {
          "best_bridge_underpass_m": 0.0,
          "best_bus_stop_access_connector_m": 0.0,
          "best_direct_bus_fallback_m": 127.8,
          "best_inferred_hdb_m": 0.0,
          "best_official_lta_shelter_m": 0.0,
          "best_osm_shelter_m": 0.0,
          "best_top_source_layer_m": {
            "direct_bus_fallback": 127.8
          },
          "best_unknown_source_m": 0.0,
          "bus_bus_stop_access_connector_m": 0.0,
          "bus_direct_bus_fallback_m": 127.8,
          "bus_top_source_layer_m": {
            "direct_bus_fallback": 127.8
          },
          "bus_unknown_source_m": 0.0,
          "untrusted_bus_route_reason_counts": {}
        },
        "target_bus_stop_code": "26289",
        "target_bus_stop_name": "Aft Tuas Sth St 2",
        "target_component": 0,
        "target_direct_m": 127.8,
        "target_match_method": "matched_target_name",
        "target_snap_m": 13.0,
        "validation_abs_delta_m": 463.4,
        "validation_area": "TUAS",
        "validation_best_node_type": "bus_stop",
        "validation_direct_distance_m": 128.4,
        "validation_distance_sanity": "plausible",
        "validation_onemap_vs_direct_delta_m": 21.6,
        "validation_onemap_walk_m": 150.0
      },
      "type": "Feature"
    }
  ],
  "type": "FeatureCollection"
}
