{
  "features": [
    {
      "geometry": {
        "coordinates": [
          [
            103.83714522767019,
            1.3680060995063459
          ],
          [
            103.83749889582384,
            1.3680715025408114
          ]
        ],
        "type": "LineString"
      },
      "properties": {
        "audit_id": "feedback-560234-segment-4-covered-source-overlap-review",
        "bridge_overlap_ratio": 0.0,
        "candidate_classification": "covered_source_overlap_review",
        "covered": "yes",
        "covered_overlap_ratio": 1.0,
        "destination": "MAYFLOWER MRT STATION Exit 5",
        "hdb_overlap_ratio": 0.463,
        "is_covered": true,
        "label": "sheltered",
        "length_m": 40.0,
        "official_shelter_overlap_ratio": 0.0,
        "osm_shelter_overlap_ratio": 1.0,
        "postal": "560234",
        "promotion_status": "review_ready_not_scoring",
        "review_note": "Draft only. Network build ignores this until a human verifies source evidence and changes status to approved.",
        "segment_index": 4,
        "source": "route_feedback_component_gap_source_audit",
        "status": "needs_owner_review"
      },
      "type": "Feature"
    },
    {
      "geometry": {
        "coordinates": [
          [
            103.83688510169024,
            1.3686568985432714
          ],
          [
            103.83668821601444,
            1.368642682221828
          ]
        ],
        "type": "LineString"
      },
      "properties": {
        "audit_id": "feedback-560234-segment-6-hdb-source-overlap-review",
        "bridge_overlap_ratio": 0.0,
        "candidate_classification": "hdb_source_overlap_review",
        "covered": "yes",
        "covered_overlap_ratio": 1.0,
        "destination": "MAYFLOWER MRT STATION Exit 5",
        "hdb_overlap_ratio": 1.0,
        "is_covered": true,
        "label": "sheltered",
        "length_m": 22.0,
        "official_shelter_overlap_ratio": 0.0,
        "osm_shelter_overlap_ratio": 1.0,
        "postal": "560234",
        "promotion_status": "review_ready_not_scoring",
        "review_note": "Draft only. Network build ignores this until a human verifies source evidence and changes status to approved.",
        "segment_index": 6,
        "source": "route_feedback_component_gap_source_audit",
        "status": "needs_owner_review"
      },
      "type": "Feature"
    },
    {
      "geometry": {
        "coordinates": [
          [
            103.83749889582384,
            1.3680715025408114
          ],
          [
            103.83700936506972,
            1.3687519289548573
          ]
        ],
        "type": "LineString"
      },
      "properties": {
        "audit_id": "feedback-560231-segment-1-hdb-source-overlap-review",
        "bridge_overlap_ratio": 0.0,
        "candidate_classification": "hdb_source_overlap_review",
        "covered": "yes",
        "covered_overlap_ratio": 1.0,
        "destination": "MAYFLOWER MRT STATION Exit 5",
        "hdb_overlap_ratio": 1.0,
        "is_covered": true,
        "label": "void_deck",
        "length_m": 92.9,
        "official_shelter_overlap_ratio": 0.0,
        "osm_shelter_overlap_ratio": 1.0,
        "postal": "560231",
        "promotion_status": "review_ready_not_scoring",
        "review_note": "Draft only. Network build ignores this until a human verifies source evidence and changes status to approved.",
        "segment_index": 1,
        "source": "route_feedback_component_gap_source_audit",
        "status": "needs_owner_review"
      },
      "type": "Feature"
    },
    {
      "geometry": {
        "coordinates": [
          [
            103.83735414428378,
            1.3675030013027443
          ],
          [
            103.83719470212453,
            1.3675103992661641
          ]
        ],
        "type": "LineString"
      },
      "properties": {
        "audit_id": "feedback-560225-segment-3-hdb-source-overlap-review",
        "bridge_overlap_ratio": 0.0,
        "candidate_classification": "hdb_source_overlap_review",
        "covered": "yes",
        "covered_overlap_ratio": 1.0,
        "destination": "MAYFLOWER MRT STATION Exit 5",
        "hdb_overlap_ratio": 1.0,
        "is_covered": true,
        "label": "sheltered",
        "length_m": 17.8,
        "official_shelter_overlap_ratio": 0.0,
        "osm_shelter_overlap_ratio": 1.0,
        "postal": "560225",
        "promotion_status": "review_ready_not_scoring",
        "review_note": "Draft only. Network build ignores this until a human verifies source evidence and changes status to approved.",
        "segment_index": 3,
        "source": "route_feedback_component_gap_source_audit",
        "status": "needs_owner_review"
      },
      "type": "Feature"
    },
    {
      "geometry": {
        "coordinates": [
          [
            103.83688510169024,
            1.3686568985432714
          ],
          [
            103.83674177085527,
            1.368694863965631
          ]
        ],
        "type": "LineString"
      },
      "properties": {
        "audit_id": "feedback-560225-segment-7-hdb-source-overlap-review",
        "bridge_overlap_ratio": 0.0,
        "candidate_classification": "hdb_source_overlap_review",
        "covered": "yes",
        "covered_overlap_ratio": 1.0,
        "destination": "MAYFLOWER MRT STATION Exit 5",
        "hdb_overlap_ratio": 1.0,
        "is_covered": true,
        "label": "sheltered",
        "length_m": 16.5,
        "official_shelter_overlap_ratio": 0.0,
        "osm_shelter_overlap_ratio": 1.0,
        "postal": "560225",
        "promotion_status": "review_ready_not_scoring",
        "review_note": "Draft only. Network build ignores this until a human verifies source evidence and changes status to approved.",
        "segment_index": 7,
        "source": "route_feedback_component_gap_source_audit",
        "status": "needs_owner_review"
      },
      "type": "Feature"
    },
    {
      "geometry": {
        "coordinates": [
          [
            103.83674177085527,
            1.368694863965631
          ],
          [
            103.83644010313604,
            1.3688351041490185
          ]
        ],
        "type": "LineString"
      },
      "properties": {
        "audit_id": "feedback-560225-segment-8-covered-source-overlap-review",
        "bridge_overlap_ratio": 0.0,
        "candidate_classification": "covered_source_overlap_review",
        "covered": "yes",
        "covered_overlap_ratio": 1.0,
        "destination": "MAYFLOWER MRT STATION Exit 5",
        "hdb_overlap_ratio": 0.216,
        "is_covered": true,
        "label": "covered_bridge",
        "length_m": 37.0,
        "official_shelter_overlap_ratio": 0.0,
        "osm_shelter_overlap_ratio": 1.0,
        "postal": "560225",
        "promotion_status": "review_ready_not_scoring",
        "review_note": "Draft only. Network build ignores this until a human verifies source evidence and changes status to approved.",
        "segment_index": 8,
        "source": "route_feedback_component_gap_source_audit",
        "status": "needs_owner_review"
      },
      "type": "Feature"
    }
  ],
  "name": "draft_audited_shelter_corrections",
  "schema": "shiok-audited-shelter-corrections-v1",
  "type": "FeatureCollection",
  "usage": "Draft review artifact only. Copy reviewed features into data/audited_shelter_corrections.geojson and set status=approved only after human source review."
}