{
  "features": [
    {
      "geometry": {
        "coordinates": [
          [
            103.890393,
            1.376554
          ],
          [
            103.890549,
            1.376345
          ]
        ],
        "type": "LineString"
      },
      "properties": {
        "current_route_vs_validation_direct_sanity": "plausible",
        "direct_bus_fallback_reason": "implausible_graph_route_to_datamall_bus_stop_within_direct_radius",
        "endpoint_source": "postal_universe_to_transit_poi",
        "new_best_name": "Blk 535",
        "new_best_routing_type": "direct_bus_fallback_unrouted",
        "new_best_shortest_m": 28.9,
        "new_best_type": "bus_stop",
        "new_bus_routing_type": "direct_bus_fallback_unrouted",
        "new_bus_shortest_m": 28.9,
        "new_bus_state": "SCORED_PARTIAL",
        "new_state": "SCORED_PARTIAL",
        "new_total": 55.0,
        "old_abs_pct_delta": 709.07,
        "old_direction": "project_longer_than_onemap",
        "old_onemap_walk_m": 43.0,
        "old_project_shortest_m": 347.9,
        "old_validation_best_node": "Blk 535",
        "postal": "530535",
        "priority_rank": 1,
        "queue": "missing_bus_connector_priority",
        "source_artifact": "qa\\onemap_outlier_replay_bus_longer_profile_active_20260802.json",
        "source_flags": {
          "best_bridge_underpass_m": 0.0,
          "best_bus_stop_access_connector_m": 0.0,
          "best_direct_bus_fallback_m": 28.9,
          "best_inferred_hdb_m": 0.0,
          "best_official_lta_shelter_m": 0.0,
          "best_osm_shelter_m": 0.0,
          "best_top_source_layer_m": {
            "direct_bus_fallback": 28.9
          },
          "bus_bus_stop_access_connector_m": 0.0,
          "bus_direct_bus_fallback_m": 28.9,
          "bus_top_source_layer_m": {
            "direct_bus_fallback": 28.9
          }
        },
        "validation_area": "HOUGANG",
        "validation_best_node_type": "bus_stop",
        "validation_direct_distance_m": 29.0,
        "validation_distance_sanity": "plausible",
        "validation_onemap_vs_direct_delta_m": 14.0
      },
      "type": "Feature"
    },
    {
      "geometry": {
        "coordinates": [
          [
            103.909024,
            1.320963
          ],
          [
            103.91,
            1.32027
          ]
        ],
        "type": "LineString"
      },
      "properties": {
        "current_route_vs_validation_direct_sanity": "plausible",
        "direct_bus_fallback_reason": "implausible_graph_route_to_datamall_bus_stop_within_direct_radius",
        "endpoint_source": "postal_universe_to_transit_poi",
        "new_best_name": "Opp Hong San Si Tp",
        "new_best_routing_type": "direct_bus_fallback_unrouted",
        "new_best_shortest_m": 133.0,
        "new_best_type": "bus_stop",
        "new_bus_routing_type": "direct_bus_fallback_unrouted",
        "new_bus_shortest_m": 133.0,
        "new_bus_state": "SCORED_PARTIAL",
        "new_state": "SCORED_PARTIAL",
        "new_total": 55.0,
        "old_abs_pct_delta": 388.977,
        "old_direction": "project_longer_than_onemap",
        "old_onemap_walk_m": 176.0,
        "old_project_shortest_m": 860.6,
        "old_validation_best_node": "Opp Hong San Si Tp",
        "postal": "417092",
        "priority_rank": 2,
        "queue": "missing_bus_connector_priority",
        "source_artifact": "qa\\onemap_outlier_replay_bus_longer_profile_active_20260802.json",
        "source_flags": {
          "best_bridge_underpass_m": 0.0,
          "best_bus_stop_access_connector_m": 0.0,
          "best_direct_bus_fallback_m": 133.0,
          "best_inferred_hdb_m": 0.0,
          "best_official_lta_shelter_m": 0.0,
          "best_osm_shelter_m": 0.0,
          "best_top_source_layer_m": {
            "direct_bus_fallback": 133.0
          },
          "bus_bus_stop_access_connector_m": 0.0,
          "bus_direct_bus_fallback_m": 133.0,
          "bus_top_source_layer_m": {
            "direct_bus_fallback": 133.0
          }
        },
        "validation_area": "BEDOK",
        "validation_best_node_type": "bus_stop",
        "validation_direct_distance_m": 133.1,
        "validation_distance_sanity": "plausible",
        "validation_onemap_vs_direct_delta_m": 42.9
      },
      "type": "Feature"
    },
    {
      "geometry": {
        "coordinates": [
          [
            103.880887,
            1.347235
          ],
          [
            103.880912,
            1.346768
          ]
        ],
        "type": "LineString"
      },
      "properties": {
        "current_route_vs_validation_direct_sanity": "plausible",
        "direct_bus_fallback_reason": "implausible_graph_route_to_datamall_bus_stop_within_direct_radius",
        "endpoint_source": "postal_universe_to_transit_poi",
        "new_best_name": "Raya Gdn",
        "new_best_routing_type": "direct_bus_fallback_unrouted",
        "new_best_shortest_m": 51.7,
        "new_best_type": "bus_stop",
        "new_bus_routing_type": "direct_bus_fallback_unrouted",
        "new_bus_shortest_m": 51.7,
        "new_bus_state": "SCORED_PARTIAL",
        "new_state": "SCORED_PARTIAL",
        "new_total": 55.0,
        "old_abs_pct_delta": 371.546,
        "old_direction": "project_longer_than_onemap",
        "old_onemap_walk_m": 97.0,
        "old_project_shortest_m": 457.4,
        "old_validation_best_node": "Raya Gdn",
        "postal": "534317",
        "priority_rank": 3,
        "queue": "missing_bus_connector_priority",
        "source_artifact": "qa\\onemap_outlier_replay_bus_longer_profile_active_20260802.json",
        "source_flags": {
          "best_bridge_underpass_m": 0.0,
          "best_bus_stop_access_connector_m": 0.0,
          "best_direct_bus_fallback_m": 51.7,
          "best_inferred_hdb_m": 0.0,
          "best_official_lta_shelter_m": 0.0,
          "best_osm_shelter_m": 0.0,
          "best_top_source_layer_m": {
            "direct_bus_fallback": 51.7
          },
          "bus_bus_stop_access_connector_m": 0.0,
          "bus_direct_bus_fallback_m": 51.7,
          "bus_top_source_layer_m": {
            "direct_bus_fallback": 51.7
          }
        },
        "validation_area": "HOUGANG",
        "validation_best_node_type": "bus_stop",
        "validation_direct_distance_m": 52.0,
        "validation_distance_sanity": "plausible",
        "validation_onemap_vs_direct_delta_m": 45.0
      },
      "type": "Feature"
    },
    {
      "geometry": {
        "coordinates": [
          [
            103.626506,
            1.309657
          ],
          [
            103.626821,
            1.308546
          ]
        ],
        "type": "LineString"
      },
      "properties": {
        "current_route_vs_validation_direct_sanity": "plausible",
        "direct_bus_fallback_reason": "implausible_graph_route_to_datamall_bus_stop_within_direct_radius",
        "endpoint_source": "postal_universe_to_transit_poi",
        "new_best_name": "Aft Tuas Sth St 2",
        "new_best_routing_type": "direct_bus_fallback_unrouted",
        "new_best_shortest_m": 127.8,
        "new_best_type": "bus_stop",
        "new_bus_routing_type": "direct_bus_fallback_unrouted",
        "new_bus_shortest_m": 127.8,
        "new_bus_state": "SCORED_PARTIAL",
        "new_state": "SCORED_PARTIAL",
        "new_total": 51.5,
        "old_abs_pct_delta": 308.933,
        "old_direction": "project_longer_than_onemap",
        "old_onemap_walk_m": 150.0,
        "old_project_shortest_m": 613.4,
        "old_validation_best_node": "Aft Tuas Sth St 2",
        "postal": "637814",
        "priority_rank": 4,
        "queue": "missing_bus_connector_priority",
        "source_artifact": "qa\\onemap_outlier_replay_bus_longer_profile_active_20260802.json",
        "source_flags": {
          "best_bridge_underpass_m": 0.0,
          "best_bus_stop_access_connector_m": 0.0,
          "best_direct_bus_fallback_m": 127.8,
          "best_inferred_hdb_m": 0.0,
          "best_official_lta_shelter_m": 0.0,
          "best_osm_shelter_m": 0.0,
          "best_top_source_layer_m": {
            "direct_bus_fallback": 127.8
          },
          "bus_bus_stop_access_connector_m": 0.0,
          "bus_direct_bus_fallback_m": 127.8,
          "bus_top_source_layer_m": {
            "direct_bus_fallback": 127.8
          }
        },
        "validation_area": "TUAS",
        "validation_best_node_type": "bus_stop",
        "validation_direct_distance_m": 128.4,
        "validation_distance_sanity": "plausible",
        "validation_onemap_vs_direct_delta_m": 21.6
      },
      "type": "Feature"
    },
    {
      "geometry": {
        "coordinates": [
          [
            103.855735,
            1.323291
          ],
          [
            103.856261,
            1.32338
          ]
        ],
        "type": "LineString"
      },
      "properties": {
        "current_route_vs_validation_direct_sanity": "plausible",
        "direct_bus_fallback_reason": "implausible_graph_route_to_datamall_bus_stop_within_direct_radius",
        "endpoint_source": "postal_universe_to_transit_poi",
        "new_best_name": "Blk 82",
        "new_best_routing_type": "direct_bus_fallback_unrouted",
        "new_best_shortest_m": 59.4,
        "new_best_type": "bus_stop",
        "new_bus_routing_type": "direct_bus_fallback_unrouted",
        "new_bus_shortest_m": 59.4,
        "new_bus_state": "SCORED_PARTIAL",
        "new_state": "SCORED_PARTIAL",
        "new_total": 55.0,
        "old_abs_pct_delta": 217.849,
        "old_direction": "project_longer_than_onemap",
        "old_onemap_walk_m": 93.0,
        "old_project_shortest_m": 295.6,
        "old_validation_best_node": "Blk 82",
        "postal": "320087",
        "priority_rank": 5,
        "queue": "missing_bus_connector_priority",
        "source_artifact": "qa\\onemap_outlier_replay_bus_longer_profile_active_20260802.json",
        "source_flags": {
          "best_bridge_underpass_m": 0.0,
          "best_bus_stop_access_connector_m": 0.0,
          "best_direct_bus_fallback_m": 59.4,
          "best_inferred_hdb_m": 0.0,
          "best_official_lta_shelter_m": 0.0,
          "best_osm_shelter_m": 0.0,
          "best_top_source_layer_m": {
            "direct_bus_fallback": 59.4
          },
          "bus_bus_stop_access_connector_m": 0.0,
          "bus_direct_bus_fallback_m": 59.4,
          "bus_top_source_layer_m": {
            "direct_bus_fallback": 59.4
          }
        },
        "validation_area": "NOVENA",
        "validation_best_node_type": "bus_stop",
        "validation_direct_distance_m": 59.3,
        "validation_distance_sanity": "plausible",
        "validation_onemap_vs_direct_delta_m": 33.7
      },
      "type": "Feature"
    },
    {
      "geometry": {
        "coordinates": [
          [
            103.939815,
            1.342648
          ],
          [
            103.939682,
            1.341129
          ]
        ],
        "type": "LineString"
      },
      "properties": {
        "current_route_vs_validation_direct_sanity": "plausible",
        "direct_bus_fallback_reason": "implausible_graph_route_to_datamall_bus_stop_within_direct_radius",
        "endpoint_source": "postal_universe_to_transit_poi",
        "new_best_name": "Blk 967A",
        "new_best_routing_type": "direct_bus_fallback_unrouted",
        "new_best_shortest_m": 168.6,
        "new_best_type": "bus_stop",
        "new_bus_routing_type": "direct_bus_fallback_unrouted",
        "new_bus_shortest_m": 168.6,
        "new_bus_state": "SCORED_PARTIAL",
        "new_state": "SCORED_PARTIAL",
        "new_total": 50.8,
        "old_abs_pct_delta": 168.413,
        "old_direction": "project_longer_than_onemap",
        "old_onemap_walk_m": 189.0,
        "old_project_shortest_m": 507.3,
        "old_validation_best_node": "Blk 967A",
        "postal": "478983",
        "priority_rank": 6,
        "queue": "missing_bus_connector_priority",
        "source_artifact": "qa\\onemap_outlier_replay_bus_longer_profile_active_20260802.json",
        "source_flags": {
          "best_bridge_underpass_m": 0.0,
          "best_bus_stop_access_connector_m": 0.0,
          "best_direct_bus_fallback_m": 168.6,
          "best_inferred_hdb_m": 0.0,
          "best_official_lta_shelter_m": 0.0,
          "best_osm_shelter_m": 0.0,
          "best_top_source_layer_m": {
            "direct_bus_fallback": 168.6
          },
          "bus_bus_stop_access_connector_m": 0.0,
          "bus_direct_bus_fallback_m": 168.6,
          "bus_top_source_layer_m": {
            "direct_bus_fallback": 168.6
          }
        },
        "validation_area": "TAMPINES",
        "validation_best_node_type": "bus_stop",
        "validation_direct_distance_m": 169.6,
        "validation_distance_sanity": "plausible",
        "validation_onemap_vs_direct_delta_m": 19.4
      },
      "type": "Feature"
    },
    {
      "geometry": {
        "coordinates": [
          [
            103.859678,
            1.38947
          ],
          [
            103.859933,
            1.390494
          ]
        ],
        "type": "LineString"
      },
      "properties": {
        "current_route_vs_validation_direct_sanity": "plausible",
        "direct_bus_fallback_reason": "implausible_graph_route_to_datamall_bus_stop_within_direct_radius",
        "endpoint_source": "postal_universe_to_transit_poi",
        "new_best_name": "Serenity Pk",
        "new_best_routing_type": "direct_bus_fallback_unrouted",
        "new_best_shortest_m": 116.7,
        "new_best_type": "bus_stop",
        "new_bus_routing_type": "direct_bus_fallback_unrouted",
        "new_bus_shortest_m": 116.7,
        "new_bus_state": "SCORED_PARTIAL",
        "new_state": "SCORED_PARTIAL",
        "new_total": 55.0,
        "old_abs_pct_delta": 163.726,
        "old_direction": "project_longer_than_onemap",
        "old_onemap_walk_m": 212.0,
        "old_project_shortest_m": 559.1,
        "old_validation_best_node": "Serenity Pk",
        "postal": "806063",
        "priority_rank": 7,
        "queue": "missing_bus_connector_priority",
        "source_artifact": "qa\\onemap_outlier_replay_bus_longer_profile_active_20260802.json",
        "source_flags": {
          "best_bridge_underpass_m": 0.0,
          "best_bus_stop_access_connector_m": 0.0,
          "best_direct_bus_fallback_m": 116.7,
          "best_inferred_hdb_m": 0.0,
          "best_official_lta_shelter_m": 0.0,
          "best_osm_shelter_m": 0.0,
          "best_top_source_layer_m": {
            "direct_bus_fallback": 116.7
          },
          "bus_bus_stop_access_connector_m": 0.0,
          "bus_direct_bus_fallback_m": 116.7,
          "bus_top_source_layer_m": {
            "direct_bus_fallback": 116.7
          }
        },
        "validation_area": "SERANGOON",
        "validation_best_node_type": "bus_stop",
        "validation_direct_distance_m": 117.3,
        "validation_distance_sanity": "plausible",
        "validation_onemap_vs_direct_delta_m": 94.7
      },
      "type": "Feature"
    },
    {
      "geometry": {
        "coordinates": [
          [
            103.743943,
            1.342984
          ],
          [
            103.744076,
            1.342172
          ]
        ],
        "type": "LineString"
      },
      "properties": {
        "current_route_vs_validation_direct_sanity": "plausible",
        "direct_bus_fallback_reason": "implausible_graph_route_to_datamall_bus_stop_within_direct_radius",
        "endpoint_source": "postal_universe_to_transit_poi",
        "new_best_name": "Blk 241",
        "new_best_routing_type": "direct_bus_fallback_unrouted",
        "new_best_shortest_m": 91.0,
        "new_best_type": "bus_stop",
        "new_bus_routing_type": "direct_bus_fallback_unrouted",
        "new_bus_shortest_m": 91.0,
        "new_bus_state": "SCORED_PARTIAL",
        "new_state": "SCORED_PARTIAL",
        "new_total": 55.0,
        "old_abs_pct_delta": 163.209,
        "old_direction": "project_longer_than_onemap",
        "old_onemap_walk_m": 215.0,
        "old_project_shortest_m": 565.9,
        "old_validation_best_node": "Blk 241",
        "postal": "601291",
        "priority_rank": 8,
        "queue": "missing_bus_connector_priority",
        "source_artifact": "qa\\onemap_outlier_replay_bus_longer_profile_active_20260802.json",
        "source_flags": {
          "best_bridge_underpass_m": 0.0,
          "best_bus_stop_access_connector_m": 0.0,
          "best_direct_bus_fallback_m": 91.0,
          "best_inferred_hdb_m": 0.0,
          "best_official_lta_shelter_m": 0.0,
          "best_osm_shelter_m": 0.0,
          "best_top_source_layer_m": {
            "direct_bus_fallback": 91.0
          },
          "bus_bus_stop_access_connector_m": 0.0,
          "bus_direct_bus_fallback_m": 91.0,
          "bus_top_source_layer_m": {
            "direct_bus_fallback": 91.0
          }
        },
        "validation_area": "JURONG_EAST",
        "validation_best_node_type": "bus_stop",
        "validation_direct_distance_m": 91.5,
        "validation_distance_sanity": "plausible",
        "validation_onemap_vs_direct_delta_m": 123.5
      },
      "type": "Feature"
    },
    {
      "geometry": {
        "coordinates": [
          [
            103.702616,
            1.333896
          ],
          [
            103.703381,
            1.33327
          ]
        ],
        "type": "LineString"
      },
      "properties": {
        "current_route_vs_validation_direct_sanity": "plausible",
        "direct_bus_fallback_reason": "implausible_graph_route_to_datamall_bus_stop_within_direct_radius",
        "endpoint_source": "postal_universe_to_transit_poi",
        "new_best_name": "Opp Blk 657 CP",
        "new_best_routing_type": "direct_bus_fallback_unrouted",
        "new_best_shortest_m": 197.1,
        "new_best_type": "bus_stop",
        "new_bus_routing_type": "direct_bus_fallback_unrouted",
        "new_bus_shortest_m": 197.1,
        "new_bus_state": "SCORED_PARTIAL",
        "new_state": "SCORED_PARTIAL",
        "new_total": 52.3,
        "old_abs_pct_delta": 143.869,
        "old_direction": "project_longer_than_onemap",
        "old_onemap_walk_m": 168.0,
        "old_project_shortest_m": 409.7,
        "old_validation_best_node": "Aft Fan Yoong Rd",
        "postal": "627662",
        "priority_rank": 9,
        "queue": "missing_bus_connector_priority",
        "source_artifact": "qa\\onemap_outlier_replay_bus_longer_profile_active_20260802.json",
        "source_flags": {
          "best_bridge_underpass_m": 0.0,
          "best_bus_stop_access_connector_m": 0.0,
          "best_direct_bus_fallback_m": 197.1,
          "best_inferred_hdb_m": 0.0,
          "best_official_lta_shelter_m": 0.0,
          "best_osm_shelter_m": 0.0,
          "best_top_source_layer_m": {
            "direct_bus_fallback": 197.1
          },
          "bus_bus_stop_access_connector_m": 0.0,
          "bus_direct_bus_fallback_m": 197.1,
          "bus_top_source_layer_m": {
            "direct_bus_fallback": 197.1
          }
        },
        "validation_area": "JURONG_WEST",
        "validation_best_node_type": "bus_stop",
        "validation_direct_distance_m": 109.9,
        "validation_distance_sanity": "plausible",
        "validation_onemap_vs_direct_delta_m": 58.1
      },
      "type": "Feature"
    },
    {
      "geometry": {
        "coordinates": [
          [
            103.780253,
            1.41038
          ],
          [
            103.779686,
            1.410565
          ]
        ],
        "type": "LineString"
      },
      "properties": {
        "current_route_vs_validation_direct_sanity": "plausible",
        "direct_bus_fallback_reason": "implausible_graph_route_to_datamall_bus_stop_within_direct_radius",
        "endpoint_source": "postal_universe_to_transit_poi",
        "new_best_name": "Bef Mandai Lake Rd",
        "new_best_routing_type": "direct_bus_fallback_unrouted",
        "new_best_shortest_m": 66.4,
        "new_best_type": "bus_stop",
        "new_bus_routing_type": "direct_bus_fallback_unrouted",
        "new_bus_shortest_m": 66.4,
        "new_bus_state": "SCORED_PARTIAL",
        "new_state": "SCORED_PARTIAL",
        "new_total": 54.2,
        "old_abs_pct_delta": 124.466,
        "old_direction": "project_longer_than_onemap",
        "old_onemap_walk_m": 253.0,
        "old_project_shortest_m": 567.9,
        "old_validation_best_node": "Bef Mandai Lake Rd",
        "postal": "729761",
        "priority_rank": 10,
        "queue": "missing_bus_connector_priority",
        "source_artifact": "qa\\onemap_outlier_replay_bus_longer_profile_active_20260802.json",
        "source_flags": {
          "best_bridge_underpass_m": 0.0,
          "best_bus_stop_access_connector_m": 0.0,
          "best_direct_bus_fallback_m": 66.4,
          "best_inferred_hdb_m": 0.0,
          "best_official_lta_shelter_m": 0.0,
          "best_osm_shelter_m": 0.0,
          "best_top_source_layer_m": {
            "direct_bus_fallback": 66.4
          },
          "bus_bus_stop_access_connector_m": 0.0,
          "bus_direct_bus_fallback_m": 66.4,
          "bus_top_source_layer_m": {
            "direct_bus_fallback": 66.4
          }
        },
        "validation_area": "CENTRAL_WATER_CATCHMENT",
        "validation_best_node_type": "bus_stop",
        "validation_direct_distance_m": 66.3,
        "validation_distance_sanity": "plausible",
        "validation_onemap_vs_direct_delta_m": 186.7
      },
      "type": "Feature"
    },
    {
      "geometry": {
        "coordinates": [
          [
            103.890101,
            1.346319
          ],
          [
            103.889989,
            1.347631
          ]
        ],
        "type": "LineString"
      },
      "properties": {
        "current_route_vs_validation_direct_sanity": "plausible",
        "direct_bus_fallback_reason": "implausible_graph_route_to_datamall_bus_stop_within_direct_radius",
        "endpoint_source": "postal_universe_to_transit_poi",
        "new_best_name": "Bef S'pore Girls' Hme",
        "new_best_routing_type": "direct_bus_fallback_unrouted",
        "new_best_shortest_m": 156.1,
        "new_best_type": "bus_stop",
        "new_bus_routing_type": "direct_bus_fallback_unrouted",
        "new_bus_shortest_m": 156.1,
        "new_bus_state": "SCORED_PARTIAL",
        "new_state": "SCORED_PARTIAL",
        "new_total": 55.0,
        "old_abs_pct_delta": 124.314,
        "old_direction": "project_longer_than_onemap",
        "old_onemap_walk_m": 153.0,
        "old_project_shortest_m": 343.2,
        "old_validation_best_node": "Opp S'pore Girls' Hme",
        "postal": "530180",
        "priority_rank": 11,
        "queue": "missing_bus_connector_priority",
        "source_artifact": "qa\\onemap_outlier_replay_bus_longer_profile_active_20260802.json",
        "source_flags": {
          "best_bridge_underpass_m": 0.0,
          "best_bus_stop_access_connector_m": 0.0,
          "best_direct_bus_fallback_m": 156.1,
          "best_inferred_hdb_m": 0.0,
          "best_official_lta_shelter_m": 0.0,
          "best_osm_shelter_m": 0.0,
          "best_top_source_layer_m": {
            "direct_bus_fallback": 156.1
          },
          "bus_bus_stop_access_connector_m": 0.0,
          "bus_direct_bus_fallback_m": 156.1,
          "bus_top_source_layer_m": {
            "direct_bus_fallback": 156.1
          }
        },
        "validation_area": "HOUGANG",
        "validation_best_node_type": "bus_stop",
        "validation_direct_distance_m": 146.4,
        "validation_distance_sanity": "plausible",
        "validation_onemap_vs_direct_delta_m": 6.6
      },
      "type": "Feature"
    },
    {
      "geometry": {
        "coordinates": [
          [
            103.718602,
            1.342802
          ],
          [
            103.719266,
            1.344324
          ]
        ],
        "type": "LineString"
      },
      "properties": {
        "current_route_vs_validation_direct_sanity": "plausible",
        "direct_bus_fallback_reason": "implausible_graph_route_to_datamall_bus_stop_within_direct_radius",
        "endpoint_source": "postal_universe_to_transit_poi",
        "new_best_name": "Opp Lakeside Stn",
        "new_best_routing_type": "direct_bus_fallback_unrouted",
        "new_best_shortest_m": 183.8,
        "new_best_type": "bus_stop",
        "new_bus_routing_type": "direct_bus_fallback_unrouted",
        "new_bus_shortest_m": 183.8,
        "new_bus_state": "SCORED_PARTIAL",
        "new_state": "SCORED_PARTIAL",
        "new_total": 55.0,
        "old_abs_pct_delta": 118.85,
        "old_direction": "project_longer_than_onemap",
        "old_onemap_walk_m": 461.0,
        "old_project_shortest_m": 1008.9,
        "old_validation_best_node": "Opp Lakeside Stn",
        "postal": "648320",
        "priority_rank": 12,
        "queue": "missing_bus_connector_priority",
        "source_artifact": "qa\\onemap_outlier_replay_bus_longer_profile_active_20260802.json",
        "source_flags": {
          "best_bridge_underpass_m": 0.0,
          "best_bus_stop_access_connector_m": 0.0,
          "best_direct_bus_fallback_m": 183.8,
          "best_inferred_hdb_m": 0.0,
          "best_official_lta_shelter_m": 0.0,
          "best_osm_shelter_m": 0.0,
          "best_top_source_layer_m": {
            "direct_bus_fallback": 183.8
          },
          "bus_bus_stop_access_connector_m": 0.0,
          "bus_direct_bus_fallback_m": 183.8,
          "bus_top_source_layer_m": {
            "direct_bus_fallback": 183.8
          }
        },
        "validation_area": "JURONG_WEST",
        "validation_best_node_type": "bus_stop",
        "validation_direct_distance_m": 184.6,
        "validation_distance_sanity": "plausible",
        "validation_onemap_vs_direct_delta_m": 276.4
      },
      "type": "Feature"
    },
    {
      "geometry": {
        "coordinates": [
          [
            103.768146,
            1.360504
          ],
          [
            103.76705,
            1.359101
          ]
        ],
        "type": "LineString"
      },
      "properties": {
        "current_route_vs_validation_direct_sanity": "plausible",
        "direct_bus_fallback_reason": "implausible_graph_route_to_datamall_bus_stop_within_direct_radius",
        "endpoint_source": "postal_universe_to_transit_poi",
        "new_best_name": "Opp The Rail Mall",
        "new_best_routing_type": "direct_bus_fallback_unrouted",
        "new_best_shortest_m": 197.2,
        "new_best_type": "bus_stop",
        "new_bus_routing_type": "direct_bus_fallback_unrouted",
        "new_bus_shortest_m": 197.2,
        "new_bus_state": "SCORED_PARTIAL",
        "new_state": "SCORED_PARTIAL",
        "new_total": 55.0,
        "old_abs_pct_delta": 108.173,
        "old_direction": "project_longer_than_onemap",
        "old_onemap_walk_m": 323.0,
        "old_project_shortest_m": 672.4,
        "old_validation_best_node": "Opp The Rail Mall",
        "postal": "678799",
        "priority_rank": 13,
        "queue": "missing_bus_connector_priority",
        "source_artifact": "qa\\onemap_outlier_replay_bus_longer_profile_active_20260802.json",
        "source_flags": {
          "best_bridge_underpass_m": 0.0,
          "best_bus_stop_access_connector_m": 0.0,
          "best_direct_bus_fallback_m": 197.2,
          "best_inferred_hdb_m": 0.0,
          "best_official_lta_shelter_m": 0.0,
          "best_osm_shelter_m": 0.0,
          "best_top_source_layer_m": {
            "direct_bus_fallback": 197.2
          },
          "bus_bus_stop_access_connector_m": 0.0,
          "bus_direct_bus_fallback_m": 197.2,
          "bus_top_source_layer_m": {
            "direct_bus_fallback": 197.2
          }
        },
        "validation_area": "BUKIT_PANJANG",
        "validation_best_node_type": "bus_stop",
        "validation_direct_distance_m": 197.9,
        "validation_distance_sanity": "plausible",
        "validation_onemap_vs_direct_delta_m": 125.1
      },
      "type": "Feature"
    },
    {
      "geometry": {
        "coordinates": [
          [
            103.903923,
            1.395069
          ],
          [
            103.9054,
            1.395274
          ]
        ],
        "type": "LineString"
      },
      "properties": {
        "current_route_vs_validation_direct_sanity": "plausible",
        "direct_bus_fallback_reason": "implausible_graph_route_to_datamall_bus_stop_within_direct_radius",
        "endpoint_source": "postal_universe_to_transit_poi",
        "new_best_name": "Blk 190C",
        "new_best_routing_type": "direct_bus_fallback_unrouted",
        "new_best_shortest_m": 173.0,
        "new_best_type": "bus_stop",
        "new_bus_routing_type": "direct_bus_fallback_unrouted",
        "new_bus_shortest_m": 173.0,
        "new_bus_state": "SCORED_PARTIAL",
        "new_state": "SCORED_PARTIAL",
        "new_total": 55.0,
        "old_abs_pct_delta": 103.32,
        "old_direction": "project_longer_than_onemap",
        "old_onemap_walk_m": 244.0,
        "old_project_shortest_m": 496.1,
        "old_validation_best_node": "Bef Punggol Rd",
        "postal": "544188",
        "priority_rank": 14,
        "queue": "missing_bus_connector_priority",
        "source_artifact": "qa\\onemap_outlier_replay_bus_longer_profile_active_20260802.json",
        "source_flags": {
          "best_bridge_underpass_m": 0.0,
          "best_bus_stop_access_connector_m": 0.0,
          "best_direct_bus_fallback_m": 173.0,
          "best_inferred_hdb_m": 0.0,
          "best_official_lta_shelter_m": 0.0,
          "best_osm_shelter_m": 0.0,
          "best_top_source_layer_m": {
            "direct_bus_fallback": 173.0
          },
          "bus_bus_stop_access_connector_m": 0.0,
          "bus_direct_bus_fallback_m": 173.0,
          "bus_top_source_layer_m": {
            "direct_bus_fallback": 173.0
          }
        },
        "validation_area": "SENGKANG",
        "validation_best_node_type": "bus_stop",
        "validation_direct_distance_m": 165.8,
        "validation_distance_sanity": "plausible",
        "validation_onemap_vs_direct_delta_m": 78.2
      },
      "type": "Feature"
    },
    {
      "geometry": {
        "coordinates": [
          [
            103.768341,
            1.359413
          ],
          [
            103.76705,
            1.359101
          ]
        ],
        "type": "LineString"
      },
      "properties": {
        "current_route_vs_validation_direct_sanity": "plausible",
        "direct_bus_fallback_reason": "implausible_graph_route_to_datamall_bus_stop_within_direct_radius",
        "endpoint_source": "postal_universe_to_transit_poi",
        "new_best_name": "Opp The Rail Mall",
        "new_best_routing_type": "direct_bus_fallback_unrouted",
        "new_best_shortest_m": 147.7,
        "new_best_type": "bus_stop",
        "new_bus_routing_type": "direct_bus_fallback_unrouted",
        "new_bus_shortest_m": 147.7,
        "new_bus_state": "SCORED_PARTIAL",
        "new_state": "SCORED_PARTIAL",
        "new_total": 55.0,
        "old_abs_pct_delta": 101.93,
        "old_direction": "project_longer_than_onemap",
        "old_onemap_walk_m": 285.0,
        "old_project_shortest_m": 575.5,
        "old_validation_best_node": "Opp The Rail Mall",
        "postal": "678417",
        "priority_rank": 15,
        "queue": "missing_bus_connector_priority",
        "source_artifact": "qa\\onemap_outlier_replay_bus_longer_profile_active_20260802.json",
        "source_flags": {
          "best_bridge_underpass_m": 0.0,
          "best_bus_stop_access_connector_m": 0.0,
          "best_direct_bus_fallback_m": 147.7,
          "best_inferred_hdb_m": 0.0,
          "best_official_lta_shelter_m": 0.0,
          "best_osm_shelter_m": 0.0,
          "best_top_source_layer_m": {
            "direct_bus_fallback": 147.7
          },
          "bus_bus_stop_access_connector_m": 0.0,
          "bus_direct_bus_fallback_m": 147.7,
          "bus_top_source_layer_m": {
            "direct_bus_fallback": 147.7
          }
        },
        "validation_area": "BUKIT_PANJANG",
        "validation_best_node_type": "bus_stop",
        "validation_direct_distance_m": 147.6,
        "validation_distance_sanity": "plausible",
        "validation_onemap_vs_direct_delta_m": 137.4
      },
      "type": "Feature"
    },
    {
      "geometry": {
        "coordinates": [
          [
            103.715436,
            1.330584
          ],
          [
            103.716354,
            1.331311
          ]
        ],
        "type": "LineString"
      },
      "properties": {
        "current_route_vs_validation_direct_sanity": "plausible",
        "direct_bus_fallback_reason": "implausible_graph_route_to_datamall_bus_stop_within_direct_radius",
        "endpoint_source": "postal_universe_to_transit_poi",
        "new_best_name": "Opp Kaily Packaging",
        "new_best_routing_type": "direct_bus_fallback_unrouted",
        "new_best_shortest_m": 130.0,
        "new_best_type": "bus_stop",
        "new_bus_routing_type": "direct_bus_fallback_unrouted",
        "new_bus_shortest_m": 130.0,
        "new_bus_state": "SCORED_PARTIAL",
        "new_state": "SCORED_PARTIAL",
        "new_total": 51.2,
        "old_abs_pct_delta": 93.348,
        "old_direction": "project_longer_than_onemap",
        "old_onemap_walk_m": 221.0,
        "old_project_shortest_m": 427.3,
        "old_validation_best_node": "Opp Kaily Packaging",
        "postal": "618769",
        "priority_rank": 16,
        "queue": "missing_bus_connector_priority",
        "source_artifact": "qa\\onemap_outlier_replay_bus_longer_profile_active_20260802.json",
        "source_flags": {
          "best_bridge_underpass_m": 0.0,
          "best_bus_stop_access_connector_m": 0.0,
          "best_direct_bus_fallback_m": 130.0,
          "best_inferred_hdb_m": 0.0,
          "best_official_lta_shelter_m": 0.0,
          "best_osm_shelter_m": 0.0,
          "best_top_source_layer_m": {
            "direct_bus_fallback": 130.0
          },
          "bus_bus_stop_access_connector_m": 0.0,
          "bus_direct_bus_fallback_m": 130.0,
          "bus_top_source_layer_m": {
            "direct_bus_fallback": 130.0
          }
        },
        "validation_area": "JURONG_WEST",
        "validation_best_node_type": "bus_stop",
        "validation_direct_distance_m": 130.2,
        "validation_distance_sanity": "plausible",
        "validation_onemap_vs_direct_delta_m": 90.8
      },
      "type": "Feature"
    },
    {
      "geometry": {
        "coordinates": [
          [
            103.836132,
            1.386538
          ],
          [
            103.837116,
            1.387082
          ]
        ],
        "type": "LineString"
      },
      "properties": {
        "current_route_vs_validation_direct_sanity": "plausible",
        "direct_bus_fallback_reason": "implausible_graph_route_to_datamall_bus_stop_within_direct_radius",
        "endpoint_source": "postal_universe_to_transit_poi",
        "new_best_name": "Lentor Stn Exit 3",
        "new_best_routing_type": "direct_bus_fallback_unrouted",
        "new_best_shortest_m": 183.4,
        "new_best_type": "bus_stop",
        "new_bus_routing_type": "direct_bus_fallback_unrouted",
        "new_bus_shortest_m": 183.4,
        "new_bus_state": "SCORED_PARTIAL",
        "new_state": "SCORED_PARTIAL",
        "new_total": 50.4,
        "old_abs_pct_delta": 93.082,
        "old_direction": "project_longer_than_onemap",
        "old_onemap_walk_m": 159.0,
        "old_project_shortest_m": 307.0,
        "old_validation_best_node": "Aft Florissa Pk",
        "postal": "789592",
        "priority_rank": 17,
        "queue": "missing_bus_connector_priority",
        "source_artifact": "qa\\onemap_outlier_replay_bus_longer_profile_active_20260802.json",
        "source_flags": {
          "best_bridge_underpass_m": 0.0,
          "best_bus_stop_access_connector_m": 0.0,
          "best_direct_bus_fallback_m": 183.4,
          "best_inferred_hdb_m": 0.0,
          "best_official_lta_shelter_m": 0.0,
          "best_osm_shelter_m": 0.0,
          "best_top_source_layer_m": {
            "direct_bus_fallback": 183.4
          },
          "bus_bus_stop_access_connector_m": 0.0,
          "bus_direct_bus_fallback_m": 183.4,
          "bus_top_source_layer_m": {
            "direct_bus_fallback": 183.4
          }
        },
        "validation_area": "ANG_MO_KIO",
        "validation_best_node_type": "bus_stop",
        "validation_direct_distance_m": 125.0,
        "validation_distance_sanity": "plausible",
        "validation_onemap_vs_direct_delta_m": 34.0
      },
      "type": "Feature"
    },
    {
      "geometry": {
        "coordinates": [
          [
            103.915673,
            1.321905
          ],
          [
            103.914852,
            1.321201
          ]
        ],
        "type": "LineString"
      },
      "properties": {
        "current_route_vs_validation_direct_sanity": "plausible",
        "direct_bus_fallback_reason": "implausible_graph_route_to_datamall_bus_stop_within_direct_radius",
        "endpoint_source": "postal_universe_to_transit_poi",
        "new_best_name": "The Buddhist Union",
        "new_best_routing_type": "direct_bus_fallback_unrouted",
        "new_best_shortest_m": 119.9,
        "new_best_type": "bus_stop",
        "new_bus_routing_type": "direct_bus_fallback_unrouted",
        "new_bus_shortest_m": 119.9,
        "new_bus_state": "SCORED_PARTIAL",
        "new_state": "SCORED_PARTIAL",
        "new_total": 46.5,
        "old_abs_pct_delta": 92.969,
        "old_direction": "project_longer_than_onemap",
        "old_onemap_walk_m": 192.0,
        "old_project_shortest_m": 370.5,
        "old_validation_best_node": "The Buddhist Union",
        "postal": "418531",
        "priority_rank": 18,
        "queue": "missing_bus_connector_priority",
        "source_artifact": "qa\\onemap_outlier_replay_bus_longer_profile_active_20260802.json",
        "source_flags": {
          "best_bridge_underpass_m": 0.0,
          "best_bus_stop_access_connector_m": 0.0,
          "best_direct_bus_fallback_m": 119.9,
          "best_inferred_hdb_m": 0.0,
          "best_official_lta_shelter_m": 0.0,
          "best_osm_shelter_m": 0.0,
          "best_top_source_layer_m": {
            "direct_bus_fallback": 119.9
          },
          "bus_bus_stop_access_connector_m": 0.0,
          "bus_direct_bus_fallback_m": 119.9,
          "bus_top_source_layer_m": {
            "direct_bus_fallback": 119.9
          }
        },
        "validation_area": "BEDOK",
        "validation_best_node_type": "bus_stop",
        "validation_direct_distance_m": 120.2,
        "validation_distance_sanity": "plausible",
        "validation_onemap_vs_direct_delta_m": 71.8
      },
      "type": "Feature"
    },
    {
      "geometry": {
        "coordinates": [
          [
            103.719144,
            1.34023
          ],
          [
            103.71932,
            1.338364
          ]
        ],
        "type": "LineString"
      },
      "properties": {
        "current_route_vs_validation_direct_sanity": "plausible",
        "direct_bus_fallback_reason": "implausible_graph_route_to_datamall_bus_stop_within_direct_radius",
        "endpoint_source": "postal_universe_to_transit_poi",
        "new_best_name": "Blk 367",
        "new_best_routing_type": "direct_bus_fallback_unrouted",
        "new_best_shortest_m": 207.2,
        "new_best_type": "bus_stop",
        "new_bus_routing_type": "direct_bus_fallback_unrouted",
        "new_bus_shortest_m": 207.2,
        "new_bus_state": "SCORED_PARTIAL",
        "new_state": "SCORED_PARTIAL",
        "new_total": 55.0,
        "old_abs_pct_delta": 92.358,
        "old_direction": "project_longer_than_onemap",
        "old_onemap_walk_m": 352.0,
        "old_project_shortest_m": 677.1,
        "old_validation_best_node": "Blk 367",
        "postal": "618471",
        "priority_rank": 19,
        "queue": "missing_bus_connector_priority",
        "source_artifact": "qa\\onemap_outlier_replay_bus_longer_profile_active_20260802.json",
        "source_flags": {
          "best_bridge_underpass_m": 0.0,
          "best_bus_stop_access_connector_m": 0.0,
          "best_direct_bus_fallback_m": 207.2,
          "best_inferred_hdb_m": 0.0,
          "best_official_lta_shelter_m": 0.0,
          "best_osm_shelter_m": 0.0,
          "best_top_source_layer_m": {
            "direct_bus_fallback": 207.2
          },
          "bus_bus_stop_access_connector_m": 0.0,
          "bus_direct_bus_fallback_m": 207.2,
          "bus_top_source_layer_m": {
            "direct_bus_fallback": 207.2
          }
        },
        "validation_area": "JURONG_WEST",
        "validation_best_node_type": "bus_stop",
        "validation_direct_distance_m": 208.4,
        "validation_distance_sanity": "plausible",
        "validation_onemap_vs_direct_delta_m": 143.6
      },
      "type": "Feature"
    },
    {
      "geometry": {
        "coordinates": [
          [
            103.768141,
            1.360842
          ],
          [
            103.76705,
            1.359101
          ]
        ],
        "type": "LineString"
      },
      "properties": {
        "current_route_vs_validation_direct_sanity": "plausible",
        "direct_bus_fallback_reason": "implausible_graph_route_to_datamall_bus_stop_within_direct_radius",
        "endpoint_source": "postal_universe_to_transit_poi",
        "new_best_name": "Opp The Rail Mall",
        "new_best_routing_type": "direct_bus_fallback_unrouted",
        "new_best_shortest_m": 227.5,
        "new_best_type": "bus_stop",
        "new_bus_routing_type": "direct_bus_fallback_unrouted",
        "new_bus_shortest_m": 227.5,
        "new_bus_state": "SCORED_PARTIAL",
        "new_state": "SCORED_PARTIAL",
        "new_total": 55.0,
        "old_abs_pct_delta": 92.066,
        "old_direction": "project_longer_than_onemap",
        "old_onemap_walk_m": 363.0,
        "old_project_shortest_m": 697.2,
        "old_validation_best_node": "Opp The Rail Mall",
        "postal": "678805",
        "priority_rank": 20,
        "queue": "missing_bus_connector_priority",
        "source_artifact": "qa\\onemap_outlier_replay_bus_longer_profile_active_20260802.json",
        "source_flags": {
          "best_bridge_underpass_m": 0.0,
          "best_bus_stop_access_connector_m": 0.0,
          "best_direct_bus_fallback_m": 227.5,
          "best_inferred_hdb_m": 0.0,
          "best_official_lta_shelter_m": 0.0,
          "best_osm_shelter_m": 0.0,
          "best_top_source_layer_m": {
            "direct_bus_fallback": 227.5
          },
          "bus_bus_stop_access_connector_m": 0.0,
          "bus_direct_bus_fallback_m": 227.5,
          "bus_top_source_layer_m": {
            "direct_bus_fallback": 227.5
          }
        },
        "validation_area": "BUKIT_PANJANG",
        "validation_best_node_type": "bus_stop",
        "validation_direct_distance_m": 228.4,
        "validation_distance_sanity": "plausible",
        "validation_onemap_vs_direct_delta_m": 134.6
      },
      "type": "Feature"
    }
  ],
  "type": "FeatureCollection"
}
