{
  "features": [
    {
      "geometry": {
        "coordinates": [
          [
            103.85176,
            1.424687
          ],
          [
            103.852066,
            1.423939
          ]
        ],
        "type": "LineString"
      },
      "properties": {
        "abs_delta_m": 87.3,
        "abs_pct_delta": 203.023,
        "area": "YISHUN",
        "best_node_name": "Blk 469B",
        "best_node_type": "bus_stop",
        "cache_key": "acf52a233902119b55ae060358100286c69c2929a1d53f621644c1c1c7c17ae8",
        "direct_distance_m": 89.9,
        "direction": "project_longer_than_onemap",
        "distance_sanity": "onemap_materially_shorter_than_direct",
        "endpoint_source": "postal_universe_to_transit_poi",
        "onemap_walk_bucket": "gt_20m_le_50m",
        "onemap_walk_m": 43.0,
        "postal": "760468",
        "priority_rank": 1,
        "project_shortest_m": 130.3,
        "queue": "validation_subset_priority",
        "route_trust": "graph_route_with_endpoint_connector",
        "routing_type": "sheltered_with_bus_stop_access_connector",
        "signed_delta_m": 87.3,
        "signed_pct_delta": 203.023,
        "state": "SCORED",
        "subset": "endpoint_connector"
      },
      "type": "Feature"
    },
    {
      "geometry": {
        "coordinates": [
          [
            103.912067,
            1.328267
          ],
          [
            103.912131,
            1.327656
          ]
        ],
        "type": "LineString"
      },
      "properties": {
        "abs_delta_m": 78.9,
        "abs_pct_delta": 202.308,
        "area": "BEDOK",
        "best_node_name": "Grosvenor View",
        "best_node_type": "bus_stop",
        "cache_key": "c04705e685cdede7eb77350accef235633cc491a4800510a9a4eabaefdb25c35",
        "direct_distance_m": 68.3,
        "direction": "project_longer_than_onemap",
        "distance_sanity": "onemap_materially_shorter_than_direct",
        "endpoint_source": "postal_universe_to_transit_poi",
        "onemap_walk_bucket": "gt_20m_le_50m",
        "onemap_walk_m": 39.0,
        "postal": "417471",
        "priority_rank": 2,
        "project_shortest_m": 117.9,
        "queue": "validation_subset_priority",
        "route_trust": "graph_route_with_endpoint_connector",
        "routing_type": "sheltered_with_bus_stop_access_connector",
        "signed_delta_m": 78.9,
        "signed_pct_delta": 202.308,
        "state": "SCORED",
        "subset": "endpoint_connector"
      },
      "type": "Feature"
    },
    {
      "geometry": {
        "coordinates": [
          [
            103.830882,
            1.455759
          ],
          [
            103.83099,
            1.455312
          ]
        ],
        "type": "LineString"
      },
      "properties": {
        "abs_delta_m": 100.5,
        "abs_pct_delta": 189.623,
        "area": "SEMBAWANG",
        "best_node_name": "Aft Queen's Ave",
        "best_node_type": "bus_stop",
        "cache_key": "ff99cc61b65e04f3e9883cdd5d3ec27a19c87903d5945412a83c7dd34d9986a5",
        "direct_distance_m": 51.1,
        "direction": "project_longer_than_onemap",
        "distance_sanity": "plausible",
        "endpoint_source": "postal_universe_to_transit_poi",
        "onemap_walk_bucket": "gt_50m_le_100m",
        "onemap_walk_m": 53.0,
        "postal": "758588",
        "priority_rank": 3,
        "project_shortest_m": 153.5,
        "queue": "validation_subset_priority",
        "route_trust": "graph_route_with_endpoint_connector",
        "routing_type": "sheltered_with_bus_stop_access_connector",
        "signed_delta_m": 100.5,
        "signed_pct_delta": 189.623,
        "state": "SCORED",
        "subset": "endpoint_connector"
      },
      "type": "Feature"
    },
    {
      "geometry": {
        "coordinates": [
          [
            103.66664,
            1.325552
          ],
          [
            103.666996,
            1.324961
          ]
        ],
        "type": "LineString"
      },
      "properties": {
        "abs_delta_m": 59.9,
        "abs_pct_delta": 176.176,
        "area": "PIONEER",
        "best_node_name": "Opp ESAB",
        "best_node_type": "bus_stop",
        "cache_key": "c441c9d478b93d9dd54bf57e3d6088f8ebe778de50845e3cdb95426f172f552c",
        "direct_distance_m": 76.7,
        "direction": "project_longer_than_onemap",
        "distance_sanity": "onemap_materially_shorter_than_direct",
        "endpoint_source": "postal_universe_to_transit_poi",
        "onemap_walk_bucket": "gt_20m_le_50m",
        "onemap_walk_m": 34.0,
        "postal": "629065",
        "priority_rank": 4,
        "project_shortest_m": 93.9,
        "queue": "validation_subset_priority",
        "route_trust": "graph_route_with_endpoint_connector",
        "routing_type": "sheltered_with_bus_stop_access_connector",
        "signed_delta_m": 59.9,
        "signed_pct_delta": 176.176,
        "state": "SCORED",
        "subset": "endpoint_connector"
      },
      "type": "Feature"
    },
    {
      "geometry": {
        "coordinates": [
          [
            103.802999,
            1.457395
          ],
          [
            103.802996,
            1.457864
          ]
        ],
        "type": "LineString"
      },
      "properties": {
        "abs_delta_m": 54.2,
        "abs_pct_delta": 142.632,
        "area": "SEMBAWANG",
        "best_node_name": "Opp British American Tobacco",
        "best_node_type": "bus_stop",
        "cache_key": "7dbe9bffef6bebd87ac6fb045ef75923573a91d020a2808ac52ce18c7568061a",
        "direct_distance_m": 52.2,
        "direction": "project_longer_than_onemap",
        "distance_sanity": "onemap_slightly_shorter_than_direct",
        "endpoint_source": "postal_universe_to_transit_poi",
        "onemap_walk_bucket": "gt_20m_le_50m",
        "onemap_walk_m": 38.0,
        "postal": "758093",
        "priority_rank": 5,
        "project_shortest_m": 92.2,
        "queue": "validation_subset_priority",
        "route_trust": "graph_route_with_endpoint_connector",
        "routing_type": "sheltered_with_bus_stop_access_connector",
        "signed_delta_m": 54.2,
        "signed_pct_delta": 142.632,
        "state": "SCORED",
        "subset": "endpoint_connector"
      },
      "type": "Feature"
    },
    {
      "geometry": {
        "coordinates": [
          [
            103.959967,
            1.377949
          ],
          [
            103.959552,
            1.378241
          ]
        ],
        "type": "LineString"
      },
      "properties": {
        "abs_delta_m": 53.8,
        "abs_pct_delta": 101.509,
        "area": "PASIR_RIS",
        "best_node_name": "Lighthouse",
        "best_node_type": "bus_stop",
        "cache_key": "a02d2e837241442b4d12e89974ddbe7e6d78e50498a0b53637aa1dd373c33156",
        "direct_distance_m": 56.4,
        "direction": "project_longer_than_onemap",
        "distance_sanity": "plausible",
        "endpoint_source": "postal_universe_to_transit_poi",
        "onemap_walk_bucket": "gt_50m_le_100m",
        "onemap_walk_m": 53.0,
        "postal": "518145",
        "priority_rank": 6,
        "project_shortest_m": 106.8,
        "queue": "validation_subset_priority",
        "route_trust": "graph_route_with_endpoint_connector",
        "routing_type": "sheltered_with_bus_stop_access_connector",
        "signed_delta_m": 53.8,
        "signed_pct_delta": 101.509,
        "state": "SCORED",
        "subset": "endpoint_connector"
      },
      "type": "Feature"
    },
    {
      "geometry": {
        "coordinates": [
          [
            103.868268,
            1.362006
          ],
          [
            103.868017,
            1.361491
          ]
        ],
        "type": "LineString"
      },
      "properties": {
        "abs_delta_m": 877.1,
        "abs_pct_delta": 92.619,
        "area": "SERANGOON",
        "best_node_name": "Aft Chuan Gdn",
        "best_node_type": "bus_stop",
        "cache_key": "6a8944925c5fcd7bb32a4a6066ab4bc214846ec9d2341c67778ab3114be47729",
        "direct_distance_m": 63.7,
        "direction": "project_shorter_than_onemap",
        "distance_sanity": "plausible",
        "endpoint_source": "postal_universe_to_transit_poi",
        "onemap_walk_bucket": "gt_100m",
        "onemap_walk_m": 947.0,
        "postal": "556807",
        "priority_rank": 7,
        "project_shortest_m": 69.9,
        "queue": "validation_subset_priority",
        "route_trust": "graph_route_with_endpoint_connector",
        "routing_type": "sheltered_with_bus_stop_access_connector",
        "signed_delta_m": -877.1,
        "signed_pct_delta": -92.619,
        "state": "SCORED",
        "subset": "endpoint_connector"
      },
      "type": "Feature"
    },
    {
      "geometry": {
        "coordinates": [
          [
            103.865564,
            1.379959
          ],
          [
            103.865519,
            1.378543
          ]
        ],
        "type": "LineString"
      },
      "properties": {
        "abs_delta_m": 2944.8,
        "abs_pct_delta": 91.312,
        "area": "SERANGOON",
        "best_node_name": "Opp Techplace 2",
        "best_node_type": "bus_stop",
        "cache_key": "cebbdfecbff8c289b09a8dc38e76128a631f880df145f8ccb5b27666bc56c124",
        "direct_distance_m": 157.5,
        "direction": "project_shorter_than_onemap",
        "distance_sanity": "plausible",
        "endpoint_source": "postal_universe_to_transit_poi",
        "onemap_walk_bucket": "gt_100m",
        "onemap_walk_m": 3225.0,
        "postal": "804651",
        "priority_rank": 8,
        "project_shortest_m": 280.2,
        "queue": "validation_subset_priority",
        "route_trust": "graph_route_with_endpoint_connector",
        "routing_type": "sheltered_with_bus_stop_access_connector",
        "signed_delta_m": -2944.8,
        "signed_pct_delta": -91.312,
        "state": "SCORED",
        "subset": "endpoint_connector"
      },
      "type": "Feature"
    },
    {
      "geometry": {
        "coordinates": [
          [
            103.628171,
            1.300769
          ],
          [
            103.628768,
            1.299465
          ]
        ],
        "type": "LineString"
      },
      "properties": {
        "abs_delta_m": 963.2,
        "abs_pct_delta": 81.351,
        "area": "TUAS",
        "best_node_name": "Aft Tuas Sth Ave 8",
        "best_node_type": "bus_stop",
        "cache_key": "f98a8eedeafa7d4a1668f4cedcdd98341121003eebe5466d0848a70afa416f82",
        "direct_distance_m": 159.5,
        "direction": "project_shorter_than_onemap",
        "distance_sanity": "plausible",
        "endpoint_source": "postal_universe_to_transit_poi",
        "onemap_walk_bucket": "gt_100m",
        "onemap_walk_m": 1184.0,
        "postal": "637737",
        "priority_rank": 9,
        "project_shortest_m": 220.8,
        "queue": "validation_subset_priority",
        "route_trust": "graph_route_with_endpoint_connector",
        "routing_type": "sheltered_with_bus_stop_access_connector",
        "signed_delta_m": -963.2,
        "signed_pct_delta": -81.351,
        "state": "SCORED",
        "subset": "endpoint_connector"
      },
      "type": "Feature"
    },
    {
      "geometry": {
        "coordinates": [
          [
            103.688588,
            1.329544
          ],
          [
            103.688138,
            1.330713
          ]
        ],
        "type": "LineString"
      },
      "properties": {
        "abs_delta_m": 667.6,
        "abs_pct_delta": 77.358,
        "area": "JURONG_WEST",
        "best_node_name": "Aft Kian Teck Rd",
        "best_node_type": "bus_stop",
        "cache_key": "bcb24c0467662e3fe73f83d4d7c3199816b2f4cb434a4239d96d014dce53e839",
        "direct_distance_m": 139.3,
        "direction": "project_shorter_than_onemap",
        "distance_sanity": "plausible",
        "endpoint_source": "postal_universe_to_transit_poi",
        "onemap_walk_bucket": "gt_100m",
        "onemap_walk_m": 863.0,
        "postal": "628798",
        "priority_rank": 10,
        "project_shortest_m": 195.4,
        "queue": "validation_subset_priority",
        "route_trust": "graph_route_with_endpoint_connector",
        "routing_type": "sheltered_with_bus_stop_access_connector",
        "signed_delta_m": -667.6,
        "signed_pct_delta": -77.358,
        "state": "SCORED",
        "subset": "endpoint_connector"
      },
      "type": "Feature"
    },
    {
      "geometry": {
        "coordinates": [
          [
            103.845903,
            1.415972
          ],
          [
            103.845908,
            1.417255
          ]
        ],
        "type": "LineString"
      },
      "properties": {
        "abs_delta_m": 503.8,
        "abs_pct_delta": 74.748,
        "area": "YISHUN",
        "best_node_name": "Opp The Shaughnessy",
        "best_node_type": "bus_stop",
        "cache_key": "580d823fc46388c8d1d57f84371290635297aa91661cf6a3368c61baa843e1db",
        "direct_distance_m": 142.7,
        "direction": "project_shorter_than_onemap",
        "distance_sanity": "plausible",
        "endpoint_source": "postal_universe_to_transit_poi",
        "onemap_walk_bucket": "gt_100m",
        "onemap_walk_m": 674.0,
        "postal": "768424",
        "priority_rank": 11,
        "project_shortest_m": 170.2,
        "queue": "validation_subset_priority",
        "route_trust": "graph_route_with_endpoint_connector",
        "routing_type": "sheltered_with_bus_stop_access_connector",
        "signed_delta_m": -503.8,
        "signed_pct_delta": -74.748,
        "state": "SCORED",
        "subset": "endpoint_connector"
      },
      "type": "Feature"
    },
    {
      "geometry": {
        "coordinates": [
          [
            103.768874,
            1.375374
          ],
          [
            103.769218,
            1.3761
          ]
        ],
        "type": "LineString"
      },
      "properties": {
        "abs_delta_m": 336.0,
        "abs_pct_delta": 74.667,
        "area": "BUKIT_PANJANG",
        "best_node_name": "Blk 127",
        "best_node_type": "bus_stop",
        "cache_key": "70b4c2cb1134aad3c7dc410a8349ba7b90710889cc00a2e83e48301913f6ee58",
        "direct_distance_m": 89.3,
        "direction": "project_shorter_than_onemap",
        "distance_sanity": "plausible",
        "endpoint_source": "postal_universe_to_transit_poi",
        "onemap_walk_bucket": "gt_100m",
        "onemap_walk_m": 450.0,
        "postal": "670140",
        "priority_rank": 12,
        "project_shortest_m": 114.0,
        "queue": "validation_subset_priority",
        "route_trust": "graph_route_with_endpoint_connector",
        "routing_type": "sheltered_with_bus_stop_access_connector",
        "signed_delta_m": -336.0,
        "signed_pct_delta": -74.667,
        "state": "SCORED",
        "subset": "endpoint_connector"
      },
      "type": "Feature"
    },
    {
      "geometry": {
        "coordinates": [
          [
            103.777829,
            1.286479
          ],
          [
            103.778934,
            1.286435
          ]
        ],
        "type": "LineString"
      },
      "properties": {
        "abs_delta_m": 421.9,
        "abs_pct_delta": 67.83,
        "area": "QUEENSTOWN",
        "best_node_name": "Opp Wholesale Ctr",
        "best_node_type": "bus_stop",
        "cache_key": "0a872671b5a74c8a0e6a51b9c0fd526ab4544fd934ad499750e99f0ccb68ef63",
        "direct_distance_m": 122.9,
        "direction": "project_shorter_than_onemap",
        "distance_sanity": "plausible",
        "endpoint_source": "postal_universe_to_transit_poi",
        "onemap_walk_bucket": "gt_100m",
        "onemap_walk_m": 622.0,
        "postal": "110003",
        "priority_rank": 13,
        "project_shortest_m": 200.1,
        "queue": "validation_subset_priority",
        "route_trust": "graph_route_with_endpoint_connector",
        "routing_type": "sheltered_with_bus_stop_access_connector",
        "signed_delta_m": -421.9,
        "signed_pct_delta": -67.83,
        "state": "SCORED",
        "subset": "endpoint_connector"
      },
      "type": "Feature"
    },
    {
      "geometry": {
        "coordinates": [
          [
            103.765512,
            1.357542
          ],
          [
            103.7649,
            1.358391
          ]
        ],
        "type": "LineString"
      },
      "properties": {
        "abs_delta_m": 271.4,
        "abs_pct_delta": 65.874,
        "area": "BUKIT_BATOK",
        "best_node_name": "Bef Summerhill",
        "best_node_type": "bus_stop",
        "cache_key": "4dbe921cf3a9591c6f4f09d259427d2906766abc4fe00b8d14d2dadb9096bb75",
        "direct_distance_m": 116.4,
        "direction": "project_shorter_than_onemap",
        "distance_sanity": "plausible",
        "endpoint_source": "postal_universe_to_transit_poi",
        "onemap_walk_bucket": "gt_100m",
        "onemap_walk_m": 412.0,
        "postal": "596301",
        "priority_rank": 14,
        "project_shortest_m": 140.6,
        "queue": "validation_subset_priority",
        "route_trust": "graph_route_with_endpoint_connector",
        "routing_type": "sheltered_with_bus_stop_access_connector",
        "signed_delta_m": -271.4,
        "signed_pct_delta": -65.874,
        "state": "SCORED",
        "subset": "endpoint_connector"
      },
      "type": "Feature"
    },
    {
      "geometry": {
        "coordinates": [
          [
            103.807799,
            1.308798
          ],
          [
            103.807164,
            1.309885
          ]
        ],
        "type": "LineString"
      },
      "properties": {
        "abs_delta_m": 419.8,
        "abs_pct_delta": 63.606,
        "area": "TANGLIN",
        "best_node_name": "Great Eastern Mansions",
        "best_node_type": "bus_stop",
        "cache_key": "b1c53ed300f91699717d151386d68728bbc5ab7a3b3625904e676acb793bab59",
        "direct_distance_m": 140.0,
        "direction": "project_shorter_than_onemap",
        "distance_sanity": "plausible",
        "endpoint_source": "postal_universe_to_transit_poi",
        "onemap_walk_bucket": "gt_100m",
        "onemap_walk_m": 660.0,
        "postal": "258859",
        "priority_rank": 15,
        "project_shortest_m": 240.2,
        "queue": "validation_subset_priority",
        "route_trust": "graph_route_with_endpoint_connector",
        "routing_type": "sheltered_with_bus_stop_access_connector",
        "signed_delta_m": -419.8,
        "signed_pct_delta": -63.606,
        "state": "SCORED",
        "subset": "endpoint_connector"
      },
      "type": "Feature"
    },
    {
      "geometry": {
        "coordinates": [
          [
            103.756344,
            1.314098
          ],
          [
            103.754842,
            1.312342
          ]
        ],
        "type": "LineString"
      },
      "properties": {
        "abs_delta_m": 502.9,
        "abs_pct_delta": 61.329,
        "area": "CLEMENTI",
        "best_node_name": "Opp The Japanese Sec Sch",
        "best_node_type": "bus_stop",
        "cache_key": "40772e0f600ea1dc546221e2a4a711f2b03cc77dba4f2125af0c619d64041f39",
        "direct_distance_m": 256.9,
        "direction": "project_shorter_than_onemap",
        "distance_sanity": "plausible",
        "endpoint_source": "postal_universe_to_transit_poi",
        "onemap_walk_bucket": "gt_100m",
        "onemap_walk_m": 820.0,
        "postal": "127846",
        "priority_rank": 16,
        "project_shortest_m": 317.1,
        "queue": "validation_subset_priority",
        "route_trust": "graph_route_with_endpoint_connector",
        "routing_type": "sheltered_with_bus_stop_access_connector",
        "signed_delta_m": -502.9,
        "signed_pct_delta": -61.329,
        "state": "SCORED",
        "subset": "endpoint_connector"
      },
      "type": "Feature"
    },
    {
      "geometry": {
        "coordinates": [
          [
            103.754143,
            1.397599
          ],
          [
            103.754993,
            1.397736
          ]
        ],
        "type": "LineString"
      },
      "properties": {
        "abs_delta_m": 158.9,
        "abs_pct_delta": 59.737,
        "area": "SUNGEI_KADUT",
        "best_node_name": "Opp Yew Tee Ind Est Blk 1",
        "best_node_type": "bus_stop",
        "cache_key": "e4bc64848f3644b048a22b843b619cae8a89582d1e3f0d9cf721f69f00002afb",
        "direct_distance_m": 95.7,
        "direction": "project_shorter_than_onemap",
        "distance_sanity": "plausible",
        "endpoint_source": "postal_universe_to_transit_poi",
        "onemap_walk_bucket": "gt_100m",
        "onemap_walk_m": 266.0,
        "postal": "677972",
        "priority_rank": 17,
        "project_shortest_m": 107.1,
        "queue": "validation_subset_priority",
        "route_trust": "graph_route_with_endpoint_connector",
        "routing_type": "sheltered_with_bus_stop_access_connector",
        "signed_delta_m": -158.9,
        "signed_pct_delta": -59.737,
        "state": "SCORED",
        "subset": "endpoint_connector"
      },
      "type": "Feature"
    },
    {
      "geometry": {
        "coordinates": [
          [
            103.921384,
            1.308415
          ],
          [
            103.921519,
            1.30823
          ]
        ],
        "type": "LineString"
      },
      "properties": {
        "abs_delta_m": 98.5,
        "abs_pct_delta": 59.697,
        "area": "BEDOK",
        "best_node_name": "Opp Neptune Ct",
        "best_node_type": "bus_stop",
        "cache_key": "3399f95428da3d88d8370af95a9a532c9c30666bfc029738a1242ffa6c556936",
        "direct_distance_m": 25.5,
        "direction": "project_shorter_than_onemap",
        "distance_sanity": "plausible",
        "endpoint_source": "postal_universe_to_transit_poi",
        "onemap_walk_bucket": "gt_100m",
        "onemap_walk_m": 165.0,
        "postal": "457679",
        "priority_rank": 18,
        "project_shortest_m": 66.5,
        "queue": "validation_subset_priority",
        "route_trust": "graph_route_with_endpoint_connector",
        "routing_type": "sheltered_with_bus_stop_access_connector",
        "signed_delta_m": -98.5,
        "signed_pct_delta": -59.697,
        "state": "SCORED",
        "subset": "endpoint_connector"
      },
      "type": "Feature"
    },
    {
      "geometry": {
        "coordinates": [
          [
            103.799571,
            1.331394
          ],
          [
            103.799933,
            1.330449
          ]
        ],
        "type": "LineString"
      },
      "properties": {
        "abs_delta_m": 25.8,
        "abs_pct_delta": 17.315,
        "area": "BUKIT_TIMAH",
        "best_node_name": "Aft Jln Naga Sari",
        "best_node_type": "bus_stop",
        "cache_key": "082e5a197b3bcf9a9b10803e8ae5c7e296c84c305479d1823907ee51d7db68fa",
        "direct_distance_m": 112.5,
        "direction": "project_shorter_than_onemap",
        "distance_sanity": "plausible",
        "endpoint_source": "postal_universe_to_transit_poi",
        "onemap_walk_bucket": "gt_100m",
        "onemap_walk_m": 149.0,
        "postal": "288842",
        "priority_rank": 19,
        "project_shortest_m": 123.2,
        "queue": "validation_subset_priority",
        "route_trust": "graph_route_with_endpoint_connector",
        "routing_type": "sheltered_with_bus_stop_access_connector",
        "signed_delta_m": -25.8,
        "signed_pct_delta": -17.315,
        "state": "SCORED",
        "subset": "endpoint_connector"
      },
      "type": "Feature"
    }
  ],
  "type": "FeatureCollection"
}
