{
  "features": [
    {
      "geometry": {
        "coordinates": [
          [
            103.83767870000001,
            1.3683915999999998
          ],
          [
            103.83733910000001,
            1.3681117
          ]
        ],
        "type": "LineString"
      },
      "properties": {
        "classification": "covered_evidence_nearby_check_connectivity_or_snap",
        "created_at": "2026-07-30T09:06:09.270Z",
        "destination": "MAYFLOWER MRT STATION Exit 5",
        "end_component_id": 0,
        "end_component_node_count": 637403,
        "end_snap_node_m": 18.3,
        "endpoint_component_gap_m": null,
        "issue": "user_reported_better_walk_route",
        "label": "sheltered",
        "length_m": 48.8,
        "nearby_covered_edge_count": 53,
        "nearby_edge_count": 107,
        "nearby_sources": "{\"INFERRED_HDB_PRECINCT_CONNECTOR\": 33, \"INFERRED_HDB_VOID_DECK\": 3, \"INFERRED_HDB_VOID_DECK_ANCHOR\": 4, \"inferred_hdb_point_footway\": 5, \"inferred_hdb_precinct_footway\": 6, \"osm_building_roof\": 2}",
        "nearest_covered_edge_m": 0.0,
        "nearest_edge_m": 0.0,
        "nearest_main_component_covered_edge_m": 12.6,
        "nearest_main_component_covered_sources": "{\"inferred_hdb_precinct_footway\": 1}",
        "nearest_main_component_edge_m": 12.6,
        "nearest_main_component_sources": "{\"inferred_hdb_precinct_footway\": 1}",
        "needs_model_qa": false,
        "postal": "560231",
        "route_index": 0,
        "same_component": true,
        "segment_index": 0,
        "source": "user_drawn_qa_evidence_not_score_override",
        "start_component_id": 0,
        "start_component_node_count": 637403,
        "start_snap_node_m": 8.8
      },
      "type": "Feature"
    },
    {
      "geometry": {
        "coordinates": [
          [
            103.83733910000001,
            1.3681117
          ],
          [
            103.8369516,
            1.3686986999999997
          ]
        ],
        "type": "LineString"
      },
      "properties": {
        "classification": "hdb_void_deck_component_gap",
        "created_at": "2026-07-30T09:06:09.270Z",
        "destination": "MAYFLOWER MRT STATION Exit 5",
        "end_component_id": 1238,
        "end_component_node_count": 18,
        "end_snap_node_m": 8.7,
        "endpoint_component_gap_m": 92.9,
        "issue": "user_reported_better_walk_route",
        "label": "void_deck",
        "length_m": 77.9,
        "nearby_covered_edge_count": 63,
        "nearby_edge_count": 123,
        "nearby_sources": "{\"INFERRED_HDB_PRECINCT_CONNECTOR\": 40, \"INFERRED_HDB_VOID_DECK\": 2, \"INFERRED_HDB_VOID_DECK_ANCHOR\": 3, \"inferred_hdb_point_footway\": 4, \"inferred_hdb_precinct_footway\": 8, \"osm_building_roof\": 2, \"osm_explicit_shelter\": 4}",
        "nearest_covered_edge_m": 0.0,
        "nearest_edge_m": 0.0,
        "nearest_main_component_covered_edge_m": 10.2,
        "nearest_main_component_covered_sources": "{\"inferred_hdb_precinct_footway\": 1}",
        "nearest_main_component_edge_m": 10.2,
        "nearest_main_component_sources": "{\"inferred_hdb_precinct_footway\": 1}",
        "needs_model_qa": true,
        "postal": "560231",
        "route_index": 0,
        "same_component": false,
        "segment_index": 1,
        "source": "user_drawn_qa_evidence_not_score_override",
        "start_component_id": 0,
        "start_component_node_count": 637403,
        "start_snap_node_m": 18.3
      },
      "type": "Feature"
    },
    {
      "geometry": {
        "coordinates": [
          [
            103.8369516,
            1.3686986999999997
          ],
          [
            103.8366933,
            1.3686283000000001
          ]
        ],
        "type": "LineString"
      },
      "properties": {
        "classification": "hdb_void_deck_component_gap",
        "created_at": "2026-07-30T09:06:09.270Z",
        "destination": "MAYFLOWER MRT STATION Exit 5",
        "end_component_id": 0,
        "end_component_node_count": 637403,
        "end_snap_node_m": 1.7,
        "endpoint_component_gap_m": 37.7,
        "issue": "user_reported_better_walk_route",
        "label": "sheltered",
        "length_m": 29.8,
        "nearby_covered_edge_count": 44,
        "nearby_edge_count": 77,
        "nearby_sources": "{\"INFERRED_HDB_PRECINCT_CONNECTOR\": 19, \"INFERRED_HDB_VOID_DECK\": 2, \"INFERRED_HDB_VOID_DECK_ANCHOR\": 1, \"UNREPRESENTED-surface\": 1, \"covered_linkway\": 2, \"inferred_hdb_precinct_footway\": 7, \"osm_explicit_shelter\": 12}",
        "nearest_covered_edge_m": 0.0,
        "nearest_edge_m": 0.0,
        "nearest_main_component_covered_edge_m": 5.9,
        "nearest_main_component_covered_sources": "{\"inferred_hdb_precinct_footway\": 1}",
        "nearest_main_component_edge_m": 5.9,
        "nearest_main_component_sources": "{\"inferred_hdb_precinct_footway\": 1}",
        "needs_model_qa": true,
        "postal": "560231",
        "route_index": 0,
        "same_component": false,
        "segment_index": 2,
        "source": "user_drawn_qa_evidence_not_score_override",
        "start_component_id": 1238,
        "start_component_node_count": 18,
        "start_snap_node_m": 8.7
      },
      "type": "Feature"
    },
    {
      "geometry": {
        "coordinates": [
          [
            103.8366933,
            1.3686283000000001
          ],
          [
            103.8363997,
            1.3688161
          ]
        ],
        "type": "LineString"
      },
      "properties": {
        "classification": "bridge_underpass_evidence_nearby_check_endpoint_snap",
        "created_at": "2026-07-30T09:06:09.270Z",
        "destination": "MAYFLOWER MRT STATION Exit 5",
        "end_component_id": 0,
        "end_component_node_count": 637403,
        "end_snap_node_m": 3.3,
        "endpoint_component_gap_m": null,
        "issue": "user_reported_better_walk_route",
        "label": "covered_bridge",
        "length_m": 38.7,
        "nearby_covered_edge_count": 35,
        "nearby_edge_count": 67,
        "nearby_sources": "{\"INFERRED_HDB_PRECINCT_CONNECTOR\": 14, \"INFERRED_HDB_VOID_DECK\": 1, \"UNREPRESENTED-surface\": 1, \"covered_linkway\": 2, \"inferred_hdb_precinct_footway\": 5, \"osm_explicit_shelter\": 12}",
        "nearest_covered_edge_m": 0.0,
        "nearest_edge_m": 0.0,
        "nearest_main_component_covered_edge_m": 2.7,
        "nearest_main_component_covered_sources": "{\"osm_explicit_shelter\": 1}",
        "nearest_main_component_edge_m": 2.7,
        "nearest_main_component_sources": "{\"osm_explicit_shelter\": 1}",
        "needs_model_qa": false,
        "postal": "560231",
        "route_index": 0,
        "same_component": true,
        "segment_index": 3,
        "source": "user_drawn_qa_evidence_not_score_override",
        "start_component_id": 0,
        "start_component_node_count": 637403,
        "start_snap_node_m": 1.7
      },
      "type": "Feature"
    },
    {
      "geometry": {
        "coordinates": [
          [
            103.8363997,
            1.3688161
          ],
          [
            103.836977,
            1.3692851000000001
          ]
        ],
        "type": "LineString"
      },
      "properties": {
        "classification": "covered_evidence_nearby_check_connectivity_or_snap",
        "created_at": "2026-07-30T09:06:09.270Z",
        "destination": "MAYFLOWER MRT STATION Exit 5",
        "end_component_id": 0,
        "end_component_node_count": 637403,
        "end_snap_node_m": 5.0,
        "endpoint_component_gap_m": null,
        "issue": "user_reported_better_walk_route",
        "label": "sheltered",
        "length_m": 82.6,
        "nearby_covered_edge_count": 44,
        "nearby_edge_count": 83,
        "nearby_sources": "{\"INFERRED_HDB_PRECINCT_CONNECTOR\": 16, \"INFERRED_HDB_VOID_DECK\": 2, \"UNREPRESENTED-surface\": 1, \"covered_linkway\": 2, \"inferred_hdb_precinct_footway\": 11, \"osm_explicit_shelter\": 12}",
        "nearest_covered_edge_m": 1.2,
        "nearest_edge_m": 0.0,
        "nearest_main_component_covered_edge_m": 33.2,
        "nearest_main_component_covered_sources": "{\"osm_explicit_shelter\": 1}",
        "nearest_main_component_edge_m": 2.0,
        "nearest_main_component_sources": "{\"footway\": 1}",
        "needs_model_qa": false,
        "postal": "560231",
        "route_index": 0,
        "same_component": true,
        "segment_index": 4,
        "source": "user_drawn_qa_evidence_not_score_override",
        "start_component_id": 0,
        "start_component_node_count": 637403,
        "start_snap_node_m": 3.3
      },
      "type": "Feature"
    },
    {
      "geometry": {
        "coordinates": [
          [
            103.836977,
            1.3692851000000001
          ],
          [
            103.8367687,
            1.3695134
          ]
        ],
        "type": "LineString"
      },
      "properties": {
        "classification": "covered_evidence_nearby_check_connectivity_or_snap",
        "created_at": "2026-07-30T09:06:09.270Z",
        "destination": "MAYFLOWER MRT STATION Exit 5",
        "end_component_id": 0,
        "end_component_node_count": 637403,
        "end_snap_node_m": 24.3,
        "endpoint_component_gap_m": null,
        "issue": "user_reported_better_walk_route",
        "label": "sheltered",
        "length_m": 34.3,
        "nearby_covered_edge_count": 17,
        "nearby_edge_count": 46,
        "nearby_sources": "{\"INFERRED_HDB_PRECINCT_CONNECTOR\": 9, \"INFERRED_HDB_VOID_DECK\": 1, \"inferred_hdb_precinct_footway\": 7}",
        "nearest_covered_edge_m": 41.5,
        "nearest_edge_m": 0.0,
        "nearest_main_component_covered_edge_m": 58.4,
        "nearest_main_component_covered_sources": "{\"inferred_hdb_precinct_footway\": 1}",
        "nearest_main_component_edge_m": 7.2,
        "nearest_main_component_sources": "{\"service\": 1}",
        "needs_model_qa": false,
        "postal": "560231",
        "route_index": 0,
        "same_component": true,
        "segment_index": 5,
        "source": "user_drawn_qa_evidence_not_score_override",
        "start_component_id": 0,
        "start_component_node_count": 637403,
        "start_snap_node_m": 5.0
      },
      "type": "Feature"
    },
    {
      "geometry": {
        "coordinates": [
          [
            103.8367687,
            1.3695134
          ],
          [
            103.8363228,
            1.3703059000000002
          ]
        ],
        "type": "LineString"
      },
      "properties": {
        "classification": "hdb_void_deck_component_gap",
        "created_at": "2026-07-30T09:06:09.270Z",
        "destination": "MAYFLOWER MRT STATION Exit 5",
        "end_component_id": 2099,
        "end_component_node_count": 11,
        "end_snap_node_m": 9.6,
        "endpoint_component_gap_m": 128.7,
        "issue": "user_reported_better_walk_route",
        "label": "void_deck",
        "length_m": 100.7,
        "nearby_covered_edge_count": 11,
        "nearby_edge_count": 39,
        "nearby_sources": "{\"inferred_hdb_point_footway\": 11}",
        "nearest_covered_edge_m": 9.6,
        "nearest_edge_m": 9.6,
        "nearest_main_component_covered_edge_m": 75.0,
        "nearest_main_component_covered_sources": "{\"inferred_hdb_precinct_footway\": 1}",
        "nearest_main_component_edge_m": 33.2,
        "nearest_main_component_sources": "{\"secondary\": 1}",
        "needs_model_qa": true,
        "postal": "560231",
        "route_index": 0,
        "same_component": false,
        "segment_index": 6,
        "source": "user_drawn_qa_evidence_not_score_override",
        "start_component_id": 0,
        "start_component_node_count": 637403,
        "start_snap_node_m": 24.3
      },
      "type": "Feature"
    },
    {
      "geometry": {
        "coordinates": [
          [
            103.8363228,
            1.3703059000000002
          ],
          [
            103.8365351,
            1.3704828000000002
          ]
        ],
        "type": "LineString"
      },
      "properties": {
        "classification": "covered_evidence_nearby_check_connectivity_or_snap",
        "created_at": "2026-07-30T09:06:09.270Z",
        "destination": "MAYFLOWER MRT STATION Exit 5",
        "end_component_id": 2099,
        "end_component_node_count": 11,
        "end_snap_node_m": 7.4,
        "endpoint_component_gap_m": null,
        "issue": "user_reported_better_walk_route",
        "label": "sheltered",
        "length_m": 30.7,
        "nearby_covered_edge_count": 24,
        "nearby_edge_count": 42,
        "nearby_sources": "{\"INFERRED_HDB_PRECINCT_CONNECTOR\": 9, \"inferred_hdb_point_footway\": 12, \"inferred_hdb_precinct_footway\": 3}",
        "nearest_covered_edge_m": 0.0,
        "nearest_edge_m": 0.0,
        "nearest_main_component_covered_edge_m": 79.0,
        "nearest_main_component_covered_sources": "{\"inferred_hdb_point_footway\": 1}",
        "nearest_main_component_edge_m": 24.9,
        "nearest_main_component_sources": "{\"secondary\": 1}",
        "needs_model_qa": false,
        "postal": "560231",
        "route_index": 0,
        "same_component": true,
        "segment_index": 7,
        "source": "user_drawn_qa_evidence_not_score_override",
        "start_component_id": 2099,
        "start_component_node_count": 11,
        "start_snap_node_m": 9.6
      },
      "type": "Feature"
    },
    {
      "geometry": {
        "coordinates": [
          [
            103.8483704,
            1.3712472000000002
          ],
          [
            103.8487706,
            1.3704830999999997
          ]
        ],
        "type": "LineString"
      },
      "properties": {
        "classification": "covered_evidence_nearby_check_connectivity_or_snap",
        "created_at": "2026-07-30T09:07:35.321Z",
        "destination": "ANG MO KIO MRT STATION Exit D",
        "end_component_id": 0,
        "end_component_node_count": 637403,
        "end_snap_node_m": 1.5,
        "endpoint_component_gap_m": null,
        "issue": "user_reported_better_walk_route",
        "label": "sheltered",
        "length_m": 95.5,
        "nearby_covered_edge_count": 32,
        "nearby_edge_count": 70,
        "nearby_sources": "{\"INFERRED_HDB_PRECINCT_CONNECTOR\": 3, \"UNREPRESENTED-surface\": 5, \"covered_linkway\": 13, \"inferred_hdb_point_footway\": 3, \"inferred_hdb_precinct_footway\": 1, \"osm_explicit_shelter\": 7}",
        "nearest_covered_edge_m": 0.1,
        "nearest_edge_m": 0.0,
        "nearest_main_component_covered_edge_m": 14.9,
        "nearest_main_component_covered_sources": "{\"UNREPRESENTED-surface\": 1}",
        "nearest_main_component_edge_m": 0.8,
        "nearest_main_component_sources": "{\"footway\": 1}",
        "needs_model_qa": false,
        "postal": "560710",
        "route_index": 1,
        "same_component": true,
        "segment_index": 0,
        "source": "user_drawn_qa_evidence_not_score_override",
        "start_component_id": 0,
        "start_component_node_count": 637403,
        "start_snap_node_m": 0.9
      },
      "type": "Feature"
    },
    {
      "geometry": {
        "coordinates": [
          [
            103.8487706,
            1.3704830999999997
          ],
          [
            103.8490254,
            1.3705821000000002
          ]
        ],
        "type": "LineString"
      },
      "properties": {
        "classification": "user_marked_exposed_no_shelter_expected",
        "created_at": "2026-07-30T09:07:35.321Z",
        "destination": "ANG MO KIO MRT STATION Exit D",
        "end_component_id": 0,
        "end_component_node_count": 637403,
        "end_snap_node_m": 1.8,
        "endpoint_component_gap_m": null,
        "issue": "user_reported_better_walk_route",
        "label": "exposed",
        "length_m": 30.4,
        "nearby_covered_edge_count": 29,
        "nearby_edge_count": 59,
        "nearby_sources": "{\"UNREPRESENTED-surface\": 4, \"covered_linkway\": 13, \"osm_explicit_shelter\": 12}",
        "nearest_covered_edge_m": 0.0,
        "nearest_edge_m": 0.0,
        "nearest_main_component_covered_edge_m": 13.4,
        "nearest_main_component_covered_sources": "{\"osm_explicit_shelter\": 1}",
        "nearest_main_component_edge_m": 0.0,
        "nearest_main_component_sources": "{\"footway\": 1}",
        "needs_model_qa": false,
        "postal": "560710",
        "route_index": 1,
        "same_component": true,
        "segment_index": 1,
        "source": "user_drawn_qa_evidence_not_score_override",
        "start_component_id": 0,
        "start_component_node_count": 637403,
        "start_snap_node_m": 1.5
      },
      "type": "Feature"
    },
    {
      "geometry": {
        "coordinates": [
          [
            103.8490254,
            1.3705821000000002
          ],
          [
            103.8495987,
            1.3695984999999997
          ]
        ],
        "type": "LineString"
      },
      "properties": {
        "classification": "covered_evidence_nearby_check_connectivity_or_snap",
        "created_at": "2026-07-30T09:07:35.321Z",
        "destination": "ANG MO KIO MRT STATION Exit D",
        "end_component_id": 0,
        "end_component_node_count": 637403,
        "end_snap_node_m": 2.3,
        "endpoint_component_gap_m": null,
        "issue": "user_reported_better_walk_route",
        "label": "sheltered",
        "length_m": 126.1,
        "nearby_covered_edge_count": 40,
        "nearby_edge_count": 76,
        "nearby_sources": "{\"UNREPRESENTED-surface\": 4, \"covered_linkway\": 11, \"osm_explicit_shelter\": 23, \"overhead_bridge_underpass\": 2}",
        "nearest_covered_edge_m": 0.0,
        "nearest_edge_m": 0.0,
        "nearest_main_component_covered_edge_m": 2.1,
        "nearest_main_component_covered_sources": "{\"osm_explicit_shelter\": 1}",
        "nearest_main_component_edge_m": 2.1,
        "nearest_main_component_sources": "{\"osm_explicit_shelter\": 1}",
        "needs_model_qa": false,
        "postal": "560710",
        "route_index": 1,
        "same_component": true,
        "segment_index": 2,
        "source": "user_drawn_qa_evidence_not_score_override",
        "start_component_id": 0,
        "start_component_node_count": 637403,
        "start_snap_node_m": 1.8
      },
      "type": "Feature"
    },
    {
      "geometry": {
        "coordinates": [
          [
            103.8380057,
            1.3673833000000002
          ],
          [
            103.8376176,
            1.3675330000000006
          ]
        ],
        "type": "LineString"
      },
      "properties": {
        "classification": "hdb_void_deck_component_gap",
        "created_at": "2026-07-30T09:09:52.566Z",
        "destination": "MAYFLOWER MRT STATION Exit 5",
        "end_component_id": 4513,
        "end_component_node_count": 5,
        "end_snap_node_m": 4.8,
        "endpoint_component_gap_m": 64.0,
        "issue": "user_reported_better_walk_route",
        "label": "void_deck",
        "length_m": 46.3,
        "nearby_covered_edge_count": 64,
        "nearby_edge_count": 119,
        "nearby_sources": "{\"INFERRED_HDB_PRECINCT_CONNECTOR\": 43, \"inferred_hdb_point_footway\": 5, \"inferred_hdb_precinct_footway\": 12, \"osm_building_roof\": 4}",
        "nearest_covered_edge_m": 4.8,
        "nearest_edge_m": 4.8,
        "nearest_main_component_covered_edge_m": 25.8,
        "nearest_main_component_covered_sources": "{\"inferred_hdb_precinct_footway\": 1}",
        "nearest_main_component_edge_m": 19.6,
        "nearest_main_component_sources": "{\"service\": 1}",
        "needs_model_qa": true,
        "postal": "560225",
        "route_index": 2,
        "same_component": false,
        "segment_index": 0,
        "source": "user_drawn_qa_evidence_not_score_override",
        "start_component_id": 3335,
        "start_component_node_count": 7,
        "start_snap_node_m": 16.5
      },
      "type": "Feature"
    },
    {
      "geometry": {
        "coordinates": [
          [
            103.8376176,
            1.3675330000000006
          ],
          [
            103.8374929,
            1.3674471
          ]
        ],
        "type": "LineString"
      },
      "properties": {
        "classification": "covered_evidence_nearby_check_connectivity_or_snap",
        "created_at": "2026-07-30T09:09:52.566Z",
        "destination": "MAYFLOWER MRT STATION Exit 5",
        "end_component_id": 4513,
        "end_component_node_count": 5,
        "end_snap_node_m": 5.6,
        "endpoint_component_gap_m": null,
        "issue": "user_reported_better_walk_route",
        "label": "sheltered",
        "length_m": 16.8,
        "nearby_covered_edge_count": 61,
        "nearby_edge_count": 125,
        "nearby_sources": "{\"INFERRED_HDB_PRECINCT_CONNECTOR\": 39, \"inferred_hdb_point_footway\": 5, \"inferred_hdb_precinct_footway\": 12, \"osm_building_roof\": 5}",
        "nearest_covered_edge_m": 0.0,
        "nearest_edge_m": 0.0,
        "nearest_main_component_covered_edge_m": 2.6,
        "nearest_main_component_covered_sources": "{\"inferred_hdb_precinct_footway\": 1}",
        "nearest_main_component_edge_m": 2.6,
        "nearest_main_component_sources": "{\"inferred_hdb_precinct_footway\": 1}",
        "needs_model_qa": false,
        "postal": "560225",
        "route_index": 2,
        "same_component": true,
        "segment_index": 1,
        "source": "user_drawn_qa_evidence_not_score_override",
        "start_component_id": 4513,
        "start_component_node_count": 5,
        "start_snap_node_m": 4.8
      },
      "type": "Feature"
    },
    {
      "geometry": {
        "coordinates": [
          [
            103.8374929,
            1.3674471
          ],
          [
            103.8373796,
            1.3674825
          ]
        ],
        "type": "LineString"
      },
      "properties": {
        "classification": "hdb_void_deck_component_gap",
        "created_at": "2026-07-30T09:09:52.566Z",
        "destination": "MAYFLOWER MRT STATION Exit 5",
        "end_component_id": 0,
        "end_component_node_count": 637403,
        "end_snap_node_m": 3.6,
        "endpoint_component_gap_m": 16.1,
        "issue": "user_reported_better_walk_route",
        "label": "sheltered",
        "length_m": 13.2,
        "nearby_covered_edge_count": 52,
        "nearby_edge_count": 101,
        "nearby_sources": "{\"INFERRED_HDB_PRECINCT_CONNECTOR\": 32, \"inferred_hdb_point_footway\": 3, \"inferred_hdb_precinct_footway\": 12, \"osm_building_roof\": 5}",
        "nearest_covered_edge_m": 3.6,
        "nearest_edge_m": 0.0,
        "nearest_main_component_covered_edge_m": 7.9,
        "nearest_main_component_covered_sources": "{\"inferred_hdb_precinct_footway\": 1}",
        "nearest_main_component_edge_m": 2.1,
        "nearest_main_component_sources": "{\"residential\": 1}",
        "needs_model_qa": true,
        "postal": "560225",
        "route_index": 2,
        "same_component": false,
        "segment_index": 2,
        "source": "user_drawn_qa_evidence_not_score_override",
        "start_component_id": 4513,
        "start_component_node_count": 5,
        "start_snap_node_m": 5.6
      },
      "type": "Feature"
    },
    {
      "geometry": {
        "coordinates": [
          [
            103.8373796,
            1.3674825
          ],
          [
            103.8371248,
            1.3674542000000003
          ]
        ],
        "type": "LineString"
      },
      "properties": {
        "classification": "covered_evidence_nearby_check_connectivity_or_snap",
        "created_at": "2026-07-30T09:09:52.566Z",
        "destination": "MAYFLOWER MRT STATION Exit 5",
        "end_component_id": 0,
        "end_component_node_count": 637403,
        "end_snap_node_m": 10.0,
        "endpoint_component_gap_m": null,
        "issue": "user_reported_better_walk_route",
        "label": "sheltered",
        "length_m": 28.5,
        "nearby_covered_edge_count": 56,
        "nearby_edge_count": 108,
        "nearby_sources": "{\"INFERRED_HDB_PRECINCT_CONNECTOR\": 36, \"inferred_hdb_point_footway\": 3, \"inferred_hdb_precinct_footway\": 12, \"osm_building_roof\": 5}",
        "nearest_covered_edge_m": 0.0,
        "nearest_edge_m": 0.0,
        "nearest_main_component_covered_edge_m": 2.4,
        "nearest_main_component_covered_sources": "{\"inferred_hdb_precinct_footway\": 1}",
        "nearest_main_component_edge_m": 2.4,
        "nearest_main_component_sources": "{\"inferred_hdb_precinct_footway\": 1}",
        "needs_model_qa": false,
        "postal": "560225",
        "route_index": 2,
        "same_component": true,
        "segment_index": 3,
        "source": "user_drawn_qa_evidence_not_score_override",
        "start_component_id": 0,
        "start_component_node_count": 637403,
        "start_snap_node_m": 3.6
      },
      "type": "Feature"
    },
    {
      "geometry": {
        "coordinates": [
          [
            103.8371248,
            1.3674542000000003
          ],
          [
            103.8369691,
            1.3675391
          ]
        ],
        "type": "LineString"
      },
      "properties": {
        "classification": "hdb_void_deck_evidence_nearby_check_connectivity",
        "created_at": "2026-07-30T09:09:52.566Z",
        "destination": "MAYFLOWER MRT STATION Exit 5",
        "end_component_id": 0,
        "end_component_node_count": 637403,
        "end_snap_node_m": 16.1,
        "endpoint_component_gap_m": null,
        "issue": "user_reported_better_walk_route",
        "label": "void_deck",
        "length_m": 19.7,
        "nearby_covered_edge_count": 41,
        "nearby_edge_count": 84,
        "nearby_sources": "{\"INFERRED_HDB_PRECINCT_CONNECTOR\": 26, \"inferred_hdb_point_footway\": 1, \"inferred_hdb_precinct_footway\": 9, \"osm_building_roof\": 5}",
        "nearest_covered_edge_m": 10.0,
        "nearest_edge_m": 10.0,
        "nearest_main_component_covered_edge_m": 16.5,
        "nearest_main_component_covered_sources": "{\"inferred_hdb_precinct_footway\": 1}",
        "nearest_main_component_edge_m": 16.5,
        "nearest_main_component_sources": "{\"inferred_hdb_precinct_footway\": 1}",
        "needs_model_qa": false,
        "postal": "560225",
        "route_index": 2,
        "same_component": true,
        "segment_index": 4,
        "source": "user_drawn_qa_evidence_not_score_override",
        "start_component_id": 0,
        "start_component_node_count": 637403,
        "start_snap_node_m": 10.0
      },
      "type": "Feature"
    },
    {
      "geometry": {
        "coordinates": [
          [
            103.8369691,
            1.3675391
          ],
          [
            103.83739380000002,
            1.3680910000000002
          ]
        ],
        "type": "LineString"
      },
      "properties": {
        "classification": "covered_evidence_nearby_check_connectivity_or_snap",
        "created_at": "2026-07-30T09:09:52.566Z",
        "destination": "MAYFLOWER MRT STATION Exit 5",
        "end_component_id": 0,
        "end_component_node_count": 637403,
        "end_snap_node_m": 11.9,
        "endpoint_component_gap_m": null,
        "issue": "user_reported_better_walk_route",
        "label": "sheltered",
        "length_m": 77.2,
        "nearby_covered_edge_count": 71,
        "nearby_edge_count": 139,
        "nearby_sources": "{\"INFERRED_HDB_PRECINCT_CONNECTOR\": 46, \"INFERRED_HDB_VOID_DECK\": 1, \"INFERRED_HDB_VOID_DECK_ANCHOR\": 1, \"inferred_hdb_point_footway\": 5, \"inferred_hdb_precinct_footway\": 13, \"osm_building_roof\": 5}",
        "nearest_covered_edge_m": 0.0,
        "nearest_edge_m": 0.0,
        "nearest_main_component_covered_edge_m": 13.4,
        "nearest_main_component_covered_sources": "{\"osm_building_roof\": 1}",
        "nearest_main_component_edge_m": 13.4,
        "nearest_main_component_sources": "{\"osm_building_roof\": 1}",
        "needs_model_qa": false,
        "postal": "560225",
        "route_index": 2,
        "same_component": true,
        "segment_index": 5,
        "source": "user_drawn_qa_evidence_not_score_override",
        "start_component_id": 0,
        "start_component_node_count": 637403,
        "start_snap_node_m": 16.1
      },
      "type": "Feature"
    },
    {
      "geometry": {
        "coordinates": [
          [
            103.83739380000002,
            1.3680910000000002
          ],
          [
            103.836962,
            1.3686784000000003
          ]
        ],
        "type": "LineString"
      },
      "properties": {
        "classification": "hdb_void_deck_evidence_nearby_check_connectivity",
        "created_at": "2026-07-30T09:09:52.566Z",
        "destination": "MAYFLOWER MRT STATION Exit 5",
        "end_component_id": 0,
        "end_component_node_count": 637403,
        "end_snap_node_m": 8.9,
        "endpoint_component_gap_m": null,
        "issue": "user_reported_better_walk_route",
        "label": "void_deck",
        "length_m": 80.8,
        "nearby_covered_edge_count": 69,
        "nearby_edge_count": 135,
        "nearby_sources": "{\"INFERRED_HDB_PRECINCT_CONNECTOR\": 43, \"INFERRED_HDB_VOID_DECK\": 2, \"INFERRED_HDB_VOID_DECK_ANCHOR\": 3, \"inferred_hdb_point_footway\": 4, \"inferred_hdb_precinct_footway\": 11, \"osm_building_roof\": 2, \"osm_explicit_shelter\": 4}",
        "nearest_covered_edge_m": 0.0,
        "nearest_edge_m": 0.0,
        "nearest_main_component_covered_edge_m": 8.6,
        "nearest_main_component_covered_sources": "{\"inferred_hdb_precinct_footway\": 1}",
        "nearest_main_component_edge_m": 8.6,
        "nearest_main_component_sources": "{\"inferred_hdb_precinct_footway\": 1}",
        "needs_model_qa": false,
        "postal": "560225",
        "route_index": 2,
        "same_component": true,
        "segment_index": 6,
        "source": "user_drawn_qa_evidence_not_score_override",
        "start_component_id": 0,
        "start_component_node_count": 637403,
        "start_snap_node_m": 11.9
      },
      "type": "Feature"
    },
    {
      "geometry": {
        "coordinates": [
          [
            103.836962,
            1.3686784000000003
          ],
          [
            103.8367497,
            1.3686359
          ]
        ],
        "type": "LineString"
      },
      "properties": {
        "classification": "hdb_void_deck_component_gap",
        "created_at": "2026-07-30T09:09:52.566Z",
        "destination": "MAYFLOWER MRT STATION Exit 5",
        "end_component_id": 1238,
        "end_component_node_count": 18,
        "end_snap_node_m": 6.6,
        "endpoint_component_gap_m": 16.5,
        "issue": "user_reported_better_walk_route",
        "label": "sheltered",
        "length_m": 24.1,
        "nearby_covered_edge_count": 44,
        "nearby_edge_count": 76,
        "nearby_sources": "{\"INFERRED_HDB_PRECINCT_CONNECTOR\": 19, \"INFERRED_HDB_VOID_DECK\": 2, \"INFERRED_HDB_VOID_DECK_ANCHOR\": 1, \"UNREPRESENTED-surface\": 1, \"covered_linkway\": 2, \"inferred_hdb_precinct_footway\": 7, \"osm_explicit_shelter\": 12}",
        "nearest_covered_edge_m": 0.0,
        "nearest_edge_m": 0.0,
        "nearest_main_component_covered_edge_m": 2.5,
        "nearest_main_component_covered_sources": "{\"inferred_hdb_precinct_footway\": 1}",
        "nearest_main_component_edge_m": 2.5,
        "nearest_main_component_sources": "{\"inferred_hdb_precinct_footway\": 1}",
        "needs_model_qa": true,
        "postal": "560225",
        "route_index": 2,
        "same_component": false,
        "segment_index": 7,
        "source": "user_drawn_qa_evidence_not_score_override",
        "start_component_id": 0,
        "start_component_node_count": 637403,
        "start_snap_node_m": 8.9
      },
      "type": "Feature"
    },
    {
      "geometry": {
        "coordinates": [
          [
            103.8367497,
            1.3686359
          ],
          [
            103.836417,
            1.3688341000000002
          ]
        ],
        "type": "LineString"
      },
      "properties": {
        "classification": "hdb_void_deck_component_gap",
        "created_at": "2026-07-30T09:09:52.566Z",
        "destination": "MAYFLOWER MRT STATION Exit 5",
        "end_component_id": 0,
        "end_component_node_count": 637403,
        "end_snap_node_m": 2.6,
        "endpoint_component_gap_m": 37.0,
        "issue": "user_reported_better_walk_route",
        "label": "covered_bridge",
        "length_m": 43.0,
        "nearby_covered_edge_count": 35,
        "nearby_edge_count": 67,
        "nearby_sources": "{\"INFERRED_HDB_PRECINCT_CONNECTOR\": 14, \"INFERRED_HDB_VOID_DECK\": 1, \"UNREPRESENTED-surface\": 1, \"covered_linkway\": 2, \"inferred_hdb_precinct_footway\": 5, \"osm_explicit_shelter\": 12}",
        "nearest_covered_edge_m": 0.0,
        "nearest_edge_m": 0.0,
        "nearest_main_component_covered_edge_m": 1.0,
        "nearest_main_component_covered_sources": "{\"osm_explicit_shelter\": 1}",
        "nearest_main_component_edge_m": 1.0,
        "nearest_main_component_sources": "{\"osm_explicit_shelter\": 1}",
        "needs_model_qa": true,
        "postal": "560225",
        "route_index": 2,
        "same_component": false,
        "segment_index": 8,
        "source": "user_drawn_qa_evidence_not_score_override",
        "start_component_id": 1238,
        "start_component_node_count": 18,
        "start_snap_node_m": 6.6
      },
      "type": "Feature"
    },
    {
      "geometry": {
        "coordinates": [
          [
            103.836417,
            1.3688341000000002
          ],
          [
            103.8369762,
            1.3692445
          ]
        ],
        "type": "LineString"
      },
      "properties": {
        "classification": "covered_evidence_nearby_check_connectivity_or_snap",
        "created_at": "2026-07-30T09:09:52.566Z",
        "destination": "MAYFLOWER MRT STATION Exit 5",
        "end_component_id": 0,
        "end_component_node_count": 637403,
        "end_snap_node_m": 3.7,
        "endpoint_component_gap_m": null,
        "issue": "user_reported_better_walk_route",
        "label": "sheltered",
        "length_m": 77.0,
        "nearby_covered_edge_count": 44,
        "nearby_edge_count": 82,
        "nearby_sources": "{\"INFERRED_HDB_PRECINCT_CONNECTOR\": 16, \"INFERRED_HDB_VOID_DECK\": 2, \"UNREPRESENTED-surface\": 1, \"covered_linkway\": 2, \"inferred_hdb_precinct_footway\": 11, \"osm_explicit_shelter\": 12}",
        "nearest_covered_edge_m": 1.4,
        "nearest_edge_m": 0.0,
        "nearest_main_component_covered_edge_m": 33.0,
        "nearest_main_component_covered_sources": "{\"osm_explicit_shelter\": 1}",
        "nearest_main_component_edge_m": 3.5,
        "nearest_main_component_sources": "{\"footway\": 1}",
        "needs_model_qa": false,
        "postal": "560225",
        "route_index": 2,
        "same_component": true,
        "segment_index": 9,
        "source": "user_drawn_qa_evidence_not_score_override",
        "start_component_id": 0,
        "start_component_node_count": 637403,
        "start_snap_node_m": 2.6
      },
      "type": "Feature"
    },
    {
      "geometry": {
        "coordinates": [
          [
            103.8369762,
            1.3692445
          ],
          [
            103.8367709,
            1.3695205
          ]
        ],
        "type": "LineString"
      },
      "properties": {
        "classification": "covered_evidence_nearby_check_connectivity_or_snap",
        "created_at": "2026-07-30T09:09:52.566Z",
        "destination": "MAYFLOWER MRT STATION Exit 5",
        "end_component_id": 0,
        "end_component_node_count": 637403,
        "end_snap_node_m": 24.7,
        "endpoint_component_gap_m": null,
        "issue": "user_reported_better_walk_route",
        "label": "sheltered",
        "length_m": 38.1,
        "nearby_covered_edge_count": 17,
        "nearby_edge_count": 45,
        "nearby_sources": "{\"INFERRED_HDB_PRECINCT_CONNECTOR\": 9, \"INFERRED_HDB_VOID_DECK\": 1, \"inferred_hdb_precinct_footway\": 7}",
        "nearest_covered_edge_m": 39.2,
        "nearest_edge_m": 0.0,
        "nearest_main_component_covered_edge_m": 57.2,
        "nearest_main_component_covered_sources": "{\"inferred_hdb_precinct_footway\": 1}",
        "nearest_main_component_edge_m": 5.7,
        "nearest_main_component_sources": "{\"service\": 1}",
        "needs_model_qa": false,
        "postal": "560225",
        "route_index": 2,
        "same_component": true,
        "segment_index": 10,
        "source": "user_drawn_qa_evidence_not_score_override",
        "start_component_id": 0,
        "start_component_node_count": 637403,
        "start_snap_node_m": 3.7
      },
      "type": "Feature"
    },
    {
      "geometry": {
        "coordinates": [
          [
            103.8367709,
            1.3695205
          ],
          [
            103.8363391,
            1.3703130000000001
          ]
        ],
        "type": "LineString"
      },
      "properties": {
        "classification": "hdb_void_deck_component_gap",
        "created_at": "2026-07-30T09:09:52.566Z",
        "destination": "MAYFLOWER MRT STATION Exit 5",
        "end_component_id": 2099,
        "end_component_node_count": 11,
        "end_snap_node_m": 7.9,
        "endpoint_component_gap_m": 128.7,
        "issue": "user_reported_better_walk_route",
        "label": "void_deck",
        "length_m": 99.9,
        "nearby_covered_edge_count": 11,
        "nearby_edge_count": 39,
        "nearby_sources": "{\"inferred_hdb_point_footway\": 11}",
        "nearest_covered_edge_m": 7.9,
        "nearest_edge_m": 7.9,
        "nearest_main_component_covered_edge_m": 73.9,
        "nearest_main_component_covered_sources": "{\"inferred_hdb_precinct_footway\": 1}",
        "nearest_main_component_edge_m": 31.9,
        "nearest_main_component_sources": "{\"secondary\": 1}",
        "needs_model_qa": true,
        "postal": "560225",
        "route_index": 2,
        "same_component": false,
        "segment_index": 11,
        "source": "user_drawn_qa_evidence_not_score_override",
        "start_component_id": 0,
        "start_component_node_count": 637403,
        "start_snap_node_m": 24.7
      },
      "type": "Feature"
    },
    {
      "geometry": {
        "coordinates": [
          [
            103.8363391,
            1.3703130000000001
          ],
          [
            103.83653020000001,
            1.3704475
          ]
        ],
        "type": "LineString"
      },
      "properties": {
        "classification": "covered_evidence_nearby_check_connectivity_or_snap",
        "created_at": "2026-07-30T09:09:52.566Z",
        "destination": "MAYFLOWER MRT STATION Exit 5",
        "end_component_id": 2099,
        "end_component_node_count": 11,
        "end_snap_node_m": 3.6,
        "endpoint_component_gap_m": null,
        "issue": "user_reported_better_walk_route",
        "label": "sheltered",
        "length_m": 26.0,
        "nearby_covered_edge_count": 20,
        "nearby_edge_count": 37,
        "nearby_sources": "{\"INFERRED_HDB_PRECINCT_CONNECTOR\": 6, \"inferred_hdb_point_footway\": 12, \"inferred_hdb_precinct_footway\": 2}",
        "nearest_covered_edge_m": 0.0,
        "nearest_edge_m": 0.0,
        "nearest_main_component_covered_edge_m": 80.6,
        "nearest_main_component_covered_sources": "{\"inferred_hdb_point_footway\": 1}",
        "nearest_main_component_edge_m": 24.6,
        "nearest_main_component_sources": "{\"secondary\": 1}",
        "needs_model_qa": false,
        "postal": "560225",
        "route_index": 2,
        "same_component": true,
        "segment_index": 12,
        "source": "user_drawn_qa_evidence_not_score_override",
        "start_component_id": 2099,
        "start_component_node_count": 11,
        "start_snap_node_m": 7.9
      },
      "type": "Feature"
    },
    {
      "geometry": {
        "coordinates": [
          [
            103.8465903,
            1.3696501
          ],
          [
            103.8464151,
            1.3690974
          ]
        ],
        "type": "LineString"
      },
      "properties": {
        "classification": "covered_evidence_nearby_check_connectivity_or_snap",
        "created_at": "2026-07-30T09:12:22.029Z",
        "destination": "ANG MO KIO MRT STATION Exit B",
        "end_component_id": 0,
        "end_component_node_count": 637403,
        "end_snap_node_m": 6.3,
        "endpoint_component_gap_m": null,
        "issue": "user_reported_better_walk_route",
        "label": "sheltered",
        "length_m": 64.1,
        "nearby_covered_edge_count": 74,
        "nearby_edge_count": 103,
        "nearby_sources": "{\"INFERRED_HDB_PRECINCT_CONNECTOR\": 37, \"INFERRED_HDB_VOID_DECK\": 3, \"INFERRED_HDB_VOID_DECK_ANCHOR\": 4, \"UNREPRESENTED-surface\": 4, \"covered_linkway\": 11, \"inferred_hdb_precinct_footway\": 8, \"osm_explicit_shelter\": 7}",
        "nearest_covered_edge_m": 0.3,
        "nearest_edge_m": 0.0,
        "nearest_main_component_covered_edge_m": 10.2,
        "nearest_main_component_covered_sources": "{\"INFERRED_HDB_VOID_DECK_ANCHOR\": 1}",
        "nearest_main_component_edge_m": 7.1,
        "nearest_main_component_sources": "{\"service\": 1}",
        "needs_model_qa": false,
        "postal": "560700",
        "route_index": 3,
        "same_component": true,
        "segment_index": 0,
        "source": "user_drawn_qa_evidence_not_score_override",
        "start_component_id": 0,
        "start_component_node_count": 637403,
        "start_snap_node_m": 3.2
      },
      "type": "Feature"
    },
    {
      "geometry": {
        "coordinates": [
          [
            103.8464151,
            1.3690974
          ],
          [
            103.84682090000001,
            1.3690459000000001
          ]
        ],
        "type": "LineString"
      },
      "properties": {
        "classification": "covered_evidence_nearby_check_connectivity_or_snap",
        "created_at": "2026-07-30T09:12:22.029Z",
        "destination": "ANG MO KIO MRT STATION Exit B",
        "end_component_id": 0,
        "end_component_node_count": 637403,
        "end_snap_node_m": 1.9,
        "endpoint_component_gap_m": null,
        "issue": "user_reported_better_walk_route",
        "label": "sheltered",
        "length_m": 45.5,
        "nearby_covered_edge_count": 44,
        "nearby_edge_count": 72,
        "nearby_sources": "{\"INFERRED_HDB_PRECINCT_CONNECTOR\": 18, \"INFERRED_HDB_VOID_DECK\": 1, \"INFERRED_HDB_VOID_DECK_ANCHOR\": 2, \"UNREPRESENTED-surface\": 4, \"covered_linkway\": 11, \"inferred_hdb_precinct_footway\": 5, \"osm_explicit_shelter\": 3}",
        "nearest_covered_edge_m": 0.0,
        "nearest_edge_m": 0.0,
        "nearest_main_component_covered_edge_m": 0.7,
        "nearest_main_component_covered_sources": "{\"covered_linkway\": 1}",
        "nearest_main_component_edge_m": 0.7,
        "nearest_main_component_sources": "{\"covered_linkway\": 1}",
        "needs_model_qa": false,
        "postal": "560700",
        "route_index": 3,
        "same_component": true,
        "segment_index": 1,
        "source": "user_drawn_qa_evidence_not_score_override",
        "start_component_id": 0,
        "start_component_node_count": 637403,
        "start_snap_node_m": 6.3
      },
      "type": "Feature"
    },
    {
      "geometry": {
        "coordinates": [
          [
            103.84682090000001,
            1.3690459000000001
          ],
          [
            103.8469625,
            1.3690459000000001
          ]
        ],
        "type": "LineString"
      },
      "properties": {
        "classification": "covered_evidence_nearby_check_connectivity_or_snap",
        "created_at": "2026-07-30T09:12:22.029Z",
        "destination": "ANG MO KIO MRT STATION Exit B",
        "end_component_id": 0,
        "end_component_node_count": 637403,
        "end_snap_node_m": 3.7,
        "endpoint_component_gap_m": null,
        "issue": "user_reported_better_walk_route",
        "label": "sheltered",
        "length_m": 15.8,
        "nearby_covered_edge_count": 25,
        "nearby_edge_count": 44,
        "nearby_sources": "{\"INFERRED_HDB_PRECINCT_CONNECTOR\": 10, \"UNREPRESENTED-surface\": 3, \"covered_linkway\": 9, \"osm_explicit_shelter\": 3}",
        "nearest_covered_edge_m": 0.7,
        "nearest_edge_m": 0.7,
        "nearest_main_component_covered_edge_m": 1.0,
        "nearest_main_component_covered_sources": "{\"covered_linkway\": 1}",
        "nearest_main_component_edge_m": 1.0,
        "nearest_main_component_sources": "{\"covered_linkway\": 1}",
        "needs_model_qa": false,
        "postal": "560700",
        "route_index": 3,
        "same_component": true,
        "segment_index": 2,
        "source": "user_drawn_qa_evidence_not_score_override",
        "start_component_id": 0,
        "start_component_node_count": 637403,
        "start_snap_node_m": 1.9
      },
      "type": "Feature"
    },
    {
      "geometry": {
        "coordinates": [
          [
            103.8469625,
            1.3690459000000001
          ],
          [
            103.847465,
            1.3690105
          ]
        ],
        "type": "LineString"
      },
      "properties": {
        "classification": "covered_evidence_nearby_check_connectivity_or_snap",
        "created_at": "2026-07-30T09:12:22.029Z",
        "destination": "ANG MO KIO MRT STATION Exit B",
        "end_component_id": 0,
        "end_component_node_count": 637403,
        "end_snap_node_m": 2.6,
        "endpoint_component_gap_m": null,
        "issue": "user_reported_better_walk_route",
        "label": "sheltered",
        "length_m": 56.1,
        "nearby_covered_edge_count": 30,
        "nearby_edge_count": 52,
        "nearby_sources": "{\"INFERRED_HDB_PRECINCT_CONNECTOR\": 12, \"UNREPRESENTED-surface\": 3, \"covered_linkway\": 9, \"inferred_hdb_point_footway\": 2, \"osm_explicit_shelter\": 4}",
        "nearest_covered_edge_m": 3.7,
        "nearest_edge_m": 0.0,
        "nearest_main_component_covered_edge_m": 31.8,
        "nearest_main_component_covered_sources": "{\"covered_linkway\": 1}",
        "nearest_main_component_edge_m": 11.0,
        "nearest_main_component_sources": "{\"primary\": 1}",
        "needs_model_qa": false,
        "postal": "560700",
        "route_index": 3,
        "same_component": true,
        "segment_index": 3,
        "source": "user_drawn_qa_evidence_not_score_override",
        "start_component_id": 0,
        "start_component_node_count": 637403,
        "start_snap_node_m": 3.7
      },
      "type": "Feature"
    },
    {
      "geometry": {
        "coordinates": [
          [
            103.847465,
            1.3690105
          ],
          [
            103.8474721,
            1.3693501000000001
          ]
        ],
        "type": "LineString"
      },
      "properties": {
        "classification": "covered_evidence_nearby_check_connectivity_or_snap",
        "created_at": "2026-07-30T09:12:22.029Z",
        "destination": "ANG MO KIO MRT STATION Exit B",
        "end_component_id": 0,
        "end_component_node_count": 637403,
        "end_snap_node_m": 7.8,
        "endpoint_component_gap_m": null,
        "issue": "user_reported_better_walk_route",
        "label": "sheltered",
        "length_m": 37.6,
        "nearby_covered_edge_count": 4,
        "nearby_edge_count": 14,
        "nearby_sources": "{\"inferred_hdb_point_footway\": 4}",
        "nearest_covered_edge_m": 9.1,
        "nearest_edge_m": 2.6,
        "nearest_main_component_covered_edge_m": 24.3,
        "nearest_main_component_covered_sources": "{\"inferred_hdb_point_footway\": 1}",
        "nearest_main_component_edge_m": 5.0,
        "nearest_main_component_sources": "{\"footway\": 1}",
        "needs_model_qa": false,
        "postal": "560700",
        "route_index": 3,
        "same_component": true,
        "segment_index": 4,
        "source": "user_drawn_qa_evidence_not_score_override",
        "start_component_id": 0,
        "start_component_node_count": 637403,
        "start_snap_node_m": 2.6
      },
      "type": "Feature"
    },
    {
      "geometry": {
        "coordinates": [
          [
            103.8474721,
            1.3693501000000001
          ],
          [
            103.849178,
            1.3695129000000001
          ]
        ],
        "type": "LineString"
      },
      "properties": {
        "classification": "covered_evidence_nearby_check_connectivity_or_snap",
        "created_at": "2026-07-30T09:12:22.029Z",
        "destination": "ANG MO KIO MRT STATION Exit B",
        "end_component_id": 0,
        "end_component_node_count": 637403,
        "end_snap_node_m": 20.8,
        "endpoint_component_gap_m": null,
        "issue": "user_reported_better_walk_route",
        "label": "sheltered",
        "length_m": 190.7,
        "nearby_covered_edge_count": 27,
        "nearby_edge_count": 40,
        "nearby_sources": "{\"UNREPRESENTED-surface\": 3, \"covered_linkway\": 8, \"inferred_hdb_point_footway\": 4, \"osm_explicit_shelter\": 9, \"overhead_bridge_underpass\": 3}",
        "nearest_covered_edge_m": 9.1,
        "nearest_edge_m": 7.6,
        "nearest_main_component_covered_edge_m": 49.5,
        "nearest_main_component_covered_sources": "{\"covered_linkway\": 1}",
        "nearest_main_component_edge_m": 49.5,
        "nearest_main_component_sources": "{\"covered_linkway\": 1}",
        "needs_model_qa": false,
        "postal": "560700",
        "route_index": 3,
        "same_component": true,
        "segment_index": 5,
        "source": "user_drawn_qa_evidence_not_score_override",
        "start_component_id": 0,
        "start_component_node_count": 637403,
        "start_snap_node_m": 7.8
      },
      "type": "Feature"
    },
    {
      "geometry": {
        "coordinates": [
          [
            103.849178,
            1.3695129000000001
          ],
          [
            103.8496735,
            1.3694351
          ]
        ],
        "type": "LineString"
      },
      "properties": {
        "classification": "bridge_underpass_evidence_nearby_check_endpoint_snap",
        "created_at": "2026-07-30T09:12:22.029Z",
        "destination": "ANG MO KIO MRT STATION Exit B",
        "end_component_id": 0,
        "end_component_node_count": 637403,
        "end_snap_node_m": 5.1,
        "endpoint_component_gap_m": null,
        "issue": "user_reported_better_walk_route",
        "label": "underpass",
        "length_m": 55.8,
        "nearby_covered_edge_count": 20,
        "nearby_edge_count": 50,
        "nearby_sources": "{\"UNREPRESENTED-surface\": 1, \"osm_explicit_shelter\": 17, \"overhead_bridge_underpass\": 2}",
        "nearest_covered_edge_m": 0.0,
        "nearest_edge_m": 0.0,
        "nearest_main_component_covered_edge_m": 2.5,
        "nearest_main_component_covered_sources": "{\"overhead_bridge_underpass\": 1}",
        "nearest_main_component_edge_m": 2.5,
        "nearest_main_component_sources": "{\"overhead_bridge_underpass\": 1}",
        "needs_model_qa": false,
        "postal": "560700",
        "route_index": 3,
        "same_component": true,
        "segment_index": 6,
        "source": "user_drawn_qa_evidence_not_score_override",
        "start_component_id": 0,
        "start_component_node_count": 637403,
        "start_snap_node_m": 20.8
      },
      "type": "Feature"
    },
    {
      "geometry": {
        "coordinates": [
          [
            103.8496735,
            1.3694351
          ],
          [
            103.8496806,
            1.3698101
          ]
        ],
        "type": "LineString"
      },
      "properties": {
        "classification": "covered_evidence_nearby_check_connectivity_or_snap",
        "created_at": "2026-07-30T09:12:22.029Z",
        "destination": "ANG MO KIO MRT STATION Exit B",
        "end_component_id": 0,
        "end_component_node_count": 637403,
        "end_snap_node_m": 22.2,
        "endpoint_component_gap_m": null,
        "issue": "user_reported_better_walk_route",
        "label": "sheltered",
        "length_m": 41.5,
        "nearby_covered_edge_count": 20,
        "nearby_edge_count": 49,
        "nearby_sources": "{\"UNREPRESENTED-surface\": 1, \"osm_explicit_shelter\": 17, \"overhead_bridge_underpass\": 2}",
        "nearest_covered_edge_m": 1.9,
        "nearest_edge_m": 1.9,
        "nearest_main_component_covered_edge_m": 8.0,
        "nearest_main_component_covered_sources": "{\"osm_explicit_shelter\": 1}",
        "nearest_main_component_edge_m": 8.0,
        "nearest_main_component_sources": "{\"osm_explicit_shelter\": 1}",
        "needs_model_qa": false,
        "postal": "560700",
        "route_index": 3,
        "same_component": true,
        "segment_index": 7,
        "source": "user_drawn_qa_evidence_not_score_override",
        "start_component_id": 0,
        "start_component_node_count": 637403,
        "start_snap_node_m": 5.1
      },
      "type": "Feature"
    }
  ],
  "type": "FeatureCollection"
}