{
  "features": [
    {
      "geometry": {
        "coordinates": [
          [
            103.83767870000001,
            1.3683915999999998
          ],
          [
            103.83733910000001,
            1.3681117
          ]
        ],
        "type": "LineString"
      },
      "properties": {
        "classification": "covered_evidence_nearby_check_connectivity_or_snap",
        "created_at": "2026-07-30T09:06:09.270Z",
        "destination": "MAYFLOWER MRT STATION Exit 5",
        "issue": "user_reported_better_walk_route",
        "label": "sheltered",
        "length_m": 48.8,
        "nearby_covered_edge_count": 11,
        "nearby_edge_count": 15,
        "nearby_sources": "{\"INFERRED_HDB_PRECINCT_CONNECTOR\": 7, \"INFERRED_HDB_VOID_DECK\": 2, \"INFERRED_HDB_VOID_DECK_ANCHOR\": 2}",
        "nearest_covered_edge_m": 0.0,
        "nearest_edge_m": 0.0,
        "needs_model_qa": false,
        "postal": "560231",
        "route_index": 0,
        "segment_index": 0,
        "source": "user_drawn_qa_evidence_not_score_override"
      },
      "type": "Feature"
    },
    {
      "geometry": {
        "coordinates": [
          [
            103.83733910000001,
            1.3681117
          ],
          [
            103.8369516,
            1.3686986999999997
          ]
        ],
        "type": "LineString"
      },
      "properties": {
        "classification": "hdb_void_deck_evidence_nearby_check_connectivity",
        "created_at": "2026-07-30T09:06:09.270Z",
        "destination": "MAYFLOWER MRT STATION Exit 5",
        "issue": "user_reported_better_walk_route",
        "label": "void_deck",
        "length_m": 77.9,
        "nearby_covered_edge_count": 11,
        "nearby_edge_count": 16,
        "nearby_sources": "{\"INFERRED_HDB_PRECINCT_CONNECTOR\": 9, \"INFERRED_HDB_VOID_DECK\": 1, \"INFERRED_HDB_VOID_DECK_ANCHOR\": 1}",
        "nearest_covered_edge_m": 0.0,
        "nearest_edge_m": 0.0,
        "needs_model_qa": false,
        "postal": "560231",
        "route_index": 0,
        "segment_index": 1,
        "source": "user_drawn_qa_evidence_not_score_override"
      },
      "type": "Feature"
    },
    {
      "geometry": {
        "coordinates": [
          [
            103.8369516,
            1.3686986999999997
          ],
          [
            103.8366933,
            1.3686283000000001
          ]
        ],
        "type": "LineString"
      },
      "properties": {
        "classification": "covered_evidence_nearby_check_connectivity_or_snap",
        "created_at": "2026-07-30T09:06:09.270Z",
        "destination": "MAYFLOWER MRT STATION Exit 5",
        "issue": "user_reported_better_walk_route",
        "label": "sheltered",
        "length_m": 29.8,
        "nearby_covered_edge_count": 13,
        "nearby_edge_count": 23,
        "nearby_sources": "{\"INFERRED_HDB_PRECINCT_CONNECTOR\": 8, \"INFERRED_HDB_VOID_DECK\": 1, \"footway\": 1, \"steps\": 3}",
        "nearest_covered_edge_m": 0.0,
        "nearest_edge_m": 0.0,
        "needs_model_qa": false,
        "postal": "560231",
        "route_index": 0,
        "segment_index": 2,
        "source": "user_drawn_qa_evidence_not_score_override"
      },
      "type": "Feature"
    },
    {
      "geometry": {
        "coordinates": [
          [
            103.8366933,
            1.3686283000000001
          ],
          [
            103.8363997,
            1.3688161
          ]
        ],
        "type": "LineString"
      },
      "properties": {
        "classification": "bridge_underpass_evidence_nearby_check_endpoint_snap",
        "created_at": "2026-07-30T09:06:09.270Z",
        "destination": "MAYFLOWER MRT STATION Exit 5",
        "issue": "user_reported_better_walk_route",
        "label": "covered_bridge",
        "length_m": 38.7,
        "nearby_covered_edge_count": 15,
        "nearby_edge_count": 31,
        "nearby_sources": "{\"INFERRED_HDB_PRECINCT_CONNECTOR\": 6, \"footway\": 1, \"steps\": 8}",
        "nearest_covered_edge_m": 0.0,
        "nearest_edge_m": 0.0,
        "needs_model_qa": false,
        "postal": "560231",
        "route_index": 0,
        "segment_index": 3,
        "source": "user_drawn_qa_evidence_not_score_override"
      },
      "type": "Feature"
    },
    {
      "geometry": {
        "coordinates": [
          [
            103.8363997,
            1.3688161
          ],
          [
            103.836977,
            1.3692851000000001
          ]
        ],
        "type": "LineString"
      },
      "properties": {
        "classification": "covered_evidence_nearby_check_connectivity_or_snap",
        "created_at": "2026-07-30T09:06:09.270Z",
        "destination": "MAYFLOWER MRT STATION Exit 5",
        "issue": "user_reported_better_walk_route",
        "label": "sheltered",
        "length_m": 82.6,
        "nearby_covered_edge_count": 6,
        "nearby_edge_count": 28,
        "nearby_sources": "{\"footway\": 1, \"steps\": 5}",
        "nearest_covered_edge_m": 1.2,
        "nearest_edge_m": 0.0,
        "needs_model_qa": false,
        "postal": "560231",
        "route_index": 0,
        "segment_index": 4,
        "source": "user_drawn_qa_evidence_not_score_override"
      },
      "type": "Feature"
    },
    {
      "geometry": {
        "coordinates": [
          [
            103.836977,
            1.3692851000000001
          ],
          [
            103.8367687,
            1.3695134
          ]
        ],
        "type": "LineString"
      },
      "properties": {
        "classification": "routable_but_uncovered_or_missing_shelter_source",
        "created_at": "2026-07-30T09:06:09.270Z",
        "destination": "MAYFLOWER MRT STATION Exit 5",
        "issue": "user_reported_better_walk_route",
        "label": "sheltered",
        "length_m": 34.3,
        "nearby_covered_edge_count": 0,
        "nearby_edge_count": 10,
        "nearby_sources": "{\"footway\": 3, \"primary\": 5, \"service\": 2}",
        "nearest_covered_edge_m": NaN,
        "nearest_edge_m": 0.0,
        "needs_model_qa": true,
        "postal": "560231",
        "route_index": 0,
        "segment_index": 5,
        "source": "user_drawn_qa_evidence_not_score_override"
      },
      "type": "Feature"
    },
    {
      "geometry": {
        "coordinates": [
          [
            103.8367687,
            1.3695134
          ],
          [
            103.8363228,
            1.3703059000000002
          ]
        ],
        "type": "LineString"
      },
      "properties": {
        "classification": "missing_hdb_void_deck_connector",
        "created_at": "2026-07-30T09:06:09.270Z",
        "destination": "MAYFLOWER MRT STATION Exit 5",
        "issue": "user_reported_better_walk_route",
        "label": "void_deck",
        "length_m": 100.7,
        "nearby_covered_edge_count": 0,
        "nearby_edge_count": 9,
        "nearby_sources": "{\"footway\": 5, \"service\": 3, \"steps\": 1}",
        "nearest_covered_edge_m": NaN,
        "nearest_edge_m": 9.6,
        "needs_model_qa": true,
        "postal": "560231",
        "route_index": 0,
        "segment_index": 6,
        "source": "user_drawn_qa_evidence_not_score_override"
      },
      "type": "Feature"
    },
    {
      "geometry": {
        "coordinates": [
          [
            103.8363228,
            1.3703059000000002
          ],
          [
            103.8365351,
            1.3704828000000002
          ]
        ],
        "type": "LineString"
      },
      "properties": {
        "classification": "covered_evidence_nearby_check_connectivity_or_snap",
        "created_at": "2026-07-30T09:06:09.270Z",
        "destination": "MAYFLOWER MRT STATION Exit 5",
        "issue": "user_reported_better_walk_route",
        "label": "sheltered",
        "length_m": 30.7,
        "nearby_covered_edge_count": 1,
        "nearby_edge_count": 15,
        "nearby_sources": "{\"footway\": 1}",
        "nearest_covered_edge_m": 9.6,
        "nearest_edge_m": 0.0,
        "needs_model_qa": false,
        "postal": "560231",
        "route_index": 0,
        "segment_index": 7,
        "source": "user_drawn_qa_evidence_not_score_override"
      },
      "type": "Feature"
    },
    {
      "geometry": {
        "coordinates": [
          [
            103.8483704,
            1.3712472000000002
          ],
          [
            103.8487706,
            1.3704830999999997
          ]
        ],
        "type": "LineString"
      },
      "properties": {
        "classification": "covered_evidence_nearby_check_connectivity_or_snap",
        "created_at": "2026-07-30T09:07:35.321Z",
        "destination": "ANG MO KIO MRT STATION Exit D",
        "issue": "user_reported_better_walk_route",
        "label": "sheltered",
        "length_m": 95.5,
        "nearby_covered_edge_count": 21,
        "nearby_edge_count": 44,
        "nearby_sources": "{\"INFERRED_HDB_PRECINCT_CONNECTOR\": 3, \"UNREPRESENTED-surface\": 5, \"footway\": 6, \"service\": 7}",
        "nearest_covered_edge_m": 0.1,
        "nearest_edge_m": 0.0,
        "needs_model_qa": false,
        "postal": "560710",
        "route_index": 1,
        "segment_index": 0,
        "source": "user_drawn_qa_evidence_not_score_override"
      },
      "type": "Feature"
    },
    {
      "geometry": {
        "coordinates": [
          [
            103.8487706,
            1.3704830999999997
          ],
          [
            103.8490254,
            1.3705821000000002
          ]
        ],
        "type": "LineString"
      },
      "properties": {
        "classification": "user_marked_exposed_no_shelter_expected",
        "created_at": "2026-07-30T09:07:35.321Z",
        "destination": "ANG MO KIO MRT STATION Exit D",
        "issue": "user_reported_better_walk_route",
        "label": "exposed",
        "length_m": 30.4,
        "nearby_covered_edge_count": 16,
        "nearby_edge_count": 29,
        "nearby_sources": "{\"UNREPRESENTED-surface\": 3, \"footway\": 10, \"service\": 3}",
        "nearest_covered_edge_m": 0.0,
        "nearest_edge_m": 0.0,
        "needs_model_qa": false,
        "postal": "560710",
        "route_index": 1,
        "segment_index": 1,
        "source": "user_drawn_qa_evidence_not_score_override"
      },
      "type": "Feature"
    },
    {
      "geometry": {
        "coordinates": [
          [
            103.8490254,
            1.3705821000000002
          ],
          [
            103.8495987,
            1.3695984999999997
          ]
        ],
        "type": "LineString"
      },
      "properties": {
        "classification": "covered_evidence_nearby_check_connectivity_or_snap",
        "created_at": "2026-07-30T09:07:35.321Z",
        "destination": "ANG MO KIO MRT STATION Exit D",
        "issue": "user_reported_better_walk_route",
        "label": "sheltered",
        "length_m": 126.1,
        "nearby_covered_edge_count": 14,
        "nearby_edge_count": 21,
        "nearby_sources": "{\"footway\": 13, \"steps\": 1}",
        "nearest_covered_edge_m": 0.0,
        "nearest_edge_m": 0.0,
        "needs_model_qa": false,
        "postal": "560710",
        "route_index": 1,
        "segment_index": 2,
        "source": "user_drawn_qa_evidence_not_score_override"
      },
      "type": "Feature"
    },
    {
      "geometry": {
        "coordinates": [
          [
            103.8380057,
            1.3673833000000002
          ],
          [
            103.8376176,
            1.3675330000000006
          ]
        ],
        "type": "LineString"
      },
      "properties": {
        "classification": "hdb_void_deck_evidence_nearby_check_connectivity",
        "created_at": "2026-07-30T09:09:52.566Z",
        "destination": "MAYFLOWER MRT STATION Exit 5",
        "issue": "user_reported_better_walk_route",
        "label": "void_deck",
        "length_m": 46.3,
        "nearby_covered_edge_count": 16,
        "nearby_edge_count": 32,
        "nearby_sources": "{\"INFERRED_HDB_PRECINCT_CONNECTOR\": 16}",
        "nearest_covered_edge_m": 4.8,
        "nearest_edge_m": 4.8,
        "needs_model_qa": false,
        "postal": "560225",
        "route_index": 2,
        "segment_index": 0,
        "source": "user_drawn_qa_evidence_not_score_override"
      },
      "type": "Feature"
    },
    {
      "geometry": {
        "coordinates": [
          [
            103.8376176,
            1.3675330000000006
          ],
          [
            103.8374929,
            1.3674471
          ]
        ],
        "type": "LineString"
      },
      "properties": {
        "classification": "covered_evidence_nearby_check_connectivity_or_snap",
        "created_at": "2026-07-30T09:09:52.566Z",
        "destination": "MAYFLOWER MRT STATION Exit 5",
        "issue": "user_reported_better_walk_route",
        "label": "sheltered",
        "length_m": 16.8,
        "nearby_covered_edge_count": 11,
        "nearby_edge_count": 31,
        "nearby_sources": "{\"INFERRED_HDB_PRECINCT_CONNECTOR\": 11}",
        "nearest_covered_edge_m": 0.0,
        "nearest_edge_m": 0.0,
        "needs_model_qa": false,
        "postal": "560225",
        "route_index": 2,
        "segment_index": 1,
        "source": "user_drawn_qa_evidence_not_score_override"
      },
      "type": "Feature"
    },
    {
      "geometry": {
        "coordinates": [
          [
            103.8374929,
            1.3674471
          ],
          [
            103.8373796,
            1.3674825
          ]
        ],
        "type": "LineString"
      },
      "properties": {
        "classification": "covered_evidence_nearby_check_connectivity_or_snap",
        "created_at": "2026-07-30T09:09:52.566Z",
        "destination": "MAYFLOWER MRT STATION Exit 5",
        "issue": "user_reported_better_walk_route",
        "label": "sheltered",
        "length_m": 13.2,
        "nearby_covered_edge_count": 13,
        "nearby_edge_count": 35,
        "nearby_sources": "{\"INFERRED_HDB_PRECINCT_CONNECTOR\": 12, \"footway\": 1}",
        "nearest_covered_edge_m": 5.5,
        "nearest_edge_m": 0.0,
        "needs_model_qa": false,
        "postal": "560225",
        "route_index": 2,
        "segment_index": 2,
        "source": "user_drawn_qa_evidence_not_score_override"
      },
      "type": "Feature"
    },
    {
      "geometry": {
        "coordinates": [
          [
            103.8373796,
            1.3674825
          ],
          [
            103.8371248,
            1.3674542000000003
          ]
        ],
        "type": "LineString"
      },
      "properties": {
        "classification": "covered_evidence_nearby_check_connectivity_or_snap",
        "created_at": "2026-07-30T09:09:52.566Z",
        "destination": "MAYFLOWER MRT STATION Exit 5",
        "issue": "user_reported_better_walk_route",
        "label": "sheltered",
        "length_m": 28.5,
        "nearby_covered_edge_count": 19,
        "nearby_edge_count": 47,
        "nearby_sources": "{\"INFERRED_HDB_PRECINCT_CONNECTOR\": 16, \"footway\": 2, \"steps\": 1}",
        "nearest_covered_edge_m": 0.0,
        "nearest_edge_m": 0.0,
        "needs_model_qa": false,
        "postal": "560225",
        "route_index": 2,
        "segment_index": 3,
        "source": "user_drawn_qa_evidence_not_score_override"
      },
      "type": "Feature"
    },
    {
      "geometry": {
        "coordinates": [
          [
            103.8371248,
            1.3674542000000003
          ],
          [
            103.8369691,
            1.3675391
          ]
        ],
        "type": "LineString"
      },
      "properties": {
        "classification": "hdb_void_deck_evidence_nearby_check_connectivity",
        "created_at": "2026-07-30T09:09:52.566Z",
        "destination": "MAYFLOWER MRT STATION Exit 5",
        "issue": "user_reported_better_walk_route",
        "label": "void_deck",
        "length_m": 19.7,
        "nearby_covered_edge_count": 16,
        "nearby_edge_count": 28,
        "nearby_sources": "{\"INFERRED_HDB_PRECINCT_CONNECTOR\": 13, \"footway\": 2, \"steps\": 1}",
        "nearest_covered_edge_m": 10.0,
        "nearest_edge_m": 10.0,
        "needs_model_qa": false,
        "postal": "560225",
        "route_index": 2,
        "segment_index": 4,
        "source": "user_drawn_qa_evidence_not_score_override"
      },
      "type": "Feature"
    },
    {
      "geometry": {
        "coordinates": [
          [
            103.8369691,
            1.3675391
          ],
          [
            103.83739380000002,
            1.3680910000000002
          ]
        ],
        "type": "LineString"
      },
      "properties": {
        "classification": "covered_evidence_nearby_check_connectivity_or_snap",
        "created_at": "2026-07-30T09:09:52.566Z",
        "destination": "MAYFLOWER MRT STATION Exit 5",
        "issue": "user_reported_better_walk_route",
        "label": "sheltered",
        "length_m": 77.2,
        "nearby_covered_edge_count": 21,
        "nearby_edge_count": 40,
        "nearby_sources": "{\"INFERRED_HDB_PRECINCT_CONNECTOR\": 17, \"INFERRED_HDB_VOID_DECK\": 1, \"INFERRED_HDB_VOID_DECK_ANCHOR\": 1, \"service\": 2}",
        "nearest_covered_edge_m": 0.0,
        "nearest_edge_m": 0.0,
        "needs_model_qa": false,
        "postal": "560225",
        "route_index": 2,
        "segment_index": 5,
        "source": "user_drawn_qa_evidence_not_score_override"
      },
      "type": "Feature"
    },
    {
      "geometry": {
        "coordinates": [
          [
            103.83739380000002,
            1.3680910000000002
          ],
          [
            103.836962,
            1.3686784000000003
          ]
        ],
        "type": "LineString"
      },
      "properties": {
        "classification": "hdb_void_deck_evidence_nearby_check_connectivity",
        "created_at": "2026-07-30T09:09:52.566Z",
        "destination": "MAYFLOWER MRT STATION Exit 5",
        "issue": "user_reported_better_walk_route",
        "label": "void_deck",
        "length_m": 80.8,
        "nearby_covered_edge_count": 11,
        "nearby_edge_count": 16,
        "nearby_sources": "{\"INFERRED_HDB_PRECINCT_CONNECTOR\": 9, \"INFERRED_HDB_VOID_DECK\": 1, \"INFERRED_HDB_VOID_DECK_ANCHOR\": 1}",
        "nearest_covered_edge_m": 0.0,
        "nearest_edge_m": 0.0,
        "needs_model_qa": false,
        "postal": "560225",
        "route_index": 2,
        "segment_index": 6,
        "source": "user_drawn_qa_evidence_not_score_override"
      },
      "type": "Feature"
    },
    {
      "geometry": {
        "coordinates": [
          [
            103.836962,
            1.3686784000000003
          ],
          [
            103.8367497,
            1.3686359
          ]
        ],
        "type": "LineString"
      },
      "properties": {
        "classification": "covered_evidence_nearby_check_connectivity_or_snap",
        "created_at": "2026-07-30T09:09:52.566Z",
        "destination": "MAYFLOWER MRT STATION Exit 5",
        "issue": "user_reported_better_walk_route",
        "label": "sheltered",
        "length_m": 24.1,
        "nearby_covered_edge_count": 13,
        "nearby_edge_count": 20,
        "nearby_sources": "{\"INFERRED_HDB_PRECINCT_CONNECTOR\": 8, \"INFERRED_HDB_VOID_DECK\": 1, \"footway\": 1, \"steps\": 3}",
        "nearest_covered_edge_m": 0.0,
        "nearest_edge_m": 0.0,
        "needs_model_qa": false,
        "postal": "560225",
        "route_index": 2,
        "segment_index": 7,
        "source": "user_drawn_qa_evidence_not_score_override"
      },
      "type": "Feature"
    },
    {
      "geometry": {
        "coordinates": [
          [
            103.8367497,
            1.3686359
          ],
          [
            103.836417,
            1.3688341000000002
          ]
        ],
        "type": "LineString"
      },
      "properties": {
        "classification": "bridge_underpass_evidence_nearby_check_endpoint_snap",
        "created_at": "2026-07-30T09:09:52.566Z",
        "destination": "MAYFLOWER MRT STATION Exit 5",
        "issue": "user_reported_better_walk_route",
        "label": "covered_bridge",
        "length_m": 43.0,
        "nearby_covered_edge_count": 17,
        "nearby_edge_count": 34,
        "nearby_sources": "{\"INFERRED_HDB_PRECINCT_CONNECTOR\": 7, \"INFERRED_HDB_VOID_DECK\": 1, \"footway\": 1, \"steps\": 8}",
        "nearest_covered_edge_m": 0.0,
        "nearest_edge_m": 0.0,
        "needs_model_qa": false,
        "postal": "560225",
        "route_index": 2,
        "segment_index": 8,
        "source": "user_drawn_qa_evidence_not_score_override"
      },
      "type": "Feature"
    },
    {
      "geometry": {
        "coordinates": [
          [
            103.836417,
            1.3688341000000002
          ],
          [
            103.8369762,
            1.3692445
          ]
        ],
        "type": "LineString"
      },
      "properties": {
        "classification": "covered_evidence_nearby_check_connectivity_or_snap",
        "created_at": "2026-07-30T09:09:52.566Z",
        "destination": "MAYFLOWER MRT STATION Exit 5",
        "issue": "user_reported_better_walk_route",
        "label": "sheltered",
        "length_m": 77.0,
        "nearby_covered_edge_count": 6,
        "nearby_edge_count": 28,
        "nearby_sources": "{\"footway\": 1, \"steps\": 5}",
        "nearest_covered_edge_m": 1.4,
        "nearest_edge_m": 0.0,
        "needs_model_qa": false,
        "postal": "560225",
        "route_index": 2,
        "segment_index": 9,
        "source": "user_drawn_qa_evidence_not_score_override"
      },
      "type": "Feature"
    },
    {
      "geometry": {
        "coordinates": [
          [
            103.8369762,
            1.3692445
          ],
          [
            103.8367709,
            1.3695205
          ]
        ],
        "type": "LineString"
      },
      "properties": {
        "classification": "routable_but_uncovered_or_missing_shelter_source",
        "created_at": "2026-07-30T09:09:52.566Z",
        "destination": "MAYFLOWER MRT STATION Exit 5",
        "issue": "user_reported_better_walk_route",
        "label": "sheltered",
        "length_m": 38.1,
        "nearby_covered_edge_count": 0,
        "nearby_edge_count": 10,
        "nearby_sources": "{\"footway\": 3, \"primary\": 5, \"service\": 2}",
        "nearest_covered_edge_m": NaN,
        "nearest_edge_m": 0.0,
        "needs_model_qa": true,
        "postal": "560225",
        "route_index": 2,
        "segment_index": 10,
        "source": "user_drawn_qa_evidence_not_score_override"
      },
      "type": "Feature"
    },
    {
      "geometry": {
        "coordinates": [
          [
            103.8367709,
            1.3695205
          ],
          [
            103.8363391,
            1.3703130000000001
          ]
        ],
        "type": "LineString"
      },
      "properties": {
        "classification": "missing_hdb_void_deck_connector",
        "created_at": "2026-07-30T09:09:52.566Z",
        "destination": "MAYFLOWER MRT STATION Exit 5",
        "issue": "user_reported_better_walk_route",
        "label": "void_deck",
        "length_m": 99.9,
        "nearby_covered_edge_count": 0,
        "nearby_edge_count": 12,
        "nearby_sources": "{\"footway\": 8, \"service\": 3, \"steps\": 1}",
        "nearest_covered_edge_m": NaN,
        "nearest_edge_m": 7.9,
        "needs_model_qa": true,
        "postal": "560225",
        "route_index": 2,
        "segment_index": 11,
        "source": "user_drawn_qa_evidence_not_score_override"
      },
      "type": "Feature"
    },
    {
      "geometry": {
        "coordinates": [
          [
            103.8363391,
            1.3703130000000001
          ],
          [
            103.83653020000001,
            1.3704475
          ]
        ],
        "type": "LineString"
      },
      "properties": {
        "classification": "covered_evidence_nearby_check_connectivity_or_snap",
        "created_at": "2026-07-30T09:09:52.566Z",
        "destination": "MAYFLOWER MRT STATION Exit 5",
        "issue": "user_reported_better_walk_route",
        "label": "sheltered",
        "length_m": 26.0,
        "nearby_covered_edge_count": 1,
        "nearby_edge_count": 14,
        "nearby_sources": "{\"footway\": 1}",
        "nearest_covered_edge_m": 12.5,
        "nearest_edge_m": 0.0,
        "needs_model_qa": false,
        "postal": "560225",
        "route_index": 2,
        "segment_index": 12,
        "source": "user_drawn_qa_evidence_not_score_override"
      },
      "type": "Feature"
    },
    {
      "geometry": {
        "coordinates": [
          [
            103.8465903,
            1.3696501
          ],
          [
            103.8464151,
            1.3690974
          ]
        ],
        "type": "LineString"
      },
      "properties": {
        "classification": "covered_evidence_nearby_check_connectivity_or_snap",
        "created_at": "2026-07-30T09:12:22.029Z",
        "destination": "ANG MO KIO MRT STATION Exit B",
        "issue": "user_reported_better_walk_route",
        "label": "sheltered",
        "length_m": 64.1,
        "nearby_covered_edge_count": 27,
        "nearby_edge_count": 43,
        "nearby_sources": "{\"INFERRED_HDB_PRECINCT_CONNECTOR\": 17, \"INFERRED_HDB_VOID_DECK\": 1, \"INFERRED_HDB_VOID_DECK_ANCHOR\": 2, \"UNREPRESENTED-surface\": 2, \"footway\": 4, \"steps\": 1}",
        "nearest_covered_edge_m": 0.3,
        "nearest_edge_m": 0.0,
        "needs_model_qa": false,
        "postal": "560700",
        "route_index": 3,
        "segment_index": 0,
        "source": "user_drawn_qa_evidence_not_score_override"
      },
      "type": "Feature"
    },
    {
      "geometry": {
        "coordinates": [
          [
            103.8464151,
            1.3690974
          ],
          [
            103.84682090000001,
            1.3690459000000001
          ]
        ],
        "type": "LineString"
      },
      "properties": {
        "classification": "covered_evidence_nearby_check_connectivity_or_snap",
        "created_at": "2026-07-30T09:12:22.029Z",
        "destination": "ANG MO KIO MRT STATION Exit B",
        "issue": "user_reported_better_walk_route",
        "label": "sheltered",
        "length_m": 45.5,
        "nearby_covered_edge_count": 15,
        "nearby_edge_count": 24,
        "nearby_sources": "{\"UNREPRESENTED-surface\": 4, \"footway\": 10, \"steps\": 1}",
        "nearest_covered_edge_m": 0.0,
        "nearest_edge_m": 0.0,
        "needs_model_qa": false,
        "postal": "560700",
        "route_index": 3,
        "segment_index": 1,
        "source": "user_drawn_qa_evidence_not_score_override"
      },
      "type": "Feature"
    },
    {
      "geometry": {
        "coordinates": [
          [
            103.84682090000001,
            1.3690459000000001
          ],
          [
            103.8469625,
            1.3690459000000001
          ]
        ],
        "type": "LineString"
      },
      "properties": {
        "classification": "covered_evidence_nearby_check_connectivity_or_snap",
        "created_at": "2026-07-30T09:12:22.029Z",
        "destination": "ANG MO KIO MRT STATION Exit B",
        "issue": "user_reported_better_walk_route",
        "label": "sheltered",
        "length_m": 15.8,
        "nearby_covered_edge_count": 9,
        "nearby_edge_count": 14,
        "nearby_sources": "{\"UNREPRESENTED-surface\": 2, \"footway\": 7}",
        "nearest_covered_edge_m": 0.7,
        "nearest_edge_m": 0.7,
        "needs_model_qa": false,
        "postal": "560700",
        "route_index": 3,
        "segment_index": 2,
        "source": "user_drawn_qa_evidence_not_score_override"
      },
      "type": "Feature"
    },
    {
      "geometry": {
        "coordinates": [
          [
            103.8469625,
            1.3690459000000001
          ],
          [
            103.847465,
            1.3690105
          ]
        ],
        "type": "LineString"
      },
      "properties": {
        "classification": "covered_evidence_nearby_check_connectivity_or_snap",
        "created_at": "2026-07-30T09:12:22.029Z",
        "destination": "ANG MO KIO MRT STATION Exit B",
        "issue": "user_reported_better_walk_route",
        "label": "sheltered",
        "length_m": 56.1,
        "nearby_covered_edge_count": 2,
        "nearby_edge_count": 9,
        "nearby_sources": "{\"footway\": 2}",
        "nearest_covered_edge_m": 3.7,
        "nearest_edge_m": 0.0,
        "needs_model_qa": false,
        "postal": "560700",
        "route_index": 3,
        "segment_index": 3,
        "source": "user_drawn_qa_evidence_not_score_override"
      },
      "type": "Feature"
    },
    {
      "geometry": {
        "coordinates": [
          [
            103.847465,
            1.3690105
          ],
          [
            103.8474721,
            1.3693501000000001
          ]
        ],
        "type": "LineString"
      },
      "properties": {
        "classification": "routable_but_uncovered_or_missing_shelter_source",
        "created_at": "2026-07-30T09:12:22.029Z",
        "destination": "ANG MO KIO MRT STATION Exit B",
        "issue": "user_reported_better_walk_route",
        "label": "sheltered",
        "length_m": 37.6,
        "nearby_covered_edge_count": 0,
        "nearby_edge_count": 9,
        "nearby_sources": "{\"footway\": 5, \"primary\": 2, \"steps\": 2}",
        "nearest_covered_edge_m": NaN,
        "nearest_edge_m": 2.6,
        "needs_model_qa": true,
        "postal": "560700",
        "route_index": 3,
        "segment_index": 4,
        "source": "user_drawn_qa_evidence_not_score_override"
      },
      "type": "Feature"
    },
    {
      "geometry": {
        "coordinates": [
          [
            103.8474721,
            1.3693501000000001
          ],
          [
            103.849178,
            1.3695129000000001
          ]
        ],
        "type": "LineString"
      },
      "properties": {
        "classification": "routable_but_uncovered_or_missing_shelter_source",
        "created_at": "2026-07-30T09:12:22.029Z",
        "destination": "ANG MO KIO MRT STATION Exit B",
        "issue": "user_reported_better_walk_route",
        "label": "sheltered",
        "length_m": 190.7,
        "nearby_covered_edge_count": 0,
        "nearby_edge_count": 10,
        "nearby_sources": "{\"footway\": 6, \"primary\": 1, \"service\": 1, \"steps\": 2}",
        "nearest_covered_edge_m": NaN,
        "nearest_edge_m": 7.6,
        "needs_model_qa": true,
        "postal": "560700",
        "route_index": 3,
        "segment_index": 5,
        "source": "user_drawn_qa_evidence_not_score_override"
      },
      "type": "Feature"
    },
    {
      "geometry": {
        "coordinates": [
          [
            103.849178,
            1.3695129000000001
          ],
          [
            103.8496735,
            1.3694351
          ]
        ],
        "type": "LineString"
      },
      "properties": {
        "classification": "covered_evidence_nearby_but_not_bridge_underpass",
        "created_at": "2026-07-30T09:12:22.029Z",
        "destination": "ANG MO KIO MRT STATION Exit B",
        "issue": "user_reported_better_walk_route",
        "label": "underpass",
        "length_m": 55.8,
        "nearby_covered_edge_count": 8,
        "nearby_edge_count": 13,
        "nearby_sources": "{\"footway\": 7, \"steps\": 1}",
        "nearest_covered_edge_m": 0.0,
        "nearest_edge_m": 0.0,
        "needs_model_qa": true,
        "postal": "560700",
        "route_index": 3,
        "segment_index": 6,
        "source": "user_drawn_qa_evidence_not_score_override"
      },
      "type": "Feature"
    },
    {
      "geometry": {
        "coordinates": [
          [
            103.8496735,
            1.3694351
          ],
          [
            103.8496806,
            1.3698101
          ]
        ],
        "type": "LineString"
      },
      "properties": {
        "classification": "covered_evidence_nearby_check_connectivity_or_snap",
        "created_at": "2026-07-30T09:12:22.029Z",
        "destination": "ANG MO KIO MRT STATION Exit B",
        "issue": "user_reported_better_walk_route",
        "label": "sheltered",
        "length_m": 41.5,
        "nearby_covered_edge_count": 8,
        "nearby_edge_count": 9,
        "nearby_sources": "{\"footway\": 7, \"steps\": 1}",
        "nearest_covered_edge_m": 1.9,
        "nearest_edge_m": 1.9,
        "needs_model_qa": false,
        "postal": "560700",
        "route_index": 3,
        "segment_index": 7,
        "source": "user_drawn_qa_evidence_not_score_override"
      },
      "type": "Feature"
    }
  ],
  "type": "FeatureCollection"
}