{
  "features": [
    {
      "geometry": {
        "coordinates": [
          [
            103.83702167267708,
            1.3669173355159498
          ],
          [
            103.83719470212453,
            1.3675103992661637
          ]
        ],
        "type": "LineString"
      },
      "properties": {
        "classification": "hdb_void_deck_component_gap",
        "destination": "MAYFLOWER MRT STATION Exit 5",
        "end_component_id": 0,
        "endpoint_component_gap_m": 68.3,
        "evidence_status": "qa_candidate_not_scoring",
        "label": "sheltered",
        "length_m": 68.3,
        "postal": "560234",
        "promotion_rule": "Promote only after source-backed review or a general tested network-build connector rule.",
        "segment_index": 1,
        "start_component_id": 286
      },
      "type": "Feature"
    },
    {
      "geometry": {
        "coordinates": [
          [
            103.8369606969173,
            1.367684399325243
          ],
          [
            103.83714522767019,
            1.3680060995063459
          ]
        ],
        "type": "LineString"
      },
      "properties": {
        "classification": "hdb_void_deck_component_gap",
        "destination": "MAYFLOWER MRT STATION Exit 5",
        "end_component_id": 850,
        "endpoint_component_gap_m": 41.1,
        "evidence_status": "qa_candidate_not_scoring",
        "label": "sheltered",
        "length_m": 41.1,
        "postal": "560234",
        "promotion_rule": "Promote only after source-backed review or a general tested network-build connector rule.",
        "segment_index": 3,
        "start_component_id": 0
      },
      "type": "Feature"
    },
    {
      "geometry": {
        "coordinates": [
          [
            103.83714522767019,
            1.3680060995063459
          ],
          [
            103.83749889582384,
            1.3680715025408114
          ]
        ],
        "type": "LineString"
      },
      "properties": {
        "classification": "hdb_void_deck_component_gap",
        "destination": "MAYFLOWER MRT STATION Exit 5",
        "end_component_id": 0,
        "endpoint_component_gap_m": 40.0,
        "evidence_status": "qa_candidate_not_scoring",
        "label": "sheltered",
        "length_m": 40.0,
        "postal": "560234",
        "promotion_rule": "Promote only after source-backed review or a general tested network-build connector rule.",
        "segment_index": 4,
        "start_component_id": 850
      },
      "type": "Feature"
    },
    {
      "geometry": {
        "coordinates": [
          [
            103.83688510169024,
            1.3686568985432719
          ],
          [
            103.83668821601444,
            1.368642682221828
          ]
        ],
        "type": "LineString"
      },
      "properties": {
        "classification": "hdb_void_deck_component_gap",
        "destination": "MAYFLOWER MRT STATION Exit 5",
        "end_component_id": 850,
        "endpoint_component_gap_m": 22.0,
        "evidence_status": "qa_candidate_not_scoring",
        "label": "sheltered",
        "length_m": 22.0,
        "postal": "560234",
        "promotion_rule": "Promote only after source-backed review or a general tested network-build connector rule.",
        "segment_index": 6,
        "start_component_id": 0
      },
      "type": "Feature"
    },
    {
      "geometry": {
        "coordinates": [
          [
            103.83642071194375,
            1.3687945253483664
          ],
          [
            103.83699409906981,
            1.36921590403461
          ]
        ],
        "type": "LineString"
      },
      "properties": {
        "classification": "bridge_underpass_component_gap",
        "destination": "MAYFLOWER MRT STATION Exit 5",
        "end_component_id": 0,
        "endpoint_component_gap_m": 79.0,
        "evidence_status": "qa_candidate_not_scoring",
        "label": "sheltered",
        "length_m": 79.0,
        "postal": "560234",
        "promotion_rule": "Promote only after source-backed review or a general tested network-build connector rule.",
        "segment_index": 8,
        "start_component_id": 850
      },
      "type": "Feature"
    },
    {
      "geometry": {
        "coordinates": [
          [
            103.83691010092744,
            1.36934650340926
          ],
          [
            103.83637210130074,
            1.3703766022086379
          ]
        ],
        "type": "LineString"
      },
      "properties": {
        "classification": "hdb_void_deck_component_gap",
        "destination": "MAYFLOWER MRT STATION Exit 5",
        "end_component_id": 1331,
        "endpoint_component_gap_m": 128.7,
        "evidence_status": "qa_candidate_not_scoring",
        "label": "void_deck",
        "length_m": 128.7,
        "postal": "560234",
        "promotion_rule": "Promote only after source-backed review or a general tested network-build connector rule.",
        "segment_index": 10,
        "start_component_id": 0
      },
      "type": "Feature"
    },
    {
      "geometry": {
        "coordinates": [
          [
            103.83749889582384,
            1.3680715025408114
          ],
          [
            103.83700936506972,
            1.368751928954857
          ]
        ],
        "type": "LineString"
      },
      "properties": {
        "classification": "hdb_void_deck_component_gap",
        "destination": "MAYFLOWER MRT STATION Exit 5",
        "end_component_id": 850,
        "endpoint_component_gap_m": 92.9,
        "evidence_status": "qa_candidate_not_scoring",
        "label": "void_deck",
        "length_m": 92.9,
        "postal": "560231",
        "promotion_rule": "Promote only after source-backed review or a general tested network-build connector rule.",
        "segment_index": 1,
        "start_component_id": 0
      },
      "type": "Feature"
    },
    {
      "geometry": {
        "coordinates": [
          [
            103.83642071194375,
            1.3687945253483664
          ],
          [
            103.8369380014739,
            1.3693078960556981
          ]
        ],
        "type": "LineString"
      },
      "properties": {
        "classification": "bridge_underpass_component_gap",
        "destination": "MAYFLOWER MRT STATION Exit 5",
        "end_component_id": 0,
        "endpoint_component_gap_m": 80.8,
        "evidence_status": "qa_candidate_not_scoring",
        "label": "sheltered",
        "length_m": 80.8,
        "postal": "560231",
        "promotion_rule": "Promote only after source-backed review or a general tested network-build connector rule.",
        "segment_index": 4,
        "start_component_id": 850
      },
      "type": "Feature"
    },
    {
      "geometry": {
        "coordinates": [
          [
            103.83691010092744,
            1.36934650340926
          ],
          [
            103.83637210130074,
            1.3703766022086379
          ]
        ],
        "type": "LineString"
      },
      "properties": {
        "classification": "hdb_void_deck_component_gap",
        "destination": "MAYFLOWER MRT STATION Exit 5",
        "end_component_id": 1331,
        "endpoint_component_gap_m": 128.7,
        "evidence_status": "qa_candidate_not_scoring",
        "label": "void_deck",
        "length_m": 128.7,
        "postal": "560231",
        "promotion_rule": "Promote only after source-backed review or a general tested network-build connector rule.",
        "segment_index": 6,
        "start_component_id": 0
      },
      "type": "Feature"
    },
    {
      "geometry": {
        "coordinates": [
          [
            103.83815151669216,
            1.3674082495775295
          ],
          [
            103.8375847172196,
            1.3675050809408495
          ]
        ],
        "type": "LineString"
      },
      "properties": {
        "classification": "hdb_void_deck_component_gap",
        "destination": "MAYFLOWER MRT STATION Exit 5",
        "end_component_id": 286,
        "endpoint_component_gap_m": 64.0,
        "evidence_status": "qa_candidate_not_scoring",
        "label": "void_deck",
        "length_m": 64.0,
        "postal": "560225",
        "promotion_rule": "Promote only after source-backed review or a general tested network-build connector rule.",
        "segment_index": 0,
        "start_component_id": 3366
      },
      "type": "Feature"
    },
    {
      "geometry": {
        "coordinates": [
          [
            103.83735414428378,
            1.3675030013027445
          ],
          [
            103.83719470212453,
            1.3675103992661637
          ]
        ],
        "type": "LineString"
      },
      "properties": {
        "classification": "hdb_void_deck_component_gap",
        "destination": "MAYFLOWER MRT STATION Exit 5",
        "end_component_id": 0,
        "endpoint_component_gap_m": 17.8,
        "evidence_status": "qa_candidate_not_scoring",
        "label": "sheltered",
        "length_m": 17.8,
        "postal": "560225",
        "promotion_rule": "Promote only after source-backed review or a general tested network-build connector rule.",
        "segment_index": 3,
        "start_component_id": 286
      },
      "type": "Feature"
    },
    {
      "geometry": {
        "coordinates": [
          [
            103.83688510169024,
            1.3686568985432719
          ],
          [
            103.83674177085527,
            1.3686948639656311
          ]
        ],
        "type": "LineString"
      },
      "properties": {
        "classification": "hdb_void_deck_component_gap",
        "destination": "MAYFLOWER MRT STATION Exit 5",
        "end_component_id": 850,
        "endpoint_component_gap_m": 16.5,
        "evidence_status": "qa_candidate_not_scoring",
        "label": "sheltered",
        "length_m": 16.5,
        "postal": "560225",
        "promotion_rule": "Promote only after source-backed review or a general tested network-build connector rule.",
        "segment_index": 7,
        "start_component_id": 0
      },
      "type": "Feature"
    },
    {
      "geometry": {
        "coordinates": [
          [
            103.83674177085527,
            1.3686948639656311
          ],
          [
            103.83644010313604,
            1.368835104149019
          ]
        ],
        "type": "LineString"
      },
      "properties": {
        "classification": "hdb_void_deck_component_gap",
        "destination": "MAYFLOWER MRT STATION Exit 5",
        "end_component_id": 0,
        "endpoint_component_gap_m": 37.0,
        "evidence_status": "qa_candidate_not_scoring",
        "label": "covered_bridge",
        "length_m": 37.0,
        "postal": "560225",
        "promotion_rule": "Promote only after source-backed review or a general tested network-build connector rule.",
        "segment_index": 8,
        "start_component_id": 850
      },
      "type": "Feature"
    },
    {
      "geometry": {
        "coordinates": [
          [
            103.83691010092744,
            1.36934650340926
          ],
          [
            103.83637210130074,
            1.3703766022086379
          ]
        ],
        "type": "LineString"
      },
      "properties": {
        "classification": "hdb_void_deck_component_gap",
        "destination": "MAYFLOWER MRT STATION Exit 5",
        "end_component_id": 1331,
        "endpoint_component_gap_m": 128.7,
        "evidence_status": "qa_candidate_not_scoring",
        "label": "void_deck",
        "length_m": 128.7,
        "postal": "560225",
        "promotion_rule": "Promote only after source-backed review or a general tested network-build connector rule.",
        "segment_index": 11,
        "start_component_id": 0
      },
      "type": "Feature"
    }
  ],
  "type": "FeatureCollection"
}