{
  "features": [
    {
      "geometry": {
        "coordinates": [
          [
            103.83767870000001,
            1.3683915999999998
          ],
          [
            103.83733910000001,
            1.3681117
          ]
        ],
        "type": "LineString"
      },
      "properties": {
        "classification": "covered_evidence_nearby_check_connectivity_or_snap",
        "created_at": "2026-07-30T09:06:09.270Z",
        "destination": "MAYFLOWER MRT STATION Exit 5",
        "issue": "user_reported_better_walk_route",
        "label": "sheltered",
        "length_m": 48.8,
        "nearby_covered_edge_count": 126,
        "nearby_edge_count": 319,
        "nearby_sources": "{\"INFERRED_HDB_PRECINCT_CONNECTOR\": 108, \"INFERRED_HDB_VOID_DECK\": 4, \"INFERRED_HDB_VOID_DECK_ANCHOR\": 5, \"footway\": 3, \"service\": 2, \"steps\": 4}",
        "nearest_covered_edge_m": 0.0,
        "nearest_edge_m": 0.0,
        "needs_model_qa": false,
        "postal": "560231",
        "route_index": 0,
        "segment_index": 0,
        "source": "user_drawn_qa_evidence_not_score_override"
      },
      "type": "Feature"
    },
    {
      "geometry": {
        "coordinates": [
          [
            103.83733910000001,
            1.3681117
          ],
          [
            103.8369516,
            1.3686986999999997
          ]
        ],
        "type": "LineString"
      },
      "properties": {
        "classification": "hdb_void_deck_evidence_nearby_check_connectivity",
        "created_at": "2026-07-30T09:06:09.270Z",
        "destination": "MAYFLOWER MRT STATION Exit 5",
        "issue": "user_reported_better_walk_route",
        "label": "void_deck",
        "length_m": 77.9,
        "nearby_covered_edge_count": 133,
        "nearby_edge_count": 344,
        "nearby_sources": "{\"INFERRED_HDB_PRECINCT_CONNECTOR\": 107, \"INFERRED_HDB_VOID_DECK\": 4, \"INFERRED_HDB_VOID_DECK_ANCHOR\": 5, \"UNREPRESENTED-surface\": 1, \"footway\": 5, \"service\": 2, \"steps\": 9}",
        "nearest_covered_edge_m": 0.0,
        "nearest_edge_m": 0.0,
        "needs_model_qa": false,
        "postal": "560231",
        "route_index": 0,
        "segment_index": 1,
        "source": "user_drawn_qa_evidence_not_score_override"
      },
      "type": "Feature"
    },
    {
      "geometry": {
        "coordinates": [
          [
            103.8369516,
            1.3686986999999997
          ],
          [
            103.8366933,
            1.3686283000000001
          ]
        ],
        "type": "LineString"
      },
      "properties": {
        "classification": "covered_evidence_nearby_check_connectivity_or_snap",
        "created_at": "2026-07-30T09:06:09.270Z",
        "destination": "MAYFLOWER MRT STATION Exit 5",
        "issue": "user_reported_better_walk_route",
        "label": "sheltered",
        "length_m": 29.8,
        "nearby_covered_edge_count": 87,
        "nearby_edge_count": 218,
        "nearby_sources": "{\"INFERRED_HDB_PRECINCT_CONNECTOR\": 60, \"INFERRED_HDB_VOID_DECK\": 3, \"INFERRED_HDB_VOID_DECK_ANCHOR\": 4, \"UNREPRESENTED-surface\": 3, \"footway\": 9, \"steps\": 8}",
        "nearest_covered_edge_m": 0.0,
        "nearest_edge_m": 0.0,
        "needs_model_qa": false,
        "postal": "560231",
        "route_index": 0,
        "segment_index": 2,
        "source": "user_drawn_qa_evidence_not_score_override"
      },
      "type": "Feature"
    },
    {
      "geometry": {
        "coordinates": [
          [
            103.8366933,
            1.3686283000000001
          ],
          [
            103.8363997,
            1.3688161
          ]
        ],
        "type": "LineString"
      },
      "properties": {
        "classification": "bridge_underpass_evidence_nearby_check_endpoint_snap",
        "created_at": "2026-07-30T09:06:09.270Z",
        "destination": "MAYFLOWER MRT STATION Exit 5",
        "issue": "user_reported_better_walk_route",
        "label": "covered_bridge",
        "length_m": 38.7,
        "nearby_covered_edge_count": 70,
        "nearby_edge_count": 169,
        "nearby_sources": "{\"INFERRED_HDB_PRECINCT_CONNECTOR\": 45, \"INFERRED_HDB_VOID_DECK\": 2, \"INFERRED_HDB_VOID_DECK_ANCHOR\": 3, \"UNREPRESENTED-surface\": 3, \"footway\": 9, \"steps\": 8}",
        "nearest_covered_edge_m": 0.0,
        "nearest_edge_m": 0.0,
        "needs_model_qa": false,
        "postal": "560231",
        "route_index": 0,
        "segment_index": 3,
        "source": "user_drawn_qa_evidence_not_score_override"
      },
      "type": "Feature"
    },
    {
      "geometry": {
        "coordinates": [
          [
            103.8363997,
            1.3688161
          ],
          [
            103.836977,
            1.3692851000000001
          ]
        ],
        "type": "LineString"
      },
      "properties": {
        "classification": "covered_evidence_nearby_check_connectivity_or_snap",
        "created_at": "2026-07-30T09:06:09.270Z",
        "destination": "MAYFLOWER MRT STATION Exit 5",
        "issue": "user_reported_better_walk_route",
        "label": "sheltered",
        "length_m": 82.6,
        "nearby_covered_edge_count": 90,
        "nearby_edge_count": 269,
        "nearby_sources": "{\"INFERRED_HDB_PRECINCT_CONNECTOR\": 60, \"INFERRED_HDB_VOID_DECK\": 6, \"INFERRED_HDB_VOID_DECK_ANCHOR\": 4, \"UNREPRESENTED-surface\": 3, \"footway\": 9, \"steps\": 8}",
        "nearest_covered_edge_m": 1.2,
        "nearest_edge_m": 0.0,
        "needs_model_qa": false,
        "postal": "560231",
        "route_index": 0,
        "segment_index": 4,
        "source": "user_drawn_qa_evidence_not_score_override"
      },
      "type": "Feature"
    },
    {
      "geometry": {
        "coordinates": [
          [
            103.836977,
            1.3692851000000001
          ],
          [
            103.8367687,
            1.3695134
          ]
        ],
        "type": "LineString"
      },
      "properties": {
        "classification": "covered_evidence_nearby_check_connectivity_or_snap",
        "created_at": "2026-07-30T09:06:09.270Z",
        "destination": "MAYFLOWER MRT STATION Exit 5",
        "issue": "user_reported_better_walk_route",
        "label": "sheltered",
        "length_m": 34.3,
        "nearby_covered_edge_count": 88,
        "nearby_edge_count": 259,
        "nearby_sources": "{\"INFERRED_HDB_PRECINCT_CONNECTOR\": 68, \"INFERRED_HDB_VOID_DECK\": 6, \"INFERRED_HDB_VOID_DECK_ANCHOR\": 5, \"footway\": 1, \"steps\": 8}",
        "nearest_covered_edge_m": 41.5,
        "nearest_edge_m": 0.0,
        "needs_model_qa": false,
        "postal": "560231",
        "route_index": 0,
        "segment_index": 5,
        "source": "user_drawn_qa_evidence_not_score_override"
      },
      "type": "Feature"
    },
    {
      "geometry": {
        "coordinates": [
          [
            103.8367687,
            1.3695134
          ],
          [
            103.8363228,
            1.3703059000000002
          ]
        ],
        "type": "LineString"
      },
      "properties": {
        "classification": "hdb_void_deck_evidence_nearby_check_connectivity",
        "created_at": "2026-07-30T09:06:09.270Z",
        "destination": "MAYFLOWER MRT STATION Exit 5",
        "issue": "user_reported_better_walk_route",
        "label": "void_deck",
        "length_m": 100.7,
        "nearby_covered_edge_count": 82,
        "nearby_edge_count": 249,
        "nearby_sources": "{\"INFERRED_HDB_PRECINCT_CONNECTOR\": 64, \"INFERRED_HDB_VOID_DECK\": 4, \"INFERRED_HDB_VOID_DECK_ANCHOR\": 4, \"footway\": 2, \"steps\": 8}",
        "nearest_covered_edge_m": 32.0,
        "nearest_edge_m": 9.6,
        "needs_model_qa": false,
        "postal": "560231",
        "route_index": 0,
        "segment_index": 6,
        "source": "user_drawn_qa_evidence_not_score_override"
      },
      "type": "Feature"
    },
    {
      "geometry": {
        "coordinates": [
          [
            103.8363228,
            1.3703059000000002
          ],
          [
            103.8365351,
            1.3704828000000002
          ]
        ],
        "type": "LineString"
      },
      "properties": {
        "classification": "covered_evidence_nearby_check_connectivity_or_snap",
        "created_at": "2026-07-30T09:06:09.270Z",
        "destination": "MAYFLOWER MRT STATION Exit 5",
        "issue": "user_reported_better_walk_route",
        "label": "sheltered",
        "length_m": 30.7,
        "nearby_covered_edge_count": 45,
        "nearby_edge_count": 131,
        "nearby_sources": "{\"INFERRED_HDB_PRECINCT_CONNECTOR\": 39, \"INFERRED_HDB_VOID_DECK\": 1, \"INFERRED_HDB_VOID_DECK_ANCHOR\": 4, \"footway\": 1}",
        "nearest_covered_edge_m": 9.6,
        "nearest_edge_m": 0.0,
        "needs_model_qa": false,
        "postal": "560231",
        "route_index": 0,
        "segment_index": 7,
        "source": "user_drawn_qa_evidence_not_score_override"
      },
      "type": "Feature"
    },
    {
      "geometry": {
        "coordinates": [
          [
            103.8483704,
            1.3712472000000002
          ],
          [
            103.8487706,
            1.3704830999999997
          ]
        ],
        "type": "LineString"
      },
      "properties": {
        "classification": "covered_evidence_nearby_check_connectivity_or_snap",
        "created_at": "2026-07-30T09:07:35.321Z",
        "destination": "ANG MO KIO MRT STATION Exit D",
        "issue": "user_reported_better_walk_route",
        "label": "sheltered",
        "length_m": 95.5,
        "nearby_covered_edge_count": 37,
        "nearby_edge_count": 125,
        "nearby_sources": "{\"INFERRED_HDB_PRECINCT_CONNECTOR\": 3, \"UNREPRESENTED-surface\": 5, \"footway\": 22, \"service\": 7}",
        "nearest_covered_edge_m": 0.1,
        "nearest_edge_m": 0.0,
        "needs_model_qa": false,
        "postal": "560710",
        "route_index": 1,
        "segment_index": 0,
        "source": "user_drawn_qa_evidence_not_score_override"
      },
      "type": "Feature"
    },
    {
      "geometry": {
        "coordinates": [
          [
            103.8487706,
            1.3704830999999997
          ],
          [
            103.8490254,
            1.3705821000000002
          ]
        ],
        "type": "LineString"
      },
      "properties": {
        "classification": "user_marked_exposed_no_shelter_expected",
        "created_at": "2026-07-30T09:07:35.321Z",
        "destination": "ANG MO KIO MRT STATION Exit D",
        "issue": "user_reported_better_walk_route",
        "label": "exposed",
        "length_m": 30.4,
        "nearby_covered_edge_count": 34,
        "nearby_edge_count": 98,
        "nearby_sources": "{\"INFERRED_HDB_PRECINCT_CONNECTOR\": 3, \"UNREPRESENTED-surface\": 5, \"footway\": 19, \"service\": 7}",
        "nearest_covered_edge_m": 0.0,
        "nearest_edge_m": 0.0,
        "needs_model_qa": false,
        "postal": "560710",
        "route_index": 1,
        "segment_index": 1,
        "source": "user_drawn_qa_evidence_not_score_override"
      },
      "type": "Feature"
    },
    {
      "geometry": {
        "coordinates": [
          [
            103.8490254,
            1.3705821000000002
          ],
          [
            103.8495987,
            1.3695984999999997
          ]
        ],
        "type": "LineString"
      },
      "properties": {
        "classification": "covered_evidence_nearby_check_connectivity_or_snap",
        "created_at": "2026-07-30T09:07:35.321Z",
        "destination": "ANG MO KIO MRT STATION Exit D",
        "issue": "user_reported_better_walk_route",
        "label": "sheltered",
        "length_m": 126.1,
        "nearby_covered_edge_count": 51,
        "nearby_edge_count": 161,
        "nearby_sources": "{\"OFFSET\": 1, \"UNREPRESENTED-surface\": 6, \"footway\": 36, \"service\": 7, \"steps\": 1}",
        "nearest_covered_edge_m": 0.0,
        "nearest_edge_m": 0.0,
        "needs_model_qa": false,
        "postal": "560710",
        "route_index": 1,
        "segment_index": 2,
        "source": "user_drawn_qa_evidence_not_score_override"
      },
      "type": "Feature"
    },
    {
      "geometry": {
        "coordinates": [
          [
            103.8380057,
            1.3673833000000002
          ],
          [
            103.8376176,
            1.3675330000000006
          ]
        ],
        "type": "LineString"
      },
      "properties": {
        "classification": "hdb_void_deck_evidence_nearby_check_connectivity",
        "created_at": "2026-07-30T09:09:52.566Z",
        "destination": "MAYFLOWER MRT STATION Exit 5",
        "issue": "user_reported_better_walk_route",
        "label": "void_deck",
        "length_m": 46.3,
        "nearby_covered_edge_count": 101,
        "nearby_edge_count": 266,
        "nearby_sources": "{\"INFERRED_HDB_PRECINCT_CONNECTOR\": 90, \"INFERRED_HDB_VOID_DECK\": 1, \"INFERRED_HDB_VOID_DECK_ANCHOR\": 3, \"footway\": 3, \"service\": 2, \"steps\": 2}",
        "nearest_covered_edge_m": 4.8,
        "nearest_edge_m": 4.8,
        "needs_model_qa": false,
        "postal": "560225",
        "route_index": 2,
        "segment_index": 0,
        "source": "user_drawn_qa_evidence_not_score_override"
      },
      "type": "Feature"
    },
    {
      "geometry": {
        "coordinates": [
          [
            103.8376176,
            1.3675330000000006
          ],
          [
            103.8374929,
            1.3674471
          ]
        ],
        "type": "LineString"
      },
      "properties": {
        "classification": "covered_evidence_nearby_check_connectivity_or_snap",
        "created_at": "2026-07-30T09:09:52.566Z",
        "destination": "MAYFLOWER MRT STATION Exit 5",
        "issue": "user_reported_better_walk_route",
        "label": "sheltered",
        "length_m": 16.8,
        "nearby_covered_edge_count": 103,
        "nearby_edge_count": 253,
        "nearby_sources": "{\"INFERRED_HDB_PRECINCT_CONNECTOR\": 88, \"INFERRED_HDB_VOID_DECK\": 2, \"INFERRED_HDB_VOID_DECK_ANCHOR\": 3, \"footway\": 6, \"service\": 2, \"steps\": 2}",
        "nearest_covered_edge_m": 0.0,
        "nearest_edge_m": 0.0,
        "needs_model_qa": false,
        "postal": "560225",
        "route_index": 2,
        "segment_index": 1,
        "source": "user_drawn_qa_evidence_not_score_override"
      },
      "type": "Feature"
    },
    {
      "geometry": {
        "coordinates": [
          [
            103.8374929,
            1.3674471
          ],
          [
            103.8373796,
            1.3674825
          ]
        ],
        "type": "LineString"
      },
      "properties": {
        "classification": "covered_evidence_nearby_check_connectivity_or_snap",
        "created_at": "2026-07-30T09:09:52.566Z",
        "destination": "MAYFLOWER MRT STATION Exit 5",
        "issue": "user_reported_better_walk_route",
        "label": "sheltered",
        "length_m": 13.2,
        "nearby_covered_edge_count": 101,
        "nearby_edge_count": 248,
        "nearby_sources": "{\"INFERRED_HDB_PRECINCT_CONNECTOR\": 86, \"INFERRED_HDB_VOID_DECK\": 2, \"INFERRED_HDB_VOID_DECK_ANCHOR\": 3, \"footway\": 6, \"service\": 2, \"steps\": 2}",
        "nearest_covered_edge_m": 5.5,
        "nearest_edge_m": 0.0,
        "needs_model_qa": false,
        "postal": "560225",
        "route_index": 2,
        "segment_index": 2,
        "source": "user_drawn_qa_evidence_not_score_override"
      },
      "type": "Feature"
    },
    {
      "geometry": {
        "coordinates": [
          [
            103.8373796,
            1.3674825
          ],
          [
            103.8371248,
            1.3674542000000003
          ]
        ],
        "type": "LineString"
      },
      "properties": {
        "classification": "covered_evidence_nearby_check_connectivity_or_snap",
        "created_at": "2026-07-30T09:09:52.566Z",
        "destination": "MAYFLOWER MRT STATION Exit 5",
        "issue": "user_reported_better_walk_route",
        "label": "sheltered",
        "length_m": 28.5,
        "nearby_covered_edge_count": 119,
        "nearby_edge_count": 282,
        "nearby_sources": "{\"INFERRED_HDB_PRECINCT_CONNECTOR\": 104, \"INFERRED_HDB_VOID_DECK\": 2, \"INFERRED_HDB_VOID_DECK_ANCHOR\": 3, \"footway\": 6, \"service\": 2, \"steps\": 2}",
        "nearest_covered_edge_m": 0.0,
        "nearest_edge_m": 0.0,
        "needs_model_qa": false,
        "postal": "560225",
        "route_index": 2,
        "segment_index": 3,
        "source": "user_drawn_qa_evidence_not_score_override"
      },
      "type": "Feature"
    },
    {
      "geometry": {
        "coordinates": [
          [
            103.8371248,
            1.3674542000000003
          ],
          [
            103.8369691,
            1.3675391
          ]
        ],
        "type": "LineString"
      },
      "properties": {
        "classification": "hdb_void_deck_evidence_nearby_check_connectivity",
        "created_at": "2026-07-30T09:09:52.566Z",
        "destination": "MAYFLOWER MRT STATION Exit 5",
        "issue": "user_reported_better_walk_route",
        "label": "void_deck",
        "length_m": 19.7,
        "nearby_covered_edge_count": 125,
        "nearby_edge_count": 292,
        "nearby_sources": "{\"INFERRED_HDB_PRECINCT_CONNECTOR\": 106, \"INFERRED_HDB_VOID_DECK\": 4, \"INFERRED_HDB_VOID_DECK_ANCHOR\": 5, \"footway\": 6, \"service\": 2, \"steps\": 2}",
        "nearest_covered_edge_m": 10.0,
        "nearest_edge_m": 10.0,
        "needs_model_qa": false,
        "postal": "560225",
        "route_index": 2,
        "segment_index": 4,
        "source": "user_drawn_qa_evidence_not_score_override"
      },
      "type": "Feature"
    },
    {
      "geometry": {
        "coordinates": [
          [
            103.8369691,
            1.3675391
          ],
          [
            103.83739380000002,
            1.3680910000000002
          ]
        ],
        "type": "LineString"
      },
      "properties": {
        "classification": "covered_evidence_nearby_check_connectivity_or_snap",
        "created_at": "2026-07-30T09:09:52.566Z",
        "destination": "MAYFLOWER MRT STATION Exit 5",
        "issue": "user_reported_better_walk_route",
        "label": "sheltered",
        "length_m": 77.2,
        "nearby_covered_edge_count": 164,
        "nearby_edge_count": 356,
        "nearby_sources": "{\"INFERRED_HDB_PRECINCT_CONNECTOR\": 138, \"INFERRED_HDB_VOID_DECK\": 5, \"INFERRED_HDB_VOID_DECK_ANCHOR\": 8, \"footway\": 7, \"service\": 2, \"steps\": 4}",
        "nearest_covered_edge_m": 0.0,
        "nearest_edge_m": 0.0,
        "needs_model_qa": false,
        "postal": "560225",
        "route_index": 2,
        "segment_index": 5,
        "source": "user_drawn_qa_evidence_not_score_override"
      },
      "type": "Feature"
    },
    {
      "geometry": {
        "coordinates": [
          [
            103.83739380000002,
            1.3680910000000002
          ],
          [
            103.836962,
            1.3686784000000003
          ]
        ],
        "type": "LineString"
      },
      "properties": {
        "classification": "hdb_void_deck_evidence_nearby_check_connectivity",
        "created_at": "2026-07-30T09:09:52.566Z",
        "destination": "MAYFLOWER MRT STATION Exit 5",
        "issue": "user_reported_better_walk_route",
        "label": "void_deck",
        "length_m": 80.8,
        "nearby_covered_edge_count": 134,
        "nearby_edge_count": 351,
        "nearby_sources": "{\"INFERRED_HDB_PRECINCT_CONNECTOR\": 108, \"INFERRED_HDB_VOID_DECK\": 4, \"INFERRED_HDB_VOID_DECK_ANCHOR\": 5, \"UNREPRESENTED-surface\": 1, \"footway\": 5, \"service\": 2, \"steps\": 9}",
        "nearest_covered_edge_m": 0.0,
        "nearest_edge_m": 0.0,
        "needs_model_qa": false,
        "postal": "560225",
        "route_index": 2,
        "segment_index": 6,
        "source": "user_drawn_qa_evidence_not_score_override"
      },
      "type": "Feature"
    },
    {
      "geometry": {
        "coordinates": [
          [
            103.836962,
            1.3686784000000003
          ],
          [
            103.8367497,
            1.3686359
          ]
        ],
        "type": "LineString"
      },
      "properties": {
        "classification": "covered_evidence_nearby_check_connectivity_or_snap",
        "created_at": "2026-07-30T09:09:52.566Z",
        "destination": "MAYFLOWER MRT STATION Exit 5",
        "issue": "user_reported_better_walk_route",
        "label": "sheltered",
        "length_m": 24.1,
        "nearby_covered_edge_count": 86,
        "nearby_edge_count": 216,
        "nearby_sources": "{\"INFERRED_HDB_PRECINCT_CONNECTOR\": 59, \"INFERRED_HDB_VOID_DECK\": 3, \"INFERRED_HDB_VOID_DECK_ANCHOR\": 4, \"UNREPRESENTED-surface\": 3, \"footway\": 9, \"steps\": 8}",
        "nearest_covered_edge_m": 0.0,
        "nearest_edge_m": 0.0,
        "needs_model_qa": false,
        "postal": "560225",
        "route_index": 2,
        "segment_index": 7,
        "source": "user_drawn_qa_evidence_not_score_override"
      },
      "type": "Feature"
    },
    {
      "geometry": {
        "coordinates": [
          [
            103.8367497,
            1.3686359
          ],
          [
            103.836417,
            1.3688341000000002
          ]
        ],
        "type": "LineString"
      },
      "properties": {
        "classification": "bridge_underpass_evidence_nearby_check_endpoint_snap",
        "created_at": "2026-07-30T09:09:52.566Z",
        "destination": "MAYFLOWER MRT STATION Exit 5",
        "issue": "user_reported_better_walk_route",
        "label": "covered_bridge",
        "length_m": 43.0,
        "nearby_covered_edge_count": 69,
        "nearby_edge_count": 170,
        "nearby_sources": "{\"INFERRED_HDB_PRECINCT_CONNECTOR\": 44, \"INFERRED_HDB_VOID_DECK\": 2, \"INFERRED_HDB_VOID_DECK_ANCHOR\": 3, \"UNREPRESENTED-surface\": 3, \"footway\": 9, \"steps\": 8}",
        "nearest_covered_edge_m": 0.0,
        "nearest_edge_m": 0.0,
        "needs_model_qa": false,
        "postal": "560225",
        "route_index": 2,
        "segment_index": 8,
        "source": "user_drawn_qa_evidence_not_score_override"
      },
      "type": "Feature"
    },
    {
      "geometry": {
        "coordinates": [
          [
            103.836417,
            1.3688341000000002
          ],
          [
            103.8369762,
            1.3692445
          ]
        ],
        "type": "LineString"
      },
      "properties": {
        "classification": "covered_evidence_nearby_check_connectivity_or_snap",
        "created_at": "2026-07-30T09:09:52.566Z",
        "destination": "MAYFLOWER MRT STATION Exit 5",
        "issue": "user_reported_better_walk_route",
        "label": "sheltered",
        "length_m": 77.0,
        "nearby_covered_edge_count": 87,
        "nearby_edge_count": 263,
        "nearby_sources": "{\"INFERRED_HDB_PRECINCT_CONNECTOR\": 57, \"INFERRED_HDB_VOID_DECK\": 6, \"INFERRED_HDB_VOID_DECK_ANCHOR\": 4, \"UNREPRESENTED-surface\": 3, \"footway\": 9, \"steps\": 8}",
        "nearest_covered_edge_m": 1.4,
        "nearest_edge_m": 0.0,
        "needs_model_qa": false,
        "postal": "560225",
        "route_index": 2,
        "segment_index": 9,
        "source": "user_drawn_qa_evidence_not_score_override"
      },
      "type": "Feature"
    },
    {
      "geometry": {
        "coordinates": [
          [
            103.8369762,
            1.3692445
          ],
          [
            103.8367709,
            1.3695205
          ]
        ],
        "type": "LineString"
      },
      "properties": {
        "classification": "covered_evidence_nearby_check_connectivity_or_snap",
        "created_at": "2026-07-30T09:09:52.566Z",
        "destination": "MAYFLOWER MRT STATION Exit 5",
        "issue": "user_reported_better_walk_route",
        "label": "sheltered",
        "length_m": 38.1,
        "nearby_covered_edge_count": 90,
        "nearby_edge_count": 263,
        "nearby_sources": "{\"INFERRED_HDB_PRECINCT_CONNECTOR\": 69, \"INFERRED_HDB_VOID_DECK\": 6, \"INFERRED_HDB_VOID_DECK_ANCHOR\": 5, \"footway\": 2, \"steps\": 8}",
        "nearest_covered_edge_m": 39.2,
        "nearest_edge_m": 0.0,
        "needs_model_qa": false,
        "postal": "560225",
        "route_index": 2,
        "segment_index": 10,
        "source": "user_drawn_qa_evidence_not_score_override"
      },
      "type": "Feature"
    },
    {
      "geometry": {
        "coordinates": [
          [
            103.8367709,
            1.3695205
          ],
          [
            103.8363391,
            1.3703130000000001
          ]
        ],
        "type": "LineString"
      },
      "properties": {
        "classification": "hdb_void_deck_evidence_nearby_check_connectivity",
        "created_at": "2026-07-30T09:09:52.566Z",
        "destination": "MAYFLOWER MRT STATION Exit 5",
        "issue": "user_reported_better_walk_route",
        "label": "void_deck",
        "length_m": 99.9,
        "nearby_covered_edge_count": 85,
        "nearby_edge_count": 254,
        "nearby_sources": "{\"INFERRED_HDB_PRECINCT_CONNECTOR\": 67, \"INFERRED_HDB_VOID_DECK\": 4, \"INFERRED_HDB_VOID_DECK_ANCHOR\": 4, \"footway\": 2, \"steps\": 8}",
        "nearest_covered_edge_m": 30.4,
        "nearest_edge_m": 7.9,
        "needs_model_qa": false,
        "postal": "560225",
        "route_index": 2,
        "segment_index": 11,
        "source": "user_drawn_qa_evidence_not_score_override"
      },
      "type": "Feature"
    },
    {
      "geometry": {
        "coordinates": [
          [
            103.8363391,
            1.3703130000000001
          ],
          [
            103.83653020000001,
            1.3704475
          ]
        ],
        "type": "LineString"
      },
      "properties": {
        "classification": "covered_evidence_nearby_check_connectivity_or_snap",
        "created_at": "2026-07-30T09:09:52.566Z",
        "destination": "MAYFLOWER MRT STATION Exit 5",
        "issue": "user_reported_better_walk_route",
        "label": "sheltered",
        "length_m": 26.0,
        "nearby_covered_edge_count": 41,
        "nearby_edge_count": 123,
        "nearby_sources": "{\"INFERRED_HDB_PRECINCT_CONNECTOR\": 35, \"INFERRED_HDB_VOID_DECK\": 1, \"INFERRED_HDB_VOID_DECK_ANCHOR\": 4, \"footway\": 1}",
        "nearest_covered_edge_m": 12.5,
        "nearest_edge_m": 0.0,
        "needs_model_qa": false,
        "postal": "560225",
        "route_index": 2,
        "segment_index": 12,
        "source": "user_drawn_qa_evidence_not_score_override"
      },
      "type": "Feature"
    },
    {
      "geometry": {
        "coordinates": [
          [
            103.8465903,
            1.3696501
          ],
          [
            103.8464151,
            1.3690974
          ]
        ],
        "type": "LineString"
      },
      "properties": {
        "classification": "covered_evidence_nearby_check_connectivity_or_snap",
        "created_at": "2026-07-30T09:12:22.029Z",
        "destination": "ANG MO KIO MRT STATION Exit B",
        "issue": "user_reported_better_walk_route",
        "label": "sheltered",
        "length_m": 64.1,
        "nearby_covered_edge_count": 113,
        "nearby_edge_count": 254,
        "nearby_sources": "{\"INFERRED_HDB_PRECINCT_CONNECTOR\": 76, \"INFERRED_HDB_VOID_DECK\": 4, \"INFERRED_HDB_VOID_DECK_ANCHOR\": 8, \"UNREPRESENTED-surface\": 4, \"footway\": 20, \"steps\": 1}",
        "nearest_covered_edge_m": 0.3,
        "nearest_edge_m": 0.0,
        "needs_model_qa": false,
        "postal": "560700",
        "route_index": 3,
        "segment_index": 0,
        "source": "user_drawn_qa_evidence_not_score_override"
      },
      "type": "Feature"
    },
    {
      "geometry": {
        "coordinates": [
          [
            103.8464151,
            1.3690974
          ],
          [
            103.84682090000001,
            1.3690459000000001
          ]
        ],
        "type": "LineString"
      },
      "properties": {
        "classification": "covered_evidence_nearby_check_connectivity_or_snap",
        "created_at": "2026-07-30T09:12:22.029Z",
        "destination": "ANG MO KIO MRT STATION Exit B",
        "issue": "user_reported_better_walk_route",
        "label": "sheltered",
        "length_m": 45.5,
        "nearby_covered_edge_count": 120,
        "nearby_edge_count": 242,
        "nearby_sources": "{\"INFERRED_HDB_PRECINCT_CONNECTOR\": 80, \"INFERRED_HDB_VOID_DECK\": 4, \"INFERRED_HDB_VOID_DECK_ANCHOR\": 8, \"UNREPRESENTED-surface\": 4, \"footway\": 23, \"steps\": 1}",
        "nearest_covered_edge_m": 0.0,
        "nearest_edge_m": 0.0,
        "needs_model_qa": false,
        "postal": "560700",
        "route_index": 3,
        "segment_index": 1,
        "source": "user_drawn_qa_evidence_not_score_override"
      },
      "type": "Feature"
    },
    {
      "geometry": {
        "coordinates": [
          [
            103.84682090000001,
            1.3690459000000001
          ],
          [
            103.8469625,
            1.3690459000000001
          ]
        ],
        "type": "LineString"
      },
      "properties": {
        "classification": "covered_evidence_nearby_check_connectivity_or_snap",
        "created_at": "2026-07-30T09:12:22.029Z",
        "destination": "ANG MO KIO MRT STATION Exit B",
        "issue": "user_reported_better_walk_route",
        "label": "sheltered",
        "length_m": 15.8,
        "nearby_covered_edge_count": 94,
        "nearby_edge_count": 174,
        "nearby_sources": "{\"INFERRED_HDB_PRECINCT_CONNECTOR\": 58, \"INFERRED_HDB_VOID_DECK\": 4, \"INFERRED_HDB_VOID_DECK_ANCHOR\": 6, \"UNREPRESENTED-surface\": 4, \"footway\": 21, \"steps\": 1}",
        "nearest_covered_edge_m": 0.7,
        "nearest_edge_m": 0.7,
        "needs_model_qa": false,
        "postal": "560700",
        "route_index": 3,
        "segment_index": 2,
        "source": "user_drawn_qa_evidence_not_score_override"
      },
      "type": "Feature"
    },
    {
      "geometry": {
        "coordinates": [
          [
            103.8469625,
            1.3690459000000001
          ],
          [
            103.847465,
            1.3690105
          ]
        ],
        "type": "LineString"
      },
      "properties": {
        "classification": "covered_evidence_nearby_check_connectivity_or_snap",
        "created_at": "2026-07-30T09:12:22.029Z",
        "destination": "ANG MO KIO MRT STATION Exit B",
        "issue": "user_reported_better_walk_route",
        "label": "sheltered",
        "length_m": 56.1,
        "nearby_covered_edge_count": 116,
        "nearby_edge_count": 221,
        "nearby_sources": "{\"INFERRED_HDB_PRECINCT_CONNECTOR\": 69, \"INFERRED_HDB_VOID_DECK\": 4, \"INFERRED_HDB_VOID_DECK_ANCHOR\": 7, \"UNREPRESENTED-surface\": 7, \"footway\": 19, \"service\": 8, \"steps\": 2}",
        "nearest_covered_edge_m": 3.7,
        "nearest_edge_m": 0.0,
        "needs_model_qa": false,
        "postal": "560700",
        "route_index": 3,
        "segment_index": 3,
        "source": "user_drawn_qa_evidence_not_score_override"
      },
      "type": "Feature"
    },
    {
      "geometry": {
        "coordinates": [
          [
            103.847465,
            1.3690105
          ],
          [
            103.8474721,
            1.3693501000000001
          ]
        ],
        "type": "LineString"
      },
      "properties": {
        "classification": "covered_evidence_nearby_check_connectivity_or_snap",
        "created_at": "2026-07-30T09:12:22.029Z",
        "destination": "ANG MO KIO MRT STATION Exit B",
        "issue": "user_reported_better_walk_route",
        "label": "sheltered",
        "length_m": 37.6,
        "nearby_covered_edge_count": 86,
        "nearby_edge_count": 175,
        "nearby_sources": "{\"INFERRED_HDB_PRECINCT_CONNECTOR\": 46, \"INFERRED_HDB_VOID_DECK\": 3, \"INFERRED_HDB_VOID_DECK_ANCHOR\": 4, \"UNREPRESENTED-surface\": 6, \"footway\": 18, \"service\": 8, \"steps\": 1}",
        "nearest_covered_edge_m": 50.5,
        "nearest_edge_m": 2.6,
        "needs_model_qa": false,
        "postal": "560700",
        "route_index": 3,
        "segment_index": 4,
        "source": "user_drawn_qa_evidence_not_score_override"
      },
      "type": "Feature"
    },
    {
      "geometry": {
        "coordinates": [
          [
            103.8474721,
            1.3693501000000001
          ],
          [
            103.849178,
            1.3695129000000001
          ]
        ],
        "type": "LineString"
      },
      "properties": {
        "classification": "covered_evidence_nearby_check_connectivity_or_snap",
        "created_at": "2026-07-30T09:12:22.029Z",
        "destination": "ANG MO KIO MRT STATION Exit B",
        "issue": "user_reported_better_walk_route",
        "label": "sheltered",
        "length_m": 190.7,
        "nearby_covered_edge_count": 99,
        "nearby_edge_count": 232,
        "nearby_sources": "{\"INFERRED_HDB_PRECINCT_CONNECTOR\": 36, \"INFERRED_HDB_VOID_DECK\": 1, \"INFERRED_HDB_VOID_DECK_ANCHOR\": 1, \"UNREPRESENTED-surface\": 8, \"footway\": 36, \"service\": 13, \"steps\": 4}",
        "nearest_covered_edge_m": 41.8,
        "nearest_edge_m": 7.6,
        "needs_model_qa": false,
        "postal": "560700",
        "route_index": 3,
        "segment_index": 5,
        "source": "user_drawn_qa_evidence_not_score_override"
      },
      "type": "Feature"
    },
    {
      "geometry": {
        "coordinates": [
          [
            103.849178,
            1.3695129000000001
          ],
          [
            103.8496735,
            1.3694351
          ]
        ],
        "type": "LineString"
      },
      "properties": {
        "classification": "covered_evidence_nearby_but_not_bridge_underpass",
        "created_at": "2026-07-30T09:12:22.029Z",
        "destination": "ANG MO KIO MRT STATION Exit B",
        "issue": "user_reported_better_walk_route",
        "label": "underpass",
        "length_m": 55.8,
        "nearby_covered_edge_count": 30,
        "nearby_edge_count": 112,
        "nearby_sources": "{\"INFERRED_HDB_PRECINCT_CONNECTOR\": 2, \"OFFSET\": 1, \"UNREPRESENTED-surface\": 2, \"footway\": 19, \"service\": 5, \"steps\": 1}",
        "nearest_covered_edge_m": 0.0,
        "nearest_edge_m": 0.0,
        "needs_model_qa": true,
        "postal": "560700",
        "route_index": 3,
        "segment_index": 6,
        "source": "user_drawn_qa_evidence_not_score_override"
      },
      "type": "Feature"
    },
    {
      "geometry": {
        "coordinates": [
          [
            103.8496735,
            1.3694351
          ],
          [
            103.8496806,
            1.3698101
          ]
        ],
        "type": "LineString"
      },
      "properties": {
        "classification": "covered_evidence_nearby_check_connectivity_or_snap",
        "created_at": "2026-07-30T09:12:22.029Z",
        "destination": "ANG MO KIO MRT STATION Exit B",
        "issue": "user_reported_better_walk_route",
        "label": "sheltered",
        "length_m": 41.5,
        "nearby_covered_edge_count": 26,
        "nearby_edge_count": 102,
        "nearby_sources": "{\"INFERRED_HDB_PRECINCT_CONNECTOR\": 2, \"OFFSET\": 1, \"UNREPRESENTED-surface\": 1, \"footway\": 21, \"steps\": 1}",
        "nearest_covered_edge_m": 1.9,
        "nearest_edge_m": 1.9,
        "needs_model_qa": false,
        "postal": "560700",
        "route_index": 3,
        "segment_index": 7,
        "source": "user_drawn_qa_evidence_not_score_override"
      },
      "type": "Feature"
    }
  ],
  "type": "FeatureCollection"
}