{
  "features": [
    {
      "geometry": {
        "coordinates": [
          [
            103.83767870000001,
            1.3683915999999998
          ],
          [
            103.83733910000001,
            1.3681117
          ]
        ],
        "type": "LineString"
      },
      "properties": {
        "classification": "covered_evidence_nearby_check_connectivity_or_snap",
        "created_at": "2026-07-30T09:06:09.270Z",
        "destination": "MAYFLOWER MRT STATION Exit 5",
        "end_component_id": 0,
        "end_component_node_count": 637363,
        "end_snap_node_m": 18.3,
        "end_snap_x": 28465.219,
        "end_snap_y": 38899.912,
        "endpoint_component_gap_m": null,
        "issue": "user_reported_better_walk_route",
        "label": "sheltered",
        "length_m": 48.8,
        "nearby_covered_edge_count": 143,
        "nearby_edge_count": 247,
        "nearby_sources": "{\"AUDITED_SHELTER_CORRECTION\": 4, \"INFERRED_HDB_PRECINCT_CONNECTOR\": 91, \"INFERRED_HDB_VOID_DECK\": 4, \"INFERRED_HDB_VOID_DECK_ANCHOR\": 5, \"inferred_hdb_point_footway\": 8, \"inferred_hdb_precinct_footway\": 28, \"osm_building_roof\": 1, \"osm_native_covered\": 2}",
        "nearest_covered_edge_m": 0.0,
        "nearest_edge_m": 0.0,
        "nearest_main_component_covered_edge_m": 12.6,
        "nearest_main_component_covered_sources": "{\"inferred_hdb_precinct_footway\": 1}",
        "nearest_main_component_edge_m": 12.6,
        "nearest_main_component_sources": "{\"inferred_hdb_precinct_footway\": 1}",
        "needs_model_qa": false,
        "postal": "560231",
        "route_index": 0,
        "same_component": true,
        "segment_index": 0,
        "source": "user_drawn_qa_evidence_not_score_override",
        "start_component_id": 0,
        "start_component_node_count": 637363,
        "start_snap_node_m": 8.8,
        "start_snap_x": 28492.685,
        "start_snap_y": 38940.05
      },
      "type": "Feature"
    },
    {
      "geometry": {
        "coordinates": [
          [
            103.83733910000001,
            1.3681117
          ],
          [
            103.8369516,
            1.3686986999999997
          ]
        ],
        "type": "LineString"
      },
      "properties": {
        "classification": "hdb_void_deck_component_gap",
        "created_at": "2026-07-30T09:06:09.270Z",
        "destination": "MAYFLOWER MRT STATION Exit 5",
        "end_component_id": 1078,
        "end_component_node_count": 20,
        "end_snap_node_m": 8.7,
        "end_snap_x": 28410.74,
        "end_snap_y": 38975.15,
        "endpoint_component_gap_m": 92.9,
        "issue": "user_reported_better_walk_route",
        "label": "void_deck",
        "length_m": 77.9,
        "nearby_covered_edge_count": 140,
        "nearby_edge_count": 266,
        "nearby_sources": "{\"AUDITED_SHELTER_CORRECTION\": 5, \"INFERRED_HDB_PRECINCT_CONNECTOR\": 78, \"INFERRED_HDB_VOID_DECK\": 2, \"INFERRED_HDB_VOID_DECK_ANCHOR\": 3, \"UNREPRESENTED-surface\": 1, \"covered_linkway\": 2, \"inferred_hdb_point_footway\": 8, \"inferred_hdb_precinct_footway\": 26, \"osm_building_roof\": 1, \"osm_explicit_shelter\": 3, \"osm_native_covered\": 11}",
        "nearest_covered_edge_m": 0.0,
        "nearest_edge_m": 0.0,
        "nearest_main_component_covered_edge_m": 10.2,
        "nearest_main_component_covered_sources": "{\"inferred_hdb_precinct_footway\": 1}",
        "nearest_main_component_edge_m": 10.2,
        "nearest_main_component_sources": "{\"inferred_hdb_precinct_footway\": 1}",
        "needs_model_qa": true,
        "postal": "560231",
        "route_index": 0,
        "same_component": false,
        "segment_index": 1,
        "source": "user_drawn_qa_evidence_not_score_override",
        "start_component_id": 0,
        "start_component_node_count": 637363,
        "start_snap_node_m": 18.3,
        "start_snap_x": 28465.219,
        "start_snap_y": 38899.912
      },
      "type": "Feature"
    },
    {
      "geometry": {
        "coordinates": [
          [
            103.8369516,
            1.3686986999999997
          ],
          [
            103.8366933,
            1.3686283000000001
          ]
        ],
        "type": "LineString"
      },
      "properties": {
        "classification": "covered_evidence_nearby_check_connectivity_or_snap",
        "created_at": "2026-07-30T09:06:09.270Z",
        "destination": "MAYFLOWER MRT STATION Exit 5",
        "end_component_id": 1078,
        "end_component_node_count": 20,
        "end_snap_node_m": 1.7,
        "end_snap_x": 28375.0,
        "end_snap_y": 38963.07,
        "endpoint_component_gap_m": null,
        "issue": "user_reported_better_walk_route",
        "label": "sheltered",
        "length_m": 29.8,
        "nearby_covered_edge_count": 73,
        "nearby_edge_count": 138,
        "nearby_sources": "{\"AUDITED_SHELTER_CORRECTION\": 4, \"INFERRED_HDB_PRECINCT_CONNECTOR\": 29, \"INFERRED_HDB_VOID_DECK\": 2, \"INFERRED_HDB_VOID_DECK_ANCHOR\": 3, \"UNREPRESENTED-surface\": 3, \"covered_linkway\": 6, \"inferred_hdb_point_footway\": 1, \"inferred_hdb_precinct_footway\": 12, \"osm_explicit_shelter\": 3, \"osm_native_covered\": 9, \"overhead_bridge_underpass\": 1}",
        "nearest_covered_edge_m": 0.0,
        "nearest_edge_m": 0.0,
        "nearest_main_component_covered_edge_m": 5.9,
        "nearest_main_component_covered_sources": "{\"inferred_hdb_precinct_footway\": 1}",
        "nearest_main_component_edge_m": 5.9,
        "nearest_main_component_sources": "{\"inferred_hdb_precinct_footway\": 1}",
        "needs_model_qa": false,
        "postal": "560231",
        "route_index": 0,
        "same_component": true,
        "segment_index": 2,
        "source": "user_drawn_qa_evidence_not_score_override",
        "start_component_id": 1078,
        "start_component_node_count": 20,
        "start_snap_node_m": 8.7,
        "start_snap_x": 28410.74,
        "start_snap_y": 38975.15
      },
      "type": "Feature"
    },
    {
      "geometry": {
        "coordinates": [
          [
            103.8366933,
            1.3686283000000001
          ],
          [
            103.8363997,
            1.3688161
          ]
        ],
        "type": "LineString"
      },
      "properties": {
        "classification": "hdb_void_deck_component_gap",
        "created_at": "2026-07-30T09:06:09.270Z",
        "destination": "MAYFLOWER MRT STATION Exit 5",
        "end_component_id": 0,
        "end_component_node_count": 637363,
        "end_snap_node_m": 3.3,
        "end_snap_x": 28345.229,
        "end_snap_y": 38979.857,
        "endpoint_component_gap_m": 34.2,
        "issue": "user_reported_better_walk_route",
        "label": "covered_bridge",
        "length_m": 38.7,
        "nearby_covered_edge_count": 61,
        "nearby_edge_count": 119,
        "nearby_sources": "{\"AUDITED_SHELTER_CORRECTION\": 4, \"INFERRED_HDB_PRECINCT_CONNECTOR\": 23, \"INFERRED_HDB_VOID_DECK\": 2, \"INFERRED_HDB_VOID_DECK_ANCHOR\": 1, \"UNREPRESENTED-surface\": 3, \"covered_linkway\": 8, \"inferred_hdb_precinct_footway\": 7, \"osm_explicit_shelter\": 3, \"osm_native_covered\": 9, \"overhead_bridge_underpass\": 1}",
        "nearest_covered_edge_m": 0.0,
        "nearest_edge_m": 0.0,
        "nearest_main_component_covered_edge_m": 2.7,
        "nearest_main_component_covered_sources": "{\"osm_native_covered\": 1}",
        "nearest_main_component_edge_m": 2.7,
        "nearest_main_component_sources": "{\"osm_native_covered\": 1}",
        "needs_model_qa": true,
        "postal": "560231",
        "route_index": 0,
        "same_component": false,
        "segment_index": 3,
        "source": "user_drawn_qa_evidence_not_score_override",
        "start_component_id": 1078,
        "start_component_node_count": 20,
        "start_snap_node_m": 1.7,
        "start_snap_x": 28375.0,
        "start_snap_y": 38963.07
      },
      "type": "Feature"
    },
    {
      "geometry": {
        "coordinates": [
          [
            103.8363997,
            1.3688161
          ],
          [
            103.836977,
            1.3692851000000001
          ]
        ],
        "type": "LineString"
      },
      "properties": {
        "classification": "covered_evidence_nearby_check_connectivity_or_snap",
        "created_at": "2026-07-30T09:06:09.270Z",
        "destination": "MAYFLOWER MRT STATION Exit 5",
        "end_component_id": 0,
        "end_component_node_count": 637363,
        "end_snap_node_m": 5.0,
        "end_snap_x": 28402.798,
        "end_snap_y": 39036.626,
        "endpoint_component_gap_m": null,
        "issue": "user_reported_better_walk_route",
        "label": "sheltered",
        "length_m": 82.6,
        "nearby_covered_edge_count": 134,
        "nearby_edge_count": 208,
        "nearby_sources": "{\"AUDITED_SHELTER_CORRECTION\": 4, \"INFERRED_HDB_PRECINCT_CONNECTOR\": 47, \"INFERRED_HDB_VOID_DECK\": 5, \"INFERRED_HDB_VOID_DECK_ANCHOR\": 2, \"UNREPRESENTED-surface\": 3, \"covered_linkway\": 8, \"inferred_hdb_point_footway\": 18, \"inferred_hdb_precinct_footway\": 35, \"osm_explicit_shelter\": 3, \"osm_native_covered\": 9}",
        "nearest_covered_edge_m": 1.2,
        "nearest_edge_m": 0.0,
        "nearest_main_component_covered_edge_m": 33.2,
        "nearest_main_component_covered_sources": "{\"osm_explicit_shelter\": 1}",
        "nearest_main_component_edge_m": 2.0,
        "nearest_main_component_sources": "{\"footway\": 1}",
        "needs_model_qa": false,
        "postal": "560231",
        "route_index": 0,
        "same_component": true,
        "segment_index": 4,
        "source": "user_drawn_qa_evidence_not_score_override",
        "start_component_id": 0,
        "start_component_node_count": 637363,
        "start_snap_node_m": 3.3,
        "start_snap_x": 28345.229,
        "start_snap_y": 38979.857
      },
      "type": "Feature"
    },
    {
      "geometry": {
        "coordinates": [
          [
            103.836977,
            1.3692851000000001
          ],
          [
            103.8367687,
            1.3695134
          ]
        ],
        "type": "LineString"
      },
      "properties": {
        "classification": "covered_evidence_nearby_check_connectivity_or_snap",
        "created_at": "2026-07-30T09:06:09.270Z",
        "destination": "MAYFLOWER MRT STATION Exit 5",
        "end_component_id": 0,
        "end_component_node_count": 637363,
        "end_snap_node_m": 24.3,
        "end_snap_x": 28399.693,
        "end_snap_y": 39040.895,
        "endpoint_component_gap_m": null,
        "issue": "user_reported_better_walk_route",
        "label": "sheltered",
        "length_m": 34.3,
        "nearby_covered_edge_count": 121,
        "nearby_edge_count": 172,
        "nearby_sources": "{\"AUDITED_SHELTER_CORRECTION\": 4, \"INFERRED_HDB_PRECINCT_CONNECTOR\": 45, \"INFERRED_HDB_VOID_DECK\": 5, \"INFERRED_HDB_VOID_DECK_ANCHOR\": 2, \"inferred_hdb_point_footway\": 18, \"inferred_hdb_precinct_footway\": 41, \"osm_explicit_shelter\": 1, \"osm_native_covered\": 5}",
        "nearest_covered_edge_m": 41.5,
        "nearest_edge_m": 0.0,
        "nearest_main_component_covered_edge_m": 58.4,
        "nearest_main_component_covered_sources": "{\"inferred_hdb_precinct_footway\": 1}",
        "nearest_main_component_edge_m": 7.2,
        "nearest_main_component_sources": "{\"service\": 1}",
        "needs_model_qa": false,
        "postal": "560231",
        "route_index": 0,
        "same_component": true,
        "segment_index": 5,
        "source": "user_drawn_qa_evidence_not_score_override",
        "start_component_id": 0,
        "start_component_node_count": 637363,
        "start_snap_node_m": 5.0,
        "start_snap_x": 28402.798,
        "start_snap_y": 39036.626
      },
      "type": "Feature"
    },
    {
      "geometry": {
        "coordinates": [
          [
            103.8367687,
            1.3695134
          ],
          [
            103.8363228,
            1.3703059000000002
          ]
        ],
        "type": "LineString"
      },
      "properties": {
        "classification": "hdb_void_deck_component_gap",
        "created_at": "2026-07-30T09:06:09.270Z",
        "destination": "MAYFLOWER MRT STATION Exit 5",
        "end_component_id": 2099,
        "end_component_node_count": 11,
        "end_snap_node_m": 9.6,
        "end_snap_x": 28339.82,
        "end_snap_y": 39154.798,
        "endpoint_component_gap_m": 128.7,
        "issue": "user_reported_better_walk_route",
        "label": "void_deck",
        "length_m": 100.7,
        "nearby_covered_edge_count": 61,
        "nearby_edge_count": 120,
        "nearby_sources": "{\"INFERRED_HDB_PRECINCT_CONNECTOR\": 27, \"INFERRED_HDB_VOID_DECK\": 2, \"INFERRED_HDB_VOID_DECK_ANCHOR\": 2, \"inferred_hdb_point_footway\": 14, \"inferred_hdb_precinct_footway\": 16}",
        "nearest_covered_edge_m": 9.6,
        "nearest_edge_m": 9.6,
        "nearest_main_component_covered_edge_m": 75.0,
        "nearest_main_component_covered_sources": "{\"inferred_hdb_precinct_footway\": 1}",
        "nearest_main_component_edge_m": 33.2,
        "nearest_main_component_sources": "{\"secondary\": 1}",
        "needs_model_qa": true,
        "postal": "560231",
        "route_index": 0,
        "same_component": false,
        "segment_index": 6,
        "source": "user_drawn_qa_evidence_not_score_override",
        "start_component_id": 0,
        "start_component_node_count": 637363,
        "start_snap_node_m": 24.3,
        "start_snap_x": 28399.693,
        "start_snap_y": 39040.895
      },
      "type": "Feature"
    },
    {
      "geometry": {
        "coordinates": [
          [
            103.8363228,
            1.3703059000000002
          ],
          [
            103.8365351,
            1.3704828000000002
          ]
        ],
        "type": "LineString"
      },
      "properties": {
        "classification": "covered_evidence_nearby_check_connectivity_or_snap",
        "created_at": "2026-07-30T09:06:09.270Z",
        "destination": "MAYFLOWER MRT STATION Exit 5",
        "end_component_id": 2099,
        "end_component_node_count": 11,
        "end_snap_node_m": 7.4,
        "end_snap_x": 28355.767,
        "end_snap_y": 39159.453,
        "endpoint_component_gap_m": null,
        "issue": "user_reported_better_walk_route",
        "label": "sheltered",
        "length_m": 30.7,
        "nearby_covered_edge_count": 33,
        "nearby_edge_count": 78,
        "nearby_sources": "{\"INFERRED_HDB_PRECINCT_CONNECTOR\": 12, \"INFERRED_HDB_VOID_DECK_ANCHOR\": 3, \"inferred_hdb_point_footway\": 13, \"inferred_hdb_precinct_footway\": 5}",
        "nearest_covered_edge_m": 0.0,
        "nearest_edge_m": 0.0,
        "nearest_main_component_covered_edge_m": 79.0,
        "nearest_main_component_covered_sources": "{\"inferred_hdb_point_footway\": 1}",
        "nearest_main_component_edge_m": 24.9,
        "nearest_main_component_sources": "{\"secondary\": 1}",
        "needs_model_qa": false,
        "postal": "560231",
        "route_index": 0,
        "same_component": true,
        "segment_index": 7,
        "source": "user_drawn_qa_evidence_not_score_override",
        "start_component_id": 2099,
        "start_component_node_count": 11,
        "start_snap_node_m": 9.6,
        "start_snap_x": 28339.82,
        "start_snap_y": 39154.798
      },
      "type": "Feature"
    },
    {
      "geometry": {
        "coordinates": [
          [
            103.8483704,
            1.3712472000000002
          ],
          [
            103.8487706,
            1.3704830999999997
          ]
        ],
        "type": "LineString"
      },
      "properties": {
        "classification": "covered_evidence_nearby_check_connectivity_or_snap",
        "created_at": "2026-07-30T09:07:35.321Z",
        "destination": "ANG MO KIO MRT STATION Exit D",
        "end_component_id": 0,
        "end_component_node_count": 637363,
        "end_snap_node_m": 1.5,
        "end_snap_x": 29718.821,
        "end_snap_y": 39165.263,
        "endpoint_component_gap_m": null,
        "issue": "user_reported_better_walk_route",
        "label": "sheltered",
        "length_m": 95.5,
        "nearby_covered_edge_count": 44,
        "nearby_edge_count": 108,
        "nearby_sources": "{\"INFERRED_HDB_PRECINCT_CONNECTOR\": 3, \"UNREPRESENTED-surface\": 5, \"covered_linkway\": 13, \"inferred_hdb_point_footway\": 4, \"inferred_hdb_precinct_footway\": 1, \"osm_explicit_shelter\": 2, \"osm_native_covered\": 15, \"overhead_bridge_underpass\": 1}",
        "nearest_covered_edge_m": 0.1,
        "nearest_edge_m": 0.0,
        "nearest_main_component_covered_edge_m": 14.9,
        "nearest_main_component_covered_sources": "{\"UNREPRESENTED-surface\": 1}",
        "nearest_main_component_edge_m": 0.8,
        "nearest_main_component_sources": "{\"footway\": 1}",
        "needs_model_qa": false,
        "postal": "560710",
        "route_index": 1,
        "same_component": true,
        "segment_index": 0,
        "source": "user_drawn_qa_evidence_not_score_override",
        "start_component_id": 0,
        "start_component_node_count": 637363,
        "start_snap_node_m": 0.9,
        "start_snap_x": 29675.32,
        "start_snap_y": 39250.23
      },
      "type": "Feature"
    },
    {
      "geometry": {
        "coordinates": [
          [
            103.8487706,
            1.3704830999999997
          ],
          [
            103.8490254,
            1.3705821000000002
          ]
        ],
        "type": "LineString"
      },
      "properties": {
        "classification": "user_marked_exposed_no_shelter_expected",
        "created_at": "2026-07-30T09:07:35.321Z",
        "destination": "ANG MO KIO MRT STATION Exit D",
        "end_component_id": 0,
        "end_component_node_count": 637363,
        "end_snap_node_m": 1.8,
        "end_snap_x": 29746.176,
        "end_snap_y": 39177.372,
        "endpoint_component_gap_m": null,
        "issue": "user_reported_better_walk_route",
        "label": "exposed",
        "length_m": 30.4,
        "nearby_covered_edge_count": 34,
        "nearby_edge_count": 84,
        "nearby_sources": "{\"UNREPRESENTED-surface\": 5, \"covered_linkway\": 13, \"osm_explicit_shelter\": 2, \"osm_native_covered\": 13, \"overhead_bridge_underpass\": 1}",
        "nearest_covered_edge_m": 0.0,
        "nearest_edge_m": 0.0,
        "nearest_main_component_covered_edge_m": 13.4,
        "nearest_main_component_covered_sources": "{\"osm_native_covered\": 1}",
        "nearest_main_component_edge_m": 0.0,
        "nearest_main_component_sources": "{\"footway\": 1}",
        "needs_model_qa": false,
        "postal": "560710",
        "route_index": 1,
        "same_component": true,
        "segment_index": 1,
        "source": "user_drawn_qa_evidence_not_score_override",
        "start_component_id": 0,
        "start_component_node_count": 637363,
        "start_snap_node_m": 1.5,
        "start_snap_x": 29718.821,
        "start_snap_y": 39165.263
      },
      "type": "Feature"
    },
    {
      "geometry": {
        "coordinates": [
          [
            103.8490254,
            1.3705821000000002
          ],
          [
            103.8495987,
            1.3695984999999997
          ]
        ],
        "type": "LineString"
      },
      "properties": {
        "classification": "covered_evidence_nearby_check_connectivity_or_snap",
        "created_at": "2026-07-30T09:07:35.321Z",
        "destination": "ANG MO KIO MRT STATION Exit D",
        "end_component_id": 0,
        "end_component_node_count": 637363,
        "end_snap_node_m": 2.3,
        "end_snap_x": 29810.534,
        "end_snap_y": 39070.656,
        "endpoint_component_gap_m": null,
        "issue": "user_reported_better_walk_route",
        "label": "sheltered",
        "length_m": 126.1,
        "nearby_covered_edge_count": 53,
        "nearby_edge_count": 138,
        "nearby_sources": "{\"UNREPRESENTED-surface\": 6, \"covered_linkway\": 14, \"osm_explicit_shelter\": 5, \"osm_native_covered\": 26, \"overhead_bridge_underpass\": 2}",
        "nearest_covered_edge_m": 0.0,
        "nearest_edge_m": 0.0,
        "nearest_main_component_covered_edge_m": 2.1,
        "nearest_main_component_covered_sources": "{\"osm_native_covered\": 1}",
        "nearest_main_component_edge_m": 2.1,
        "nearest_main_component_sources": "{\"osm_native_covered\": 1}",
        "needs_model_qa": false,
        "postal": "560710",
        "route_index": 1,
        "same_component": true,
        "segment_index": 2,
        "source": "user_drawn_qa_evidence_not_score_override",
        "start_component_id": 0,
        "start_component_node_count": 637363,
        "start_snap_node_m": 1.8,
        "start_snap_x": 29746.176,
        "start_snap_y": 39177.372
      },
      "type": "Feature"
    },
    {
      "geometry": {
        "coordinates": [
          [
            103.8380057,
            1.3673833000000002
          ],
          [
            103.8376176,
            1.3675330000000006
          ]
        ],
        "type": "LineString"
      },
      "properties": {
        "classification": "hdb_void_deck_component_gap",
        "created_at": "2026-07-30T09:09:52.566Z",
        "destination": "MAYFLOWER MRT STATION Exit 5",
        "end_component_id": 3822,
        "end_component_node_count": 6,
        "end_snap_node_m": 4.8,
        "end_snap_x": 28474.77,
        "end_snap_y": 38837.28,
        "endpoint_component_gap_m": 64.0,
        "issue": "user_reported_better_walk_route",
        "label": "void_deck",
        "length_m": 46.3,
        "nearby_covered_edge_count": 94,
        "nearby_edge_count": 191,
        "nearby_sources": "{\"AUDITED_SHELTER_CORRECTION\": 2, \"INFERRED_HDB_PRECINCT_CONNECTOR\": 64, \"INFERRED_HDB_VOID_DECK\": 1, \"INFERRED_HDB_VOID_DECK_ANCHOR\": 1, \"inferred_hdb_point_footway\": 6, \"inferred_hdb_precinct_footway\": 15, \"osm_building_roof\": 2, \"osm_native_covered\": 3}",
        "nearest_covered_edge_m": 4.8,
        "nearest_edge_m": 4.8,
        "nearest_main_component_covered_edge_m": 25.8,
        "nearest_main_component_covered_sources": "{\"inferred_hdb_precinct_footway\": 1}",
        "nearest_main_component_edge_m": 19.6,
        "nearest_main_component_sources": "{\"service\": 1}",
        "needs_model_qa": true,
        "postal": "560225",
        "route_index": 2,
        "same_component": false,
        "segment_index": 0,
        "source": "user_drawn_qa_evidence_not_score_override",
        "start_component_id": 3335,
        "start_component_node_count": 7,
        "start_snap_node_m": 16.5,
        "start_snap_x": 28537.848,
        "start_snap_y": 38826.573
      },
      "type": "Feature"
    },
    {
      "geometry": {
        "coordinates": [
          [
            103.8376176,
            1.3675330000000006
          ],
          [
            103.8374929,
            1.3674471
          ]
        ],
        "type": "LineString"
      },
      "properties": {
        "classification": "covered_evidence_nearby_check_connectivity_or_snap",
        "created_at": "2026-07-30T09:09:52.566Z",
        "destination": "MAYFLOWER MRT STATION Exit 5",
        "end_component_id": 3822,
        "end_component_node_count": 6,
        "end_snap_node_m": 5.6,
        "end_snap_x": 28465.22,
        "end_snap_y": 38836.46,
        "endpoint_component_gap_m": null,
        "issue": "user_reported_better_walk_route",
        "label": "sheltered",
        "length_m": 16.8,
        "nearby_covered_edge_count": 95,
        "nearby_edge_count": 187,
        "nearby_sources": "{\"AUDITED_SHELTER_CORRECTION\": 2, \"INFERRED_HDB_PRECINCT_CONNECTOR\": 62, \"INFERRED_HDB_VOID_DECK\": 1, \"INFERRED_HDB_VOID_DECK_ANCHOR\": 1, \"inferred_hdb_point_footway\": 6, \"inferred_hdb_precinct_footway\": 16, \"osm_building_roof\": 3, \"osm_native_covered\": 4}",
        "nearest_covered_edge_m": 0.0,
        "nearest_edge_m": 0.0,
        "nearest_main_component_covered_edge_m": 2.6,
        "nearest_main_component_covered_sources": "{\"inferred_hdb_precinct_footway\": 1}",
        "nearest_main_component_edge_m": 2.6,
        "nearest_main_component_sources": "{\"inferred_hdb_precinct_footway\": 1}",
        "needs_model_qa": false,
        "postal": "560225",
        "route_index": 2,
        "same_component": true,
        "segment_index": 1,
        "source": "user_drawn_qa_evidence_not_score_override",
        "start_component_id": 3822,
        "start_component_node_count": 6,
        "start_snap_node_m": 4.8,
        "start_snap_x": 28474.77,
        "start_snap_y": 38837.28
      },
      "type": "Feature"
    },
    {
      "geometry": {
        "coordinates": [
          [
            103.8374929,
            1.3674471
          ],
          [
            103.8373796,
            1.3674825
          ]
        ],
        "type": "LineString"
      },
      "properties": {
        "classification": "covered_evidence_nearby_check_connectivity_or_snap",
        "created_at": "2026-07-30T09:09:52.566Z",
        "destination": "MAYFLOWER MRT STATION Exit 5",
        "end_component_id": 3822,
        "end_component_node_count": 6,
        "end_snap_node_m": 3.6,
        "end_snap_x": 28449.11,
        "end_snap_y": 38837.05,
        "endpoint_component_gap_m": null,
        "issue": "user_reported_better_walk_route",
        "label": "sheltered",
        "length_m": 13.2,
        "nearby_covered_edge_count": 96,
        "nearby_edge_count": 193,
        "nearby_sources": "{\"AUDITED_SHELTER_CORRECTION\": 2, \"INFERRED_HDB_PRECINCT_CONNECTOR\": 62, \"INFERRED_HDB_VOID_DECK\": 1, \"INFERRED_HDB_VOID_DECK_ANCHOR\": 3, \"inferred_hdb_point_footway\": 6, \"inferred_hdb_precinct_footway\": 15, \"osm_building_roof\": 3, \"osm_native_covered\": 4}",
        "nearest_covered_edge_m": 2.2,
        "nearest_edge_m": 0.0,
        "nearest_main_component_covered_edge_m": 7.9,
        "nearest_main_component_covered_sources": "{\"inferred_hdb_precinct_footway\": 1}",
        "nearest_main_component_edge_m": 2.1,
        "nearest_main_component_sources": "{\"residential\": 1}",
        "needs_model_qa": false,
        "postal": "560225",
        "route_index": 2,
        "same_component": true,
        "segment_index": 2,
        "source": "user_drawn_qa_evidence_not_score_override",
        "start_component_id": 3822,
        "start_component_node_count": 6,
        "start_snap_node_m": 5.6,
        "start_snap_x": 28465.22,
        "start_snap_y": 38836.46
      },
      "type": "Feature"
    },
    {
      "geometry": {
        "coordinates": [
          [
            103.8373796,
            1.3674825
          ],
          [
            103.8371248,
            1.3674542000000003
          ]
        ],
        "type": "LineString"
      },
      "properties": {
        "classification": "hdb_void_deck_component_gap",
        "created_at": "2026-07-30T09:09:52.566Z",
        "destination": "MAYFLOWER MRT STATION Exit 5",
        "end_component_id": 0,
        "end_component_node_count": 637363,
        "end_snap_node_m": 10.0,
        "end_snap_x": 28431.366,
        "end_snap_y": 38837.868,
        "endpoint_component_gap_m": 17.8,
        "issue": "user_reported_better_walk_route",
        "label": "sheltered",
        "length_m": 28.5,
        "nearby_covered_edge_count": 114,
        "nearby_edge_count": 214,
        "nearby_sources": "{\"AUDITED_SHELTER_CORRECTION\": 2, \"INFERRED_HDB_PRECINCT_CONNECTOR\": 73, \"INFERRED_HDB_VOID_DECK\": 2, \"INFERRED_HDB_VOID_DECK_ANCHOR\": 3, \"inferred_hdb_point_footway\": 6, \"inferred_hdb_precinct_footway\": 18, \"osm_building_roof\": 4, \"osm_native_covered\": 6}",
        "nearest_covered_edge_m": 0.0,
        "nearest_edge_m": 0.0,
        "nearest_main_component_covered_edge_m": 2.4,
        "nearest_main_component_covered_sources": "{\"inferred_hdb_precinct_footway\": 1}",
        "nearest_main_component_edge_m": 2.4,
        "nearest_main_component_sources": "{\"inferred_hdb_precinct_footway\": 1}",
        "needs_model_qa": true,
        "postal": "560225",
        "route_index": 2,
        "same_component": false,
        "segment_index": 3,
        "source": "user_drawn_qa_evidence_not_score_override",
        "start_component_id": 3822,
        "start_component_node_count": 6,
        "start_snap_node_m": 3.6,
        "start_snap_x": 28449.11,
        "start_snap_y": 38837.05
      },
      "type": "Feature"
    },
    {
      "geometry": {
        "coordinates": [
          [
            103.8371248,
            1.3674542000000003
          ],
          [
            103.8369691,
            1.3675391
          ]
        ],
        "type": "LineString"
      },
      "properties": {
        "classification": "hdb_void_deck_evidence_nearby_check_connectivity",
        "created_at": "2026-07-30T09:09:52.566Z",
        "destination": "MAYFLOWER MRT STATION Exit 5",
        "end_component_id": 0,
        "end_component_node_count": 637363,
        "end_snap_node_m": 16.1,
        "end_snap_x": 28405.324,
        "end_snap_y": 38857.108,
        "endpoint_component_gap_m": null,
        "issue": "user_reported_better_walk_route",
        "label": "void_deck",
        "length_m": 19.7,
        "nearby_covered_edge_count": 128,
        "nearby_edge_count": 220,
        "nearby_sources": "{\"AUDITED_SHELTER_CORRECTION\": 1, \"INFERRED_HDB_PRECINCT_CONNECTOR\": 83, \"INFERRED_HDB_VOID_DECK\": 1, \"INFERRED_HDB_VOID_DECK_ANCHOR\": 2, \"inferred_hdb_point_footway\": 4, \"inferred_hdb_precinct_footway\": 26, \"osm_building_roof\": 4, \"osm_native_covered\": 6, \"overhead_bridge_underpass\": 1}",
        "nearest_covered_edge_m": 10.0,
        "nearest_edge_m": 10.0,
        "nearest_main_component_covered_edge_m": 16.5,
        "nearest_main_component_covered_sources": "{\"inferred_hdb_precinct_footway\": 1}",
        "nearest_main_component_edge_m": 16.5,
        "nearest_main_component_sources": "{\"inferred_hdb_precinct_footway\": 1}",
        "needs_model_qa": false,
        "postal": "560225",
        "route_index": 2,
        "same_component": true,
        "segment_index": 4,
        "source": "user_drawn_qa_evidence_not_score_override",
        "start_component_id": 0,
        "start_component_node_count": 637363,
        "start_snap_node_m": 10.0,
        "start_snap_x": 28431.366,
        "start_snap_y": 38837.868
      },
      "type": "Feature"
    },
    {
      "geometry": {
        "coordinates": [
          [
            103.8369691,
            1.3675391
          ],
          [
            103.83739380000002,
            1.3680910000000002
          ]
        ],
        "type": "LineString"
      },
      "properties": {
        "classification": "covered_evidence_nearby_check_connectivity_or_snap",
        "created_at": "2026-07-30T09:09:52.566Z",
        "destination": "MAYFLOWER MRT STATION Exit 5",
        "end_component_id": 0,
        "end_component_node_count": 637363,
        "end_snap_node_m": 11.9,
        "end_snap_x": 28465.219,
        "end_snap_y": 38899.912,
        "endpoint_component_gap_m": null,
        "issue": "user_reported_better_walk_route",
        "label": "sheltered",
        "length_m": 77.2,
        "nearby_covered_edge_count": 155,
        "nearby_edge_count": 271,
        "nearby_sources": "{\"AUDITED_SHELTER_CORRECTION\": 2, \"INFERRED_HDB_PRECINCT_CONNECTOR\": 100, \"INFERRED_HDB_VOID_DECK\": 3, \"INFERRED_HDB_VOID_DECK_ANCHOR\": 5, \"inferred_hdb_point_footway\": 7, \"inferred_hdb_precinct_footway\": 30, \"osm_building_roof\": 3, \"osm_native_covered\": 4, \"overhead_bridge_underpass\": 1}",
        "nearest_covered_edge_m": 0.0,
        "nearest_edge_m": 0.0,
        "nearest_main_component_covered_edge_m": 13.4,
        "nearest_main_component_covered_sources": "{\"osm_native_covered\": 1}",
        "nearest_main_component_edge_m": 13.4,
        "nearest_main_component_sources": "{\"osm_building_roof\": 1}",
        "needs_model_qa": false,
        "postal": "560225",
        "route_index": 2,
        "same_component": true,
        "segment_index": 5,
        "source": "user_drawn_qa_evidence_not_score_override",
        "start_component_id": 0,
        "start_component_node_count": 637363,
        "start_snap_node_m": 16.1,
        "start_snap_x": 28405.324,
        "start_snap_y": 38857.108
      },
      "type": "Feature"
    },
    {
      "geometry": {
        "coordinates": [
          [
            103.83739380000002,
            1.3680910000000002
          ],
          [
            103.836962,
            1.3686784000000003
          ]
        ],
        "type": "LineString"
      },
      "properties": {
        "classification": "hdb_void_deck_evidence_nearby_check_connectivity",
        "created_at": "2026-07-30T09:09:52.566Z",
        "destination": "MAYFLOWER MRT STATION Exit 5",
        "end_component_id": 0,
        "end_component_node_count": 637363,
        "end_snap_node_m": 8.9,
        "end_snap_x": 28396.911,
        "end_snap_y": 38964.642,
        "endpoint_component_gap_m": null,
        "issue": "user_reported_better_walk_route",
        "label": "void_deck",
        "length_m": 80.8,
        "nearby_covered_edge_count": 142,
        "nearby_edge_count": 271,
        "nearby_sources": "{\"AUDITED_SHELTER_CORRECTION\": 5, \"INFERRED_HDB_PRECINCT_CONNECTOR\": 80, \"INFERRED_HDB_VOID_DECK\": 2, \"INFERRED_HDB_VOID_DECK_ANCHOR\": 3, \"UNREPRESENTED-surface\": 1, \"covered_linkway\": 2, \"inferred_hdb_point_footway\": 8, \"inferred_hdb_precinct_footway\": 26, \"osm_building_roof\": 1, \"osm_explicit_shelter\": 3, \"osm_native_covered\": 11}",
        "nearest_covered_edge_m": 0.0,
        "nearest_edge_m": 0.0,
        "nearest_main_component_covered_edge_m": 8.6,
        "nearest_main_component_covered_sources": "{\"inferred_hdb_precinct_footway\": 1}",
        "nearest_main_component_edge_m": 8.6,
        "nearest_main_component_sources": "{\"inferred_hdb_precinct_footway\": 1}",
        "needs_model_qa": false,
        "postal": "560225",
        "route_index": 2,
        "same_component": true,
        "segment_index": 6,
        "source": "user_drawn_qa_evidence_not_score_override",
        "start_component_id": 0,
        "start_component_node_count": 637363,
        "start_snap_node_m": 11.9,
        "start_snap_x": 28465.219,
        "start_snap_y": 38899.912
      },
      "type": "Feature"
    },
    {
      "geometry": {
        "coordinates": [
          [
            103.836962,
            1.3686784000000003
          ],
          [
            103.8367497,
            1.3686359
          ]
        ],
        "type": "LineString"
      },
      "properties": {
        "classification": "hdb_void_deck_component_gap",
        "created_at": "2026-07-30T09:09:52.566Z",
        "destination": "MAYFLOWER MRT STATION Exit 5",
        "end_component_id": 1078,
        "end_component_node_count": 20,
        "end_snap_node_m": 6.6,
        "end_snap_x": 28380.96,
        "end_snap_y": 38968.84,
        "endpoint_component_gap_m": 16.5,
        "issue": "user_reported_better_walk_route",
        "label": "sheltered",
        "length_m": 24.1,
        "nearby_covered_edge_count": 71,
        "nearby_edge_count": 136,
        "nearby_sources": "{\"AUDITED_SHELTER_CORRECTION\": 4, \"INFERRED_HDB_PRECINCT_CONNECTOR\": 29, \"INFERRED_HDB_VOID_DECK\": 2, \"INFERRED_HDB_VOID_DECK_ANCHOR\": 3, \"UNREPRESENTED-surface\": 2, \"covered_linkway\": 5, \"inferred_hdb_point_footway\": 1, \"inferred_hdb_precinct_footway\": 12, \"osm_explicit_shelter\": 3, \"osm_native_covered\": 9, \"overhead_bridge_underpass\": 1}",
        "nearest_covered_edge_m": 0.0,
        "nearest_edge_m": 0.0,
        "nearest_main_component_covered_edge_m": 2.5,
        "nearest_main_component_covered_sources": "{\"inferred_hdb_precinct_footway\": 1}",
        "nearest_main_component_edge_m": 2.5,
        "nearest_main_component_sources": "{\"inferred_hdb_precinct_footway\": 1}",
        "needs_model_qa": true,
        "postal": "560225",
        "route_index": 2,
        "same_component": false,
        "segment_index": 7,
        "source": "user_drawn_qa_evidence_not_score_override",
        "start_component_id": 0,
        "start_component_node_count": 637363,
        "start_snap_node_m": 8.9,
        "start_snap_x": 28396.911,
        "start_snap_y": 38964.642
      },
      "type": "Feature"
    },
    {
      "geometry": {
        "coordinates": [
          [
            103.8367497,
            1.3686359
          ],
          [
            103.836417,
            1.3688341000000002
          ]
        ],
        "type": "LineString"
      },
      "properties": {
        "classification": "hdb_void_deck_component_gap",
        "created_at": "2026-07-30T09:09:52.566Z",
        "destination": "MAYFLOWER MRT STATION Exit 5",
        "end_component_id": 0,
        "end_component_node_count": 637363,
        "end_snap_node_m": 2.6,
        "end_snap_x": 28347.388,
        "end_snap_y": 38984.347,
        "endpoint_component_gap_m": 37.0,
        "issue": "user_reported_better_walk_route",
        "label": "covered_bridge",
        "length_m": 43.0,
        "nearby_covered_edge_count": 72,
        "nearby_edge_count": 132,
        "nearby_sources": "{\"AUDITED_SHELTER_CORRECTION\": 4, \"INFERRED_HDB_PRECINCT_CONNECTOR\": 27, \"INFERRED_HDB_VOID_DECK\": 2, \"INFERRED_HDB_VOID_DECK_ANCHOR\": 2, \"UNREPRESENTED-surface\": 3, \"covered_linkway\": 8, \"inferred_hdb_point_footway\": 1, \"inferred_hdb_precinct_footway\": 12, \"osm_explicit_shelter\": 3, \"osm_native_covered\": 9, \"overhead_bridge_underpass\": 1}",
        "nearest_covered_edge_m": 0.0,
        "nearest_edge_m": 0.0,
        "nearest_main_component_covered_edge_m": 1.0,
        "nearest_main_component_covered_sources": "{\"osm_native_covered\": 1}",
        "nearest_main_component_edge_m": 1.0,
        "nearest_main_component_sources": "{\"osm_native_covered\": 1}",
        "needs_model_qa": true,
        "postal": "560225",
        "route_index": 2,
        "same_component": false,
        "segment_index": 8,
        "source": "user_drawn_qa_evidence_not_score_override",
        "start_component_id": 1078,
        "start_component_node_count": 20,
        "start_snap_node_m": 6.6,
        "start_snap_x": 28380.96,
        "start_snap_y": 38968.84
      },
      "type": "Feature"
    },
    {
      "geometry": {
        "coordinates": [
          [
            103.836417,
            1.3688341000000002
          ],
          [
            103.8369762,
            1.3692445
          ]
        ],
        "type": "LineString"
      },
      "properties": {
        "classification": "covered_evidence_nearby_check_connectivity_or_snap",
        "created_at": "2026-07-30T09:09:52.566Z",
        "destination": "MAYFLOWER MRT STATION Exit 5",
        "end_component_id": 0,
        "end_component_node_count": 637363,
        "end_snap_node_m": 3.7,
        "end_snap_x": 28409.041,
        "end_snap_y": 39026.454,
        "endpoint_component_gap_m": null,
        "issue": "user_reported_better_walk_route",
        "label": "sheltered",
        "length_m": 77.0,
        "nearby_covered_edge_count": 126,
        "nearby_edge_count": 194,
        "nearby_sources": "{\"AUDITED_SHELTER_CORRECTION\": 4, \"INFERRED_HDB_PRECINCT_CONNECTOR\": 43, \"INFERRED_HDB_VOID_DECK\": 4, \"INFERRED_HDB_VOID_DECK_ANCHOR\": 2, \"UNREPRESENTED-surface\": 3, \"covered_linkway\": 8, \"inferred_hdb_point_footway\": 16, \"inferred_hdb_precinct_footway\": 34, \"osm_explicit_shelter\": 3, \"osm_native_covered\": 9}",
        "nearest_covered_edge_m": 1.4,
        "nearest_edge_m": 0.0,
        "nearest_main_component_covered_edge_m": 33.0,
        "nearest_main_component_covered_sources": "{\"osm_explicit_shelter\": 1}",
        "nearest_main_component_edge_m": 3.5,
        "nearest_main_component_sources": "{\"footway\": 1}",
        "needs_model_qa": false,
        "postal": "560225",
        "route_index": 2,
        "same_component": true,
        "segment_index": 9,
        "source": "user_drawn_qa_evidence_not_score_override",
        "start_component_id": 0,
        "start_component_node_count": 637363,
        "start_snap_node_m": 2.6,
        "start_snap_x": 28347.388,
        "start_snap_y": 38984.347
      },
      "type": "Feature"
    },
    {
      "geometry": {
        "coordinates": [
          [
            103.8369762,
            1.3692445
          ],
          [
            103.8367709,
            1.3695205
          ]
        ],
        "type": "LineString"
      },
      "properties": {
        "classification": "covered_evidence_nearby_check_connectivity_or_snap",
        "created_at": "2026-07-30T09:09:52.566Z",
        "destination": "MAYFLOWER MRT STATION Exit 5",
        "end_component_id": 0,
        "end_component_node_count": 637363,
        "end_snap_node_m": 24.7,
        "end_snap_x": 28399.693,
        "end_snap_y": 39040.895,
        "endpoint_component_gap_m": null,
        "issue": "user_reported_better_walk_route",
        "label": "sheltered",
        "length_m": 38.1,
        "nearby_covered_edge_count": 123,
        "nearby_edge_count": 171,
        "nearby_sources": "{\"AUDITED_SHELTER_CORRECTION\": 4, \"INFERRED_HDB_PRECINCT_CONNECTOR\": 45, \"INFERRED_HDB_VOID_DECK\": 5, \"INFERRED_HDB_VOID_DECK_ANCHOR\": 2, \"inferred_hdb_point_footway\": 17, \"inferred_hdb_precinct_footway\": 39, \"osm_explicit_shelter\": 3, \"osm_native_covered\": 8}",
        "nearest_covered_edge_m": 39.2,
        "nearest_edge_m": 0.0,
        "nearest_main_component_covered_edge_m": 57.2,
        "nearest_main_component_covered_sources": "{\"inferred_hdb_precinct_footway\": 1}",
        "nearest_main_component_edge_m": 5.7,
        "nearest_main_component_sources": "{\"service\": 1}",
        "needs_model_qa": false,
        "postal": "560225",
        "route_index": 2,
        "same_component": true,
        "segment_index": 10,
        "source": "user_drawn_qa_evidence_not_score_override",
        "start_component_id": 0,
        "start_component_node_count": 637363,
        "start_snap_node_m": 3.7,
        "start_snap_x": 28409.041,
        "start_snap_y": 39026.454
      },
      "type": "Feature"
    },
    {
      "geometry": {
        "coordinates": [
          [
            103.8367709,
            1.3695205
          ],
          [
            103.8363391,
            1.3703130000000001
          ]
        ],
        "type": "LineString"
      },
      "properties": {
        "classification": "hdb_void_deck_component_gap",
        "created_at": "2026-07-30T09:09:52.566Z",
        "destination": "MAYFLOWER MRT STATION Exit 5",
        "end_component_id": 2099,
        "end_component_node_count": 11,
        "end_snap_node_m": 7.9,
        "end_snap_x": 28339.82,
        "end_snap_y": 39154.798,
        "endpoint_component_gap_m": 128.7,
        "issue": "user_reported_better_walk_route",
        "label": "void_deck",
        "length_m": 99.9,
        "nearby_covered_edge_count": 66,
        "nearby_edge_count": 127,
        "nearby_sources": "{\"INFERRED_HDB_PRECINCT_CONNECTOR\": 30, \"INFERRED_HDB_VOID_DECK\": 2, \"INFERRED_HDB_VOID_DECK_ANCHOR\": 2, \"inferred_hdb_point_footway\": 14, \"inferred_hdb_precinct_footway\": 18}",
        "nearest_covered_edge_m": 7.9,
        "nearest_edge_m": 7.9,
        "nearest_main_component_covered_edge_m": 73.9,
        "nearest_main_component_covered_sources": "{\"inferred_hdb_precinct_footway\": 1}",
        "nearest_main_component_edge_m": 31.9,
        "nearest_main_component_sources": "{\"secondary\": 1}",
        "needs_model_qa": true,
        "postal": "560225",
        "route_index": 2,
        "same_component": false,
        "segment_index": 11,
        "source": "user_drawn_qa_evidence_not_score_override",
        "start_component_id": 0,
        "start_component_node_count": 637363,
        "start_snap_node_m": 24.7,
        "start_snap_x": 28399.693,
        "start_snap_y": 39040.895
      },
      "type": "Feature"
    },
    {
      "geometry": {
        "coordinates": [
          [
            103.8363391,
            1.3703130000000001
          ],
          [
            103.83653020000001,
            1.3704475
          ]
        ],
        "type": "LineString"
      },
      "properties": {
        "classification": "covered_evidence_nearby_check_connectivity_or_snap",
        "created_at": "2026-07-30T09:09:52.566Z",
        "destination": "MAYFLOWER MRT STATION Exit 5",
        "end_component_id": 2099,
        "end_component_node_count": 11,
        "end_snap_node_m": 3.6,
        "end_snap_x": 28355.767,
        "end_snap_y": 39159.453,
        "endpoint_component_gap_m": null,
        "issue": "user_reported_better_walk_route",
        "label": "sheltered",
        "length_m": 26.0,
        "nearby_covered_edge_count": 33,
        "nearby_edge_count": 77,
        "nearby_sources": "{\"INFERRED_HDB_PRECINCT_CONNECTOR\": 12, \"INFERRED_HDB_VOID_DECK_ANCHOR\": 3, \"inferred_hdb_point_footway\": 13, \"inferred_hdb_precinct_footway\": 5}",
        "nearest_covered_edge_m": 0.0,
        "nearest_edge_m": 0.0,
        "nearest_main_component_covered_edge_m": 80.6,
        "nearest_main_component_covered_sources": "{\"inferred_hdb_point_footway\": 1}",
        "nearest_main_component_edge_m": 24.6,
        "nearest_main_component_sources": "{\"secondary\": 1}",
        "needs_model_qa": false,
        "postal": "560225",
        "route_index": 2,
        "same_component": true,
        "segment_index": 12,
        "source": "user_drawn_qa_evidence_not_score_override",
        "start_component_id": 2099,
        "start_component_node_count": 11,
        "start_snap_node_m": 7.9,
        "start_snap_x": 28339.82,
        "start_snap_y": 39154.798
      },
      "type": "Feature"
    },
    {
      "geometry": {
        "coordinates": [
          [
            103.8465903,
            1.3696501
          ],
          [
            103.8464151,
            1.3690974
          ]
        ],
        "type": "LineString"
      },
      "properties": {
        "classification": "covered_evidence_nearby_check_connectivity_or_snap",
        "created_at": "2026-07-30T09:12:22.029Z",
        "destination": "ANG MO KIO MRT STATION Exit B",
        "end_component_id": 0,
        "end_component_node_count": 637363,
        "end_snap_node_m": 6.3,
        "end_snap_x": 29457.129,
        "end_snap_y": 39007.107,
        "endpoint_component_gap_m": null,
        "issue": "user_reported_better_walk_route",
        "label": "sheltered",
        "length_m": 64.1,
        "nearby_covered_edge_count": 104,
        "nearby_edge_count": 171,
        "nearby_sources": "{\"INFERRED_HDB_PRECINCT_CONNECTOR\": 52, \"INFERRED_HDB_VOID_DECK\": 3, \"INFERRED_HDB_VOID_DECK_ANCHOR\": 6, \"UNREPRESENTED-surface\": 4, \"covered_linkway\": 11, \"inferred_hdb_point_footway\": 6, \"inferred_hdb_precinct_footway\": 11, \"osm_explicit_shelter\": 1, \"osm_native_covered\": 10}",
        "nearest_covered_edge_m": 0.3,
        "nearest_edge_m": 0.0,
        "nearest_main_component_covered_edge_m": 10.2,
        "nearest_main_component_covered_sources": "{\"INFERRED_HDB_VOID_DECK_ANCHOR\": 1}",
        "nearest_main_component_edge_m": 7.1,
        "nearest_main_component_sources": "{\"service\": 1}",
        "needs_model_qa": false,
        "postal": "560700",
        "route_index": 3,
        "same_component": true,
        "segment_index": 0,
        "source": "user_drawn_qa_evidence_not_score_override",
        "start_component_id": 0,
        "start_component_node_count": 637363,
        "start_snap_node_m": 3.2,
        "start_snap_x": 29477.06,
        "start_snap_y": 39077.709
      },
      "type": "Feature"
    },
    {
      "geometry": {
        "coordinates": [
          [
            103.8464151,
            1.3690974
          ],
          [
            103.84682090000001,
            1.3690459000000001
          ]
        ],
        "type": "LineString"
      },
      "properties": {
        "classification": "covered_evidence_nearby_check_connectivity_or_snap",
        "created_at": "2026-07-30T09:12:22.029Z",
        "destination": "ANG MO KIO MRT STATION Exit B",
        "end_component_id": 0,
        "end_component_node_count": 637363,
        "end_snap_node_m": 1.9,
        "end_snap_x": 29501.833,
        "end_snap_y": 39009.429,
        "endpoint_component_gap_m": null,
        "issue": "user_reported_better_walk_route",
        "label": "sheltered",
        "length_m": 45.5,
        "nearby_covered_edge_count": 99,
        "nearby_edge_count": 164,
        "nearby_sources": "{\"INFERRED_HDB_PRECINCT_CONNECTOR\": 50, \"INFERRED_HDB_VOID_DECK\": 2, \"INFERRED_HDB_VOID_DECK_ANCHOR\": 6, \"UNREPRESENTED-surface\": 4, \"covered_linkway\": 11, \"inferred_hdb_point_footway\": 9, \"inferred_hdb_precinct_footway\": 11, \"osm_explicit_shelter\": 1, \"osm_native_covered\": 5}",
        "nearest_covered_edge_m": 0.0,
        "nearest_edge_m": 0.0,
        "nearest_main_component_covered_edge_m": 0.7,
        "nearest_main_component_covered_sources": "{\"covered_linkway\": 1}",
        "nearest_main_component_edge_m": 0.7,
        "nearest_main_component_sources": "{\"covered_linkway\": 1}",
        "needs_model_qa": false,
        "postal": "560700",
        "route_index": 3,
        "same_component": true,
        "segment_index": 1,
        "source": "user_drawn_qa_evidence_not_score_override",
        "start_component_id": 0,
        "start_component_node_count": 637363,
        "start_snap_node_m": 6.3,
        "start_snap_x": 29457.129,
        "start_snap_y": 39007.107
      },
      "type": "Feature"
    },
    {
      "geometry": {
        "coordinates": [
          [
            103.84682090000001,
            1.3690459000000001
          ],
          [
            103.8469625,
            1.3690459000000001
          ]
        ],
        "type": "LineString"
      },
      "properties": {
        "classification": "covered_evidence_nearby_check_connectivity_or_snap",
        "created_at": "2026-07-30T09:12:22.029Z",
        "destination": "ANG MO KIO MRT STATION Exit B",
        "end_component_id": 0,
        "end_component_node_count": 637363,
        "end_snap_node_m": 3.7,
        "end_snap_x": 29514.72,
        "end_snap_y": 39008.323,
        "endpoint_component_gap_m": null,
        "issue": "user_reported_better_walk_route",
        "label": "sheltered",
        "length_m": 15.8,
        "nearby_covered_edge_count": 79,
        "nearby_edge_count": 133,
        "nearby_sources": "{\"INFERRED_HDB_PRECINCT_CONNECTOR\": 38, \"INFERRED_HDB_VOID_DECK\": 2, \"INFERRED_HDB_VOID_DECK_ANCHOR\": 5, \"UNREPRESENTED-surface\": 4, \"covered_linkway\": 11, \"inferred_hdb_point_footway\": 5, \"inferred_hdb_precinct_footway\": 8, \"osm_explicit_shelter\": 1, \"osm_native_covered\": 5}",
        "nearest_covered_edge_m": 0.7,
        "nearest_edge_m": 0.7,
        "nearest_main_component_covered_edge_m": 1.0,
        "nearest_main_component_covered_sources": "{\"covered_linkway\": 1}",
        "nearest_main_component_edge_m": 1.0,
        "nearest_main_component_sources": "{\"covered_linkway\": 1}",
        "needs_model_qa": false,
        "postal": "560700",
        "route_index": 3,
        "same_component": true,
        "segment_index": 2,
        "source": "user_drawn_qa_evidence_not_score_override",
        "start_component_id": 0,
        "start_component_node_count": 637363,
        "start_snap_node_m": 1.9,
        "start_snap_x": 29501.833,
        "start_snap_y": 39009.429
      },
      "type": "Feature"
    },
    {
      "geometry": {
        "coordinates": [
          [
            103.8469625,
            1.3690459000000001
          ],
          [
            103.847465,
            1.3690105
          ]
        ],
        "type": "LineString"
      },
      "properties": {
        "classification": "covered_evidence_nearby_check_connectivity_or_snap",
        "created_at": "2026-07-30T09:12:22.029Z",
        "destination": "ANG MO KIO MRT STATION Exit B",
        "end_component_id": 0,
        "end_component_node_count": 637363,
        "end_snap_node_m": 2.6,
        "end_snap_x": 29571.766,
        "end_snap_y": 39003.646,
        "endpoint_component_gap_m": null,
        "issue": "user_reported_better_walk_route",
        "label": "sheltered",
        "length_m": 56.1,
        "nearby_covered_edge_count": 86,
        "nearby_edge_count": 147,
        "nearby_sources": "{\"INFERRED_HDB_PRECINCT_CONNECTOR\": 42, \"INFERRED_HDB_VOID_DECK\": 3, \"INFERRED_HDB_VOID_DECK_ANCHOR\": 6, \"UNREPRESENTED-surface\": 4, \"covered_linkway\": 15, \"inferred_hdb_point_footway\": 5, \"inferred_hdb_precinct_footway\": 5, \"osm_explicit_shelter\": 1, \"osm_native_covered\": 5}",
        "nearest_covered_edge_m": 3.7,
        "nearest_edge_m": 0.0,
        "nearest_main_component_covered_edge_m": 31.8,
        "nearest_main_component_covered_sources": "{\"covered_linkway\": 1}",
        "nearest_main_component_edge_m": 11.0,
        "nearest_main_component_sources": "{\"primary\": 1}",
        "needs_model_qa": false,
        "postal": "560700",
        "route_index": 3,
        "same_component": true,
        "segment_index": 3,
        "source": "user_drawn_qa_evidence_not_score_override",
        "start_component_id": 0,
        "start_component_node_count": 637363,
        "start_snap_node_m": 3.7,
        "start_snap_x": 29514.72,
        "start_snap_y": 39008.323
      },
      "type": "Feature"
    },
    {
      "geometry": {
        "coordinates": [
          [
            103.847465,
            1.3690105
          ],
          [
            103.8474721,
            1.3693501000000001
          ]
        ],
        "type": "LineString"
      },
      "properties": {
        "classification": "covered_evidence_nearby_check_connectivity_or_snap",
        "created_at": "2026-07-30T09:12:22.029Z",
        "destination": "ANG MO KIO MRT STATION Exit B",
        "end_component_id": 0,
        "end_component_node_count": 637363,
        "end_snap_node_m": 7.8,
        "end_snap_x": 29567.782,
        "end_snap_y": 39038.61,
        "endpoint_component_gap_m": null,
        "issue": "user_reported_better_walk_route",
        "label": "sheltered",
        "length_m": 37.6,
        "nearby_covered_edge_count": 54,
        "nearby_edge_count": 99,
        "nearby_sources": "{\"INFERRED_HDB_PRECINCT_CONNECTOR\": 31, \"INFERRED_HDB_VOID_DECK\": 2, \"INFERRED_HDB_VOID_DECK_ANCHOR\": 3, \"covered_linkway\": 6, \"inferred_hdb_point_footway\": 6, \"osm_explicit_shelter\": 1, \"osm_native_covered\": 5}",
        "nearest_covered_edge_m": 9.1,
        "nearest_edge_m": 2.6,
        "nearest_main_component_covered_edge_m": 24.3,
        "nearest_main_component_covered_sources": "{\"inferred_hdb_point_footway\": 1}",
        "nearest_main_component_edge_m": 5.0,
        "nearest_main_component_sources": "{\"footway\": 1}",
        "needs_model_qa": false,
        "postal": "560700",
        "route_index": 3,
        "same_component": true,
        "segment_index": 4,
        "source": "user_drawn_qa_evidence_not_score_override",
        "start_component_id": 0,
        "start_component_node_count": 637363,
        "start_snap_node_m": 2.6,
        "start_snap_x": 29571.766,
        "start_snap_y": 39003.646
      },
      "type": "Feature"
    },
    {
      "geometry": {
        "coordinates": [
          [
            103.8474721,
            1.3693501000000001
          ],
          [
            103.849178,
            1.3695129000000001
          ]
        ],
        "type": "LineString"
      },
      "properties": {
        "classification": "covered_evidence_nearby_check_connectivity_or_snap",
        "created_at": "2026-07-30T09:12:22.029Z",
        "destination": "ANG MO KIO MRT STATION Exit B",
        "end_component_id": 0,
        "end_component_node_count": 637363,
        "end_snap_node_m": 20.8,
        "end_snap_x": 29785.472,
        "end_snap_y": 39062.551,
        "endpoint_component_gap_m": null,
        "issue": "user_reported_better_walk_route",
        "label": "sheltered",
        "length_m": 190.7,
        "nearby_covered_edge_count": 58,
        "nearby_edge_count": 140,
        "nearby_sources": "{\"INFERRED_HDB_PRECINCT_CONNECTOR\": 10, \"UNREPRESENTED-surface\": 6, \"covered_linkway\": 14, \"inferred_hdb_point_footway\": 5, \"osm_explicit_shelter\": 2, \"osm_native_covered\": 14, \"overhead_bridge_underpass\": 7}",
        "nearest_covered_edge_m": 9.1,
        "nearest_edge_m": 7.6,
        "nearest_main_component_covered_edge_m": 49.5,
        "nearest_main_component_covered_sources": "{\"covered_linkway\": 1}",
        "nearest_main_component_edge_m": 49.5,
        "nearest_main_component_sources": "{\"covered_linkway\": 1}",
        "needs_model_qa": false,
        "postal": "560700",
        "route_index": 3,
        "same_component": true,
        "segment_index": 5,
        "source": "user_drawn_qa_evidence_not_score_override",
        "start_component_id": 0,
        "start_component_node_count": 637363,
        "start_snap_node_m": 7.8,
        "start_snap_x": 29567.782,
        "start_snap_y": 39038.61
      },
      "type": "Feature"
    },
    {
      "geometry": {
        "coordinates": [
          [
            103.849178,
            1.3695129000000001
          ],
          [
            103.8496735,
            1.3694351
          ]
        ],
        "type": "LineString"
      },
      "properties": {
        "classification": "bridge_underpass_evidence_nearby_check_endpoint_snap",
        "created_at": "2026-07-30T09:12:22.029Z",
        "destination": "ANG MO KIO MRT STATION Exit B",
        "end_component_id": 0,
        "end_component_node_count": 637363,
        "end_snap_node_m": 5.1,
        "end_snap_x": 29816.087,
        "end_snap_y": 39053.882,
        "endpoint_component_gap_m": null,
        "issue": "user_reported_better_walk_route",
        "label": "underpass",
        "length_m": 55.8,
        "nearby_covered_edge_count": 29,
        "nearby_edge_count": 92,
        "nearby_sources": "{\"OFFSET\": 1, \"UNREPRESENTED-surface\": 2, \"covered_linkway\": 4, \"osm_explicit_shelter\": 3, \"osm_native_covered\": 17, \"overhead_bridge_underpass\": 2}",
        "nearest_covered_edge_m": 0.0,
        "nearest_edge_m": 0.0,
        "nearest_main_component_covered_edge_m": 2.5,
        "nearest_main_component_covered_sources": "{\"overhead_bridge_underpass\": 1}",
        "nearest_main_component_edge_m": 2.5,
        "nearest_main_component_sources": "{\"overhead_bridge_underpass\": 1}",
        "needs_model_qa": false,
        "postal": "560700",
        "route_index": 3,
        "same_component": true,
        "segment_index": 6,
        "source": "user_drawn_qa_evidence_not_score_override",
        "start_component_id": 0,
        "start_component_node_count": 637363,
        "start_snap_node_m": 20.8,
        "start_snap_x": 29785.472,
        "start_snap_y": 39062.551
      },
      "type": "Feature"
    },
    {
      "geometry": {
        "coordinates": [
          [
            103.8496735,
            1.3694351
          ],
          [
            103.8496806,
            1.3698101
          ]
        ],
        "type": "LineString"
      },
      "properties": {
        "classification": "covered_evidence_nearby_check_connectivity_or_snap",
        "created_at": "2026-07-30T09:12:22.029Z",
        "destination": "ANG MO KIO MRT STATION Exit B",
        "end_component_id": 0,
        "end_component_node_count": 637363,
        "end_snap_node_m": 22.2,
        "end_snap_x": 29812.493,
        "end_snap_y": 39071.585,
        "endpoint_component_gap_m": null,
        "issue": "user_reported_better_walk_route",
        "label": "sheltered",
        "length_m": 41.5,
        "nearby_covered_edge_count": 25,
        "nearby_edge_count": 80,
        "nearby_sources": "{\"OFFSET\": 1, \"UNREPRESENTED-surface\": 1, \"covered_linkway\": 1, \"osm_explicit_shelter\": 3, \"osm_native_covered\": 17, \"overhead_bridge_underpass\": 2}",
        "nearest_covered_edge_m": 1.9,
        "nearest_edge_m": 1.9,
        "nearest_main_component_covered_edge_m": 8.0,
        "nearest_main_component_covered_sources": "{\"osm_native_covered\": 1}",
        "nearest_main_component_edge_m": 8.0,
        "nearest_main_component_sources": "{\"osm_native_covered\": 1}",
        "needs_model_qa": false,
        "postal": "560700",
        "route_index": 3,
        "same_component": true,
        "segment_index": 7,
        "source": "user_drawn_qa_evidence_not_score_override",
        "start_component_id": 0,
        "start_component_node_count": 637363,
        "start_snap_node_m": 5.1,
        "start_snap_x": 29816.087,
        "start_snap_y": 39053.882
      },
      "type": "Feature"
    }
  ],
  "type": "FeatureCollection"
}